{"type":"FeatureCollection","features":[{"type":"Feature","geometry":{"type":"Point","coordinates":[88.49929004776399,22.540943938601636]},"properties":{"name":"Building 1","type":"commercial","floors":8,"yearBuilt":2011}},{"type":"Feature","geometry":{"type":"Point","coordinates":[88.38469278684624,22.459111463962614]},"properties":{"name":"Building 2","type":"industrial","floors":4,"yearBuilt":1986}},{"type":"Feature","geometry":{"type":"Point","coordinates":[88.52669968826545,22.465515704931814]},"properties":{"name":"Building 3","type":"commercial","floors":8,"yearBuilt":1983}},{"type":"Feature","geometry":{"type":"Point","coordinates":[88.29155652943872,22.52037371639905]},"properties":{"name":"Building 4","type":"industrial","floors":4,"yearBuilt":1994}},{"type":"Feature","geometry":{"type":"Point","coordinates":[88.37098987264463,22.639724670706258]},"properties":{"name":"Building 5","type":"commercial","floors":4,"yearBuilt":1990}},{"type":"Feature","geometry":{"type":"Point","coordinates":[88.51924060116052,22.507917936402077]},"properties":{"name":"Building 6","type":"residential","floors":15,"yearBuilt":1971}},{"type":"Feature","geometry":{"type":"Point","coordinates":[88.19100662584077,22.595371977931503]},"properties":{"name":"Building 7","type":"commercial","floors":17,"yearBuilt":1997}},{"type":"Feature","geometry":{"type":"Point","coordinates":[88.46087070162677,22.570958337619608]},"properties":{"name":"Building 8","type":"industrial","floors":19,"yearBuilt":1970}},{"type":"Feature","geometry":{"type":"Point","coordinates":[88.52524552720999,22.52001344036911]},"properties":{"name":"Building 9","type":"government","floors":17,"yearBuilt":1996}},{"type":"Feature","geometry":{"type":"Point","coordinates":[88.33663557285173,22.481359945345588]},"properties":{"name":"Building 10","type":"industrial","floors":3,"yearBuilt":1995}},{"type":"Feature","geometry":{"type":"Point","coordinates":[88.32078677371112,22.59050174010239]},"properties":{"name":"Building 11","type":"government","floors":14,"yearBuilt":2017}},{"type":"Feature","geometry":{"type":"Point","coordinates":[88.3051577915057,22.717840178823742]},"properties":{"name":"Building 12","type":"residential","floors":1,"yearBuilt":1975}},{"type":"Feature","geometry":{"type":"Point","coordinates":[88.34004661421719,22.576850820435567]},"properties":{"name":"Building 13","type":"government","floors":12,"yearBuilt":1961}},{"type":"Feature","geometry":{"type":"Point","coordinates":[88.26164426483965,22.44996759177237]},"properties":{"name":"Building 14","type":"industrial","floors":15,"yearBuilt":1977}},{"type":"Feature","geometry":{"type":"Point","coordinates":[88.52218090808125,22.48298065128347]},"properties":{"name":"Building 15","type":"commercial","floors":11,"yearBuilt":1968}},{"type":"Feature","geometry":{"type":"Point","coordinates":[88.5247669290684,22.72737568897811]},"properties":{"name":"Building 16","type":"government","floors":2,"yearBuilt":1964}},{"type":"Feature","geometry":{"type":"Point","coordinates":[88.46566324892301,22.614680699178827]},"properties":{"name":"Building 17","type":"industrial","floors":14,"yearBuilt":1982}},{"type":"Feature","geometry":{"type":"Point","coordinates":[88.19001175216522,22.64117176860282]},"properties":{"name":"Building 18","type":"industrial","floors":20,"yearBuilt":2001}},{"type":"Feature","geometry":{"type":"Point","coordinates":[88.31319969962581,22.499389723437396]},"properties":{"name":"Building 19","type":"residential","floors":12,"yearBuilt":2001}},{"type":"Feature","geometry":{"type":"Point","coordinates":[88.23361509911449,22.547845370259477]},"properties":{"name":"Building 20","type":"industrial","floors":18,"yearBuilt":1975}},{"type":"Feature","geometry":{"type":"Point","coordinates":[88.2044471057682,22.521587221234455]},"properties":{"name":"Building 21","type":"commercial","floors":8,"yearBuilt":2000}},{"type":"Feature","geometry":{"type":"Point","coordinates":[88.52104891377031,22.689881938893777]},"properties":{"name":"Building 22","type":"industrial","floors":11,"yearBuilt":1964}},{"type":"Feature","geometry":{"type":"Point","coordinates":[88.33498373904082,22.609338387135093]},"properties":{"name":"Building 23","type":"commercial","floors":2,"yearBuilt":1995}},{"type":"Feature","geometry":{"type":"Point","coordinates":[88.30480409424092,22.72602936342905]},"properties":{"name":"Building 24","type":"industrial","floors":2,"yearBuilt":2013}},{"type":"Feature","geometry":{"type":"Point","coordinates":[88.48099668464333,22.714859115842412]},"properties":{"name":"Building 25","type":"industrial","floors":6,"yearBuilt":1960}},{"type":"Feature","geometry":{"type":"Point","coordinates":[88.24583247610333,22.44910462773535]},"properties":{"name":"Building 26","type":"commercial","floors":15,"yearBuilt":2012}},{"type":"Feature","geometry":{"type":"Point","coordinates":[88.42711785350339,22.480737961767957]},"properties":{"name":"Building 27","type":"commercial","floors":12,"yearBuilt":1999}},{"type":"Feature","geometry":{"type":"Point","coordinates":[88.47077080784743,22.64170066621152]},"properties":{"name":"Building 28","type":"government","floors":2,"yearBuilt":2015}},{"type":"Feature","geometry":{"type":"Point","coordinates":[88.21455320139083,22.596098954459094]},"properties":{"name":"Building 29","type":"industrial","floors":4,"yearBuilt":2015}},{"type":"Feature","geometry":{"type":"Point","coordinates":[88.4384164926286,22.559895053004766]},"properties":{"name":"Building 30","type":"residential","floors":11,"yearBuilt":1998}},{"type":"Feature","geometry":{"type":"Point","coordinates":[88.28326006762187,22.410224436251934]},"properties":{"name":"Building 31","type":"residential","floors":6,"yearBuilt":1970}},{"type":"Feature","geometry":{"type":"Point","coordinates":[88.18865589235561,22.71160307387296]},"properties":{"name":"Building 32","type":"residential","floors":16,"yearBuilt":1978}},{"type":"Feature","geometry":{"type":"Point","coordinates":[88.48601600013808,22.463500926822373]},"properties":{"name":"Building 33","type":"residential","floors":20,"yearBuilt":1990}},{"type":"Feature","geometry":{"type":"Point","coordinates":[88.34705469577574,22.55252377923316]},"properties":{"name":"Building 34","type":"government","floors":12,"yearBuilt":2012}},{"type":"Feature","geometry":{"type":"Point","coordinates":[88.37975274655128,22.57829766636527]},"properties":{"name":"Building 35","type":"government","floors":4,"yearBuilt":1996}},{"type":"Feature","geometry":{"type":"Point","coordinates":[88.29081796727506,22.622849442196507]},"properties":{"name":"Building 36","type":"residential","floors":6,"yearBuilt":1986}},{"type":"Feature","geometry":{"type":"Point","coordinates":[88.36040245041029,22.67595729168676]},"properties":{"name":"Building 37","type":"residential","floors":1,"yearBuilt":2006}},{"type":"Feature","geometry":{"type":"Point","coordinates":[88.49867983196998,22.53036158671231]},"properties":{"name":"Building 38","type":"industrial","floors":15,"yearBuilt":2000}},{"type":"Feature","geometry":{"type":"Point","coordinates":[88.37442087401466,22.670475969927534]},"properties":{"name":"Building 39","type":"government","floors":8,"yearBuilt":2008}},{"type":"Feature","geometry":{"type":"Point","coordinates":[88.23604012314432,22.65930412198955]},"properties":{"name":"Building 40","type":"commercial","floors":18,"yearBuilt":1999}},{"type":"Feature","geometry":{"type":"Point","coordinates":[88.42835866802494,22.428212718205323]},"properties":{"name":"Building 41","type":"industrial","floors":12,"yearBuilt":1982}},{"type":"Feature","geometry":{"type":"Point","coordinates":[88.52109188831677,22.541824580258233]},"properties":{"name":"Building 42","type":"government","floors":4,"yearBuilt":1966}},{"type":"Feature","geometry":{"type":"Point","coordinates":[88.27150502770705,22.53121541140334]},"properties":{"name":"Building 43","type":"industrial","floors":17,"yearBuilt":1975}},{"type":"Feature","geometry":{"type":"Point","coordinates":[88.37548258155718,22.719704283949078]},"properties":{"name":"Building 44","type":"residential","floors":15,"yearBuilt":1965}},{"type":"Feature","geometry":{"type":"Point","coordinates":[88.32676700418627,22.574990434069164]},"properties":{"name":"Building 45","type":"government","floors":12,"yearBuilt":2011}},{"type":"Feature","geometry":{"type":"Point","coordinates":[88.5072160582102,22.561499025625253]},"properties":{"name":"Building 46","type":"government","floors":2,"yearBuilt":1966}},{"type":"Feature","geometry":{"type":"Point","coordinates":[88.46748680898249,22.478395096868436]},"properties":{"name":"Building 47","type":"industrial","floors":11,"yearBuilt":1983}},{"type":"Feature","geometry":{"type":"Point","coordinates":[88.4046914962812,22.68411685134367]},"properties":{"name":"Building 48","type":"industrial","floors":14,"yearBuilt":1986}},{"type":"Feature","geometry":{"type":"Point","coordinates":[88.19306000402577,22.405052150437324]},"properties":{"name":"Building 49","type":"commercial","floors":19,"yearBuilt":1984}},{"type":"Feature","geometry":{"type":"Point","coordinates":[88.26280471587002,22.730795137484815]},"properties":{"name":"Building 50","type":"residential","floors":2,"yearBuilt":1989}},{"type":"Feature","geometry":{"type":"Point","coordinates":[88.4601383331313,22.686973237130562]},"properties":{"name":"Building 51","type":"residential","floors":5,"yearBuilt":1973}},{"type":"Feature","geometry":{"type":"Point","coordinates":[88.35741689043694,22.69884726635537]},"properties":{"name":"Building 52","type":"commercial","floors":11,"yearBuilt":2000}},{"type":"Feature","geometry":{"type":"Point","coordinates":[88.35525574718616,22.73136772681031]},"properties":{"name":"Building 53","type":"government","floors":8,"yearBuilt":2009}},{"type":"Feature","geometry":{"type":"Point","coordinates":[88.38581268012551,22.553897670400392]},"properties":{"name":"Building 54","type":"industrial","floors":15,"yearBuilt":2014}},{"type":"Feature","geometry":{"type":"Point","coordinates":[88.19437760681485,22.46798806279102]},"properties":{"name":"Building 55","type":"residential","floors":3,"yearBuilt":2018}},{"type":"Feature","geometry":{"type":"Point","coordinates":[88.24652426221022,22.466625009358573]},"properties":{"name":"Building 56","type":"government","floors":10,"yearBuilt":1961}},{"type":"Feature","geometry":{"type":"Point","coordinates":[88.20528402826167,22.44038560004758]},"properties":{"name":"Building 57","type":"industrial","floors":9,"yearBuilt":1962}},{"type":"Feature","geometry":{"type":"Point","coordinates":[88.27179109539156,22.71454039403395]},"properties":{"name":"Building 58","type":"residential","floors":20,"yearBuilt":1999}},{"type":"Feature","geometry":{"type":"Point","coordinates":[88.25953359753082,22.42232249421361]},"properties":{"name":"Building 59","type":"residential","floors":3,"yearBuilt":2014}},{"type":"Feature","geometry":{"type":"Point","coordinates":[88.24354330740374,22.406594966217966]},"properties":{"name":"Building 60","type":"industrial","floors":7,"yearBuilt":1978}},{"type":"Feature","geometry":{"type":"Point","coordinates":[88.38050253769218,22.718491140516665]},"properties":{"name":"Building 61","type":"residential","floors":6,"yearBuilt":1987}},{"type":"Feature","geometry":{"type":"Point","coordinates":[88.44165563825501,22.514716758790115]},"properties":{"name":"Building 62","type":"government","floors":5,"yearBuilt":2015}},{"type":"Feature","geometry":{"type":"Point","coordinates":[88.51403048327856,22.40133038098344]},"properties":{"name":"Building 63","type":"industrial","floors":12,"yearBuilt":1972}},{"type":"Feature","geometry":{"type":"Point","coordinates":[88.51380410169857,22.678695079855352]},"properties":{"name":"Building 64","type":"government","floors":11,"yearBuilt":2019}},{"type":"Feature","geometry":{"type":"Point","coordinates":[88.38678477999173,22.66996509895586]},"properties":{"name":"Building 65","type":"commercial","floors":20,"yearBuilt":1989}},{"type":"Feature","geometry":{"type":"Point","coordinates":[88.45198526003404,22.44376136392461]},"properties":{"name":"Building 66","type":"industrial","floors":4,"yearBuilt":1962}},{"type":"Feature","geometry":{"type":"Point","coordinates":[88.23193248358233,22.48478503382566]},"properties":{"name":"Building 67","type":"government","floors":13,"yearBuilt":1985}},{"type":"Feature","geometry":{"type":"Point","coordinates":[88.52772284788091,22.454211749493954]},"properties":{"name":"Building 68","type":"government","floors":3,"yearBuilt":1997}},{"type":"Feature","geometry":{"type":"Point","coordinates":[88.52370324052536,22.65130767797063]},"properties":{"name":"Building 69","type":"commercial","floors":4,"yearBuilt":1997}},{"type":"Feature","geometry":{"type":"Point","coordinates":[88.37670537411712,22.485706862252915]},"properties":{"name":"Building 70","type":"industrial","floors":10,"yearBuilt":1986}},{"type":"Feature","geometry":{"type":"Point","coordinates":[88.33586837352443,22.630106336738756]},"properties":{"name":"Building 71","type":"government","floors":1,"yearBuilt":2005}},{"type":"Feature","geometry":{"type":"Point","coordinates":[88.52325858523793,22.707082110122435]},"properties":{"name":"Building 72","type":"residential","floors":3,"yearBuilt":1971}},{"type":"Feature","geometry":{"type":"Point","coordinates":[88.32059820149391,22.459198836683875]},"properties":{"name":"Building 73","type":"commercial","floors":2,"yearBuilt":1961}},{"type":"Feature","geometry":{"type":"Point","coordinates":[88.23202094433202,22.45946455276563]},"properties":{"name":"Building 74","type":"commercial","floors":12,"yearBuilt":2010}},{"type":"Feature","geometry":{"type":"Point","coordinates":[88.42974500170166,22.535127164279075]},"properties":{"name":"Building 75","type":"commercial","floors":15,"yearBuilt":2014}},{"type":"Feature","geometry":{"type":"Point","coordinates":[88.44711342892595,22.67344327287921]},"properties":{"name":"Building 76","type":"commercial","floors":9,"yearBuilt":2007}},{"type":"Feature","geometry":{"type":"Point","coordinates":[88.51474174755191,22.538618662517873]},"properties":{"name":"Building 77","type":"industrial","floors":6,"yearBuilt":2007}},{"type":"Feature","geometry":{"type":"Point","coordinates":[88.29312250043303,22.53054986877807]},"properties":{"name":"Building 78","type":"commercial","floors":7,"yearBuilt":1988}},{"type":"Feature","geometry":{"type":"Point","coordinates":[88.49810912614403,22.54612474356123]},"properties":{"name":"Building 79","type":"residential","floors":7,"yearBuilt":2006}},{"type":"Feature","geometry":{"type":"Point","coordinates":[88.3371336134135,22.445741839015827]},"properties":{"name":"Building 80","type":"commercial","floors":3,"yearBuilt":1972}},{"type":"Feature","geometry":{"type":"Point","coordinates":[88.51724191091283,22.584869553472572]},"properties":{"name":"Building 81","type":"industrial","floors":19,"yearBuilt":1990}},{"type":"Feature","geometry":{"type":"Point","coordinates":[88.39069058046962,22.639498488311393]},"properties":{"name":"Building 82","type":"commercial","floors":19,"yearBuilt":2017}},{"type":"Feature","geometry":{"type":"Point","coordinates":[88.32065691362716,22.396427460126194]},"properties":{"name":"Building 83","type":"industrial","floors":4,"yearBuilt":1973}},{"type":"Feature","geometry":{"type":"Point","coordinates":[88.28191574164988,22.547899280408082]},"properties":{"name":"Building 84","type":"residential","floors":19,"yearBuilt":2000}},{"type":"Feature","geometry":{"type":"Point","coordinates":[88.39437114819485,22.55334513287462]},"properties":{"name":"Building 85","type":"residential","floors":14,"yearBuilt":1963}},{"type":"Feature","geometry":{"type":"Point","coordinates":[88.38625244506706,22.536293658235657]},"properties":{"name":"Building 86","type":"industrial","floors":10,"yearBuilt":1986}},{"type":"Feature","geometry":{"type":"Point","coordinates":[88.36548729852655,22.65421768559567]},"properties":{"name":"Building 87","type":"residential","floors":5,"yearBuilt":2014}},{"type":"Feature","geometry":{"type":"Point","coordinates":[88.40390740076035,22.415069521306137]},"properties":{"name":"Building 88","type":"government","floors":8,"yearBuilt":2005}},{"type":"Feature","geometry":{"type":"Point","coordinates":[88.25006297558836,22.480999624127683]},"properties":{"name":"Building 89","type":"residential","floors":3,"yearBuilt":1961}},{"type":"Feature","geometry":{"type":"Point","coordinates":[88.52489946329364,22.402894497347972]},"properties":{"name":"Building 90","type":"government","floors":9,"yearBuilt":2019}},{"type":"Feature","geometry":{"type":"Point","coordinates":[88.22576985619075,22.474979628295582]},"properties":{"name":"Building 91","type":"commercial","floors":2,"yearBuilt":1996}},{"type":"Feature","geometry":{"type":"Point","coordinates":[88.30509736766825,22.432416860182272]},"properties":{"name":"Building 92","type":"industrial","floors":14,"yearBuilt":1990}},{"type":"Feature","geometry":{"type":"Point","coordinates":[88.52112580351525,22.6028849706784]},"properties":{"name":"Building 93","type":"residential","floors":11,"yearBuilt":1984}},{"type":"Feature","geometry":{"type":"Point","coordinates":[88.2622474641512,22.645860502521206]},"properties":{"name":"Building 94","type":"government","floors":17,"yearBuilt":1963}},{"type":"Feature","geometry":{"type":"Point","coordinates":[88.19550782475332,22.477837642292883]},"properties":{"name":"Building 95","type":"government","floors":4,"yearBuilt":1968}},{"type":"Feature","geometry":{"type":"Point","coordinates":[88.36378840973109,22.39970407278762]},"properties":{"name":"Building 96","type":"industrial","floors":15,"yearBuilt":1987}},{"type":"Feature","geometry":{"type":"Point","coordinates":[88.24680923718525,22.634272705927014]},"properties":{"name":"Building 97","type":"government","floors":11,"yearBuilt":1968}},{"type":"Feature","geometry":{"type":"Point","coordinates":[88.27027096000694,22.39709897643064]},"properties":{"name":"Building 98","type":"commercial","floors":11,"yearBuilt":2000}},{"type":"Feature","geometry":{"type":"Point","coordinates":[88.50887773154186,22.621417519224835]},"properties":{"name":"Building 99","type":"government","floors":3,"yearBuilt":1975}},{"type":"Feature","geometry":{"type":"Point","coordinates":[88.21715570524604,22.64218806263605]},"properties":{"name":"Building 100","type":"government","floors":15,"yearBuilt":1992}},{"type":"Feature","geometry":{"type":"Point","coordinates":[88.47938653160315,22.522865493832846]},"properties":{"name":"Building 101","type":"commercial","floors":10,"yearBuilt":2008}},{"type":"Feature","geometry":{"type":"Point","coordinates":[88.18614003390277,22.66969583280957]},"properties":{"name":"Building 102","type":"commercial","floors":4,"yearBuilt":1980}},{"type":"Feature","geometry":{"type":"Point","coordinates":[88.30559288641876,22.395387402985726]},"properties":{"name":"Building 103","type":"industrial","floors":5,"yearBuilt":2017}},{"type":"Feature","geometry":{"type":"Point","coordinates":[88.50626637106403,22.62495389066918]},"properties":{"name":"Building 104","type":"residential","floors":15,"yearBuilt":1974}},{"type":"Feature","geometry":{"type":"Point","coordinates":[88.36706649377543,22.40762838680803]},"properties":{"name":"Building 105","type":"commercial","floors":2,"yearBuilt":1993}},{"type":"Feature","geometry":{"type":"Point","coordinates":[88.38655142935193,22.44035234536941]},"properties":{"name":"Building 106","type":"residential","floors":13,"yearBuilt":1996}},{"type":"Feature","geometry":{"type":"Point","coordinates":[88.20629275341675,22.569524894209337]},"properties":{"name":"Building 107","type":"government","floors":8,"yearBuilt":1966}},{"type":"Feature","geometry":{"type":"Point","coordinates":[88.21427851257393,22.417510824605834]},"properties":{"name":"Building 108","type":"residential","floors":3,"yearBuilt":2011}},{"type":"Feature","geometry":{"type":"Point","coordinates":[88.39829169586775,22.621818145463]},"properties":{"name":"Building 109","type":"industrial","floors":10,"yearBuilt":1965}},{"type":"Feature","geometry":{"type":"Point","coordinates":[88.23159866798328,22.537352654050277]},"properties":{"name":"Building 110","type":"commercial","floors":1,"yearBuilt":2017}},{"type":"Feature","geometry":{"type":"Point","coordinates":[88.31973913087002,22.582689380604574]},"properties":{"name":"Building 111","type":"government","floors":13,"yearBuilt":1994}},{"type":"Feature","geometry":{"type":"Point","coordinates":[88.37735915682569,22.662265165356867]},"properties":{"name":"Building 112","type":"government","floors":1,"yearBuilt":1995}},{"type":"Feature","geometry":{"type":"Point","coordinates":[88.18780925022195,22.56060454503597]},"properties":{"name":"Building 113","type":"residential","floors":18,"yearBuilt":1997}},{"type":"Feature","geometry":{"type":"Point","coordinates":[88.45757315029802,22.4649709493329]},"properties":{"name":"Building 114","type":"commercial","floors":2,"yearBuilt":2008}},{"type":"Feature","geometry":{"type":"Point","coordinates":[88.35630718556733,22.496629160570528]},"properties":{"name":"Building 115","type":"government","floors":1,"yearBuilt":1989}},{"type":"Feature","geometry":{"type":"Point","coordinates":[88.34463053190923,22.51014955489732]},"properties":{"name":"Building 116","type":"industrial","floors":17,"yearBuilt":1968}},{"type":"Feature","geometry":{"type":"Point","coordinates":[88.42507118029333,22.4591944616054]},"properties":{"name":"Building 117","type":"commercial","floors":14,"yearBuilt":1975}},{"type":"Feature","geometry":{"type":"Point","coordinates":[88.2000055087451,22.54642933124111]},"properties":{"name":"Building 118","type":"residential","floors":13,"yearBuilt":1970}},{"type":"Feature","geometry":{"type":"Point","coordinates":[88.41246753462106,22.553446799593118]},"properties":{"name":"Building 119","type":"commercial","floors":14,"yearBuilt":2005}},{"type":"Feature","geometry":{"type":"Point","coordinates":[88.28504397631707,22.463525004800776]},"properties":{"name":"Building 120","type":"commercial","floors":9,"yearBuilt":2019}},{"type":"Feature","geometry":{"type":"Point","coordinates":[88.4811005398676,22.573332629232127]},"properties":{"name":"Building 121","type":"commercial","floors":11,"yearBuilt":2002}},{"type":"Feature","geometry":{"type":"Point","coordinates":[88.29070662674665,22.545294685701453]},"properties":{"name":"Building 122","type":"residential","floors":3,"yearBuilt":2004}},{"type":"Feature","geometry":{"type":"Point","coordinates":[88.27059907225804,22.587174836288472]},"properties":{"name":"Building 123","type":"industrial","floors":17,"yearBuilt":1970}},{"type":"Feature","geometry":{"type":"Point","coordinates":[88.4375049157416,22.566375705948406]},"properties":{"name":"Building 124","type":"government","floors":11,"yearBuilt":2010}},{"type":"Feature","geometry":{"type":"Point","coordinates":[88.35141023096322,22.451274799998835]},"properties":{"name":"Building 125","type":"industrial","floors":5,"yearBuilt":1990}},{"type":"Feature","geometry":{"type":"Point","coordinates":[88.51071236635532,22.44391080313304]},"properties":{"name":"Building 126","type":"government","floors":11,"yearBuilt":2011}},{"type":"Feature","geometry":{"type":"Point","coordinates":[88.49747121630989,22.45605338680946]},"properties":{"name":"Building 127","type":"residential","floors":3,"yearBuilt":1988}},{"type":"Feature","geometry":{"type":"Point","coordinates":[88.50289577467578,22.41557985279958]},"properties":{"name":"Building 128","type":"commercial","floors":1,"yearBuilt":1983}},{"type":"Feature","geometry":{"type":"Point","coordinates":[88.42600817989802,22.640847724779828]},"properties":{"name":"Building 129","type":"industrial","floors":8,"yearBuilt":2019}},{"type":"Feature","geometry":{"type":"Point","coordinates":[88.49873061409116,22.721488362110513]},"properties":{"name":"Building 130","type":"industrial","floors":14,"yearBuilt":1963}},{"type":"Feature","geometry":{"type":"Point","coordinates":[88.38057019674885,22.399442963582377]},"properties":{"name":"Building 131","type":"commercial","floors":20,"yearBuilt":1963}},{"type":"Feature","geometry":{"type":"Point","coordinates":[88.41015153038012,22.50725945282115]},"properties":{"name":"Building 132","type":"residential","floors":15,"yearBuilt":2011}},{"type":"Feature","geometry":{"type":"Point","coordinates":[88.40115368622547,22.705960498882646]},"properties":{"name":"Building 133","type":"industrial","floors":9,"yearBuilt":1999}},{"type":"Feature","geometry":{"type":"Point","coordinates":[88.34768161593836,22.39917557428043]},"properties":{"name":"Building 134","type":"commercial","floors":7,"yearBuilt":1986}},{"type":"Feature","geometry":{"type":"Point","coordinates":[88.39101801070615,22.45798991757664]},"properties":{"name":"Building 135","type":"government","floors":8,"yearBuilt":2007}},{"type":"Feature","geometry":{"type":"Point","coordinates":[88.4201736912657,22.43104381929225]},"properties":{"name":"Building 136","type":"government","floors":6,"yearBuilt":2016}},{"type":"Feature","geometry":{"type":"Point","coordinates":[88.25690353693412,22.596644649269383]},"properties":{"name":"Building 137","type":"residential","floors":9,"yearBuilt":2016}},{"type":"Feature","geometry":{"type":"Point","coordinates":[88.4417073999155,22.539237118305955]},"properties":{"name":"Building 138","type":"residential","floors":5,"yearBuilt":1964}},{"type":"Feature","geometry":{"type":"Point","coordinates":[88.46875056501545,22.565100215469936]},"properties":{"name":"Building 139","type":"commercial","floors":13,"yearBuilt":1981}},{"type":"Feature","geometry":{"type":"Point","coordinates":[88.50564110415662,22.443786938263372]},"properties":{"name":"Building 140","type":"industrial","floors":7,"yearBuilt":1979}},{"type":"Feature","geometry":{"type":"Point","coordinates":[88.19689930769005,22.43969200558093]},"properties":{"name":"Building 141","type":"industrial","floors":1,"yearBuilt":1992}},{"type":"Feature","geometry":{"type":"Point","coordinates":[88.52265611235275,22.602971669840628]},"properties":{"name":"Building 142","type":"government","floors":5,"yearBuilt":2010}},{"type":"Feature","geometry":{"type":"Point","coordinates":[88.45403870844937,22.580445774222568]},"properties":{"name":"Building 143","type":"residential","floors":18,"yearBuilt":1998}},{"type":"Feature","geometry":{"type":"Point","coordinates":[88.47343799643897,22.41080416198658]},"properties":{"name":"Building 144","type":"government","floors":18,"yearBuilt":1970}},{"type":"Feature","geometry":{"type":"Point","coordinates":[88.34178570364689,22.60925647942702]},"properties":{"name":"Building 145","type":"industrial","floors":2,"yearBuilt":1995}},{"type":"Feature","geometry":{"type":"Point","coordinates":[88.49662042613885,22.582568836802817]},"properties":{"name":"Building 146","type":"government","floors":12,"yearBuilt":1969}},{"type":"Feature","geometry":{"type":"Point","coordinates":[88.22195998442163,22.708476585638444]},"properties":{"name":"Building 147","type":"government","floors":6,"yearBuilt":1984}},{"type":"Feature","geometry":{"type":"Point","coordinates":[88.32978461644942,22.41257471164]},"properties":{"name":"Building 148","type":"commercial","floors":9,"yearBuilt":1997}},{"type":"Feature","geometry":{"type":"Point","coordinates":[88.51095485456915,22.523611132381607]},"properties":{"name":"Building 149","type":"government","floors":5,"yearBuilt":1965}},{"type":"Feature","geometry":{"type":"Point","coordinates":[88.48913692579113,22.411196665790175]},"properties":{"name":"Building 150","type":"residential","floors":13,"yearBuilt":2019}}]}