{"type":"FeatureCollection","features":[{"type":"Feature","geometry":{"type":"Point","coordinates":[88.90788617097243,22.227943494143556]},"properties":{"magnitude":"4.7","depth":24}},{"type":"Feature","geometry":{"type":"Point","coordinates":[88.54180723431983,23.053801254776186]},"properties":{"magnitude":"4.3","depth":13}},{"type":"Feature","geometry":{"type":"Point","coordinates":[88.95474704112868,22.877388083841645]},"properties":{"magnitude":"2.6","depth":19}},{"type":"Feature","geometry":{"type":"Point","coordinates":[88.25484241833549,22.198242423307683]},"properties":{"magnitude":"4.5","depth":9}},{"type":"Feature","geometry":{"type":"Point","coordinates":[88.41696540498076,23.076552163438937]},"properties":{"magnitude":"4.1","depth":18}},{"type":"Feature","geometry":{"type":"Point","coordinates":[87.99727089877206,22.37088568634534]},"properties":{"magnitude":"2.3","depth":34}},{"type":"Feature","geometry":{"type":"Point","coordinates":[88.23714331905549,22.16354358037352]},"properties":{"magnitude":"2.4","depth":19}},{"type":"Feature","geometry":{"type":"Point","coordinates":[88.21018439684508,23.054201667584376]},"properties":{"magnitude":"2.8","depth":8}},{"type":"Feature","geometry":{"type":"Point","coordinates":[88.77444434566576,22.87028338665949]},"properties":{"magnitude":"4.7","depth":33}},{"type":"Feature","geometry":{"type":"Point","coordinates":[87.85666528163519,22.8355775118449]},"properties":{"magnitude":"5.1","depth":10}},{"type":"Feature","geometry":{"type":"Point","coordinates":[88.0257949082765,22.897543938324144]},"properties":{"magnitude":"2.6","depth":26}},{"type":"Feature","geometry":{"type":"Point","coordinates":[87.98058240109732,22.81308869575791]},"properties":{"magnitude":"2.4","depth":9}},{"type":"Feature","geometry":{"type":"Point","coordinates":[88.74808272516515,22.166033546887842]},"properties":{"magnitude":"5.8","depth":20}},{"type":"Feature","geometry":{"type":"Point","coordinates":[88.30850974206592,22.526873587051675]},"properties":{"magnitude":"5.1","depth":16}},{"type":"Feature","geometry":{"type":"Point","coordinates":[88.06279648441293,21.974443614691126]},"properties":{"magnitude":"2.4","depth":12}},{"type":"Feature","geometry":{"type":"Point","coordinates":[88.6019194573826,22.842831185081526]},"properties":{"magnitude":"2.3","depth":10}},{"type":"Feature","geometry":{"type":"Point","coordinates":[88.91353552925398,22.45825483656931]},"properties":{"magnitude":"4.0","depth":26}},{"type":"Feature","geometry":{"type":"Point","coordinates":[88.02797084212575,22.447023210577978]},"properties":{"magnitude":"5.3","depth":33}},{"type":"Feature","geometry":{"type":"Point","coordinates":[88.09438154296583,22.21782646079497]},"properties":{"magnitude":"4.1","depth":22}},{"type":"Feature","geometry":{"type":"Point","coordinates":[88.64083438622264,22.9958053244156]},"properties":{"magnitude":"3.4","depth":34}},{"type":"Feature","geometry":{"type":"Point","coordinates":[88.22350385491137,22.697613356130457]},"properties":{"magnitude":"2.4","depth":15}},{"type":"Feature","geometry":{"type":"Point","coordinates":[88.33384556172071,21.99410771514444]},"properties":{"magnitude":"5.5","depth":22}},{"type":"Feature","geometry":{"type":"Point","coordinates":[88.4243902936082,22.027269824741612]},"properties":{"magnitude":"2.3","depth":24}},{"type":"Feature","geometry":{"type":"Point","coordinates":[88.31933123912076,22.508232035164585]},"properties":{"magnitude":"4.1","depth":16}},{"type":"Feature","geometry":{"type":"Point","coordinates":[88.45451767636881,22.118394667492915]},"properties":{"magnitude":"4.9","depth":13}},{"type":"Feature","geometry":{"type":"Point","coordinates":[88.17275858507224,22.474486244927895]},"properties":{"magnitude":"2.5","depth":34}},{"type":"Feature","geometry":{"type":"Point","coordinates":[88.4730906624478,22.226699844472176]},"properties":{"magnitude":"3.2","depth":7}},{"type":"Feature","geometry":{"type":"Point","coordinates":[88.90499621394774,22.916438717276428]},"properties":{"magnitude":"3.0","depth":33}},{"type":"Feature","geometry":{"type":"Point","coordinates":[88.39746528747456,21.979944259755047]},"properties":{"magnitude":"4.8","depth":17}},{"type":"Feature","geometry":{"type":"Point","coordinates":[88.75871703040026,22.951692564181545]},"properties":{"magnitude":"4.5","depth":16}},{"type":"Feature","geometry":{"type":"Point","coordinates":[88.49750768597686,22.565481662303483]},"properties":{"magnitude":"5.7","depth":27}},{"type":"Feature","geometry":{"type":"Point","coordinates":[88.73795407916127,22.387481070897326]},"properties":{"magnitude":"3.5","depth":26}},{"type":"Feature","geometry":{"type":"Point","coordinates":[88.45698616610525,22.934307625797487]},"properties":{"magnitude":"5.4","depth":29}},{"type":"Feature","geometry":{"type":"Point","coordinates":[88.33185589259196,22.950795202488536]},"properties":{"magnitude":"2.0","depth":16}},{"type":"Feature","geometry":{"type":"Point","coordinates":[87.76159164259286,22.915785330619194]},"properties":{"magnitude":"4.5","depth":5}},{"type":"Feature","geometry":{"type":"Point","coordinates":[88.27671816950937,22.08924578650653]},"properties":{"magnitude":"2.6","depth":15}},{"type":"Feature","geometry":{"type":"Point","coordinates":[88.40757723526009,22.27339068731149]},"properties":{"magnitude":"3.4","depth":28}},{"type":"Feature","geometry":{"type":"Point","coordinates":[88.477800906548,22.251143914626077]},"properties":{"magnitude":"2.4","depth":29}},{"type":"Feature","geometry":{"type":"Point","coordinates":[88.70541975705984,23.157966677618937]},"properties":{"magnitude":"4.5","depth":8}},{"type":"Feature","geometry":{"type":"Point","coordinates":[88.53132336526335,22.44721917960583]},"properties":{"magnitude":"2.6","depth":9}},{"type":"Feature","geometry":{"type":"Point","coordinates":[88.12736783627533,22.9985770489536]},"properties":{"magnitude":"4.8","depth":29}},{"type":"Feature","geometry":{"type":"Point","coordinates":[87.90069400743717,22.309745415907248]},"properties":{"magnitude":"5.1","depth":32}},{"type":"Feature","geometry":{"type":"Point","coordinates":[87.87876830267075,22.039523355161577]},"properties":{"magnitude":"3.8","depth":31}},{"type":"Feature","geometry":{"type":"Point","coordinates":[88.57221497844013,22.304132154982167]},"properties":{"magnitude":"3.8","depth":14}},{"type":"Feature","geometry":{"type":"Point","coordinates":[88.0121478282736,22.39014554657895]},"properties":{"magnitude":"3.5","depth":23}},{"type":"Feature","geometry":{"type":"Point","coordinates":[88.36420273554002,22.388286314290013]},"properties":{"magnitude":"5.5","depth":32}},{"type":"Feature","geometry":{"type":"Point","coordinates":[88.86040948809807,22.81325628582121]},"properties":{"magnitude":"5.5","depth":29}},{"type":"Feature","geometry":{"type":"Point","coordinates":[88.77395595004951,22.429161055824807]},"properties":{"magnitude":"3.5","depth":27}},{"type":"Feature","geometry":{"type":"Point","coordinates":[88.85683051674472,22.69434417750285]},"properties":{"magnitude":"4.0","depth":18}},{"type":"Feature","geometry":{"type":"Point","coordinates":[88.09584179956508,22.20813511417378]},"properties":{"magnitude":"4.4","depth":29}},{"type":"Feature","geometry":{"type":"Point","coordinates":[88.68779820494841,22.663473698582404]},"properties":{"magnitude":"5.0","depth":14}},{"type":"Feature","geometry":{"type":"Point","coordinates":[88.10323446961746,23.110694128131975]},"properties":{"magnitude":"5.2","depth":20}},{"type":"Feature","geometry":{"type":"Point","coordinates":[88.1752420146768,22.848472716749427]},"properties":{"magnitude":"4.6","depth":19}},{"type":"Feature","geometry":{"type":"Point","coordinates":[88.77602063447392,22.176314738086262]},"properties":{"magnitude":"3.7","depth":13}},{"type":"Feature","geometry":{"type":"Point","coordinates":[87.79848521249501,21.975996175520415]},"properties":{"magnitude":"2.3","depth":28}},{"type":"Feature","geometry":{"type":"Point","coordinates":[88.94117963780663,22.495476683344116]},"properties":{"magnitude":"5.3","depth":10}},{"type":"Feature","geometry":{"type":"Point","coordinates":[87.81861405151149,22.3649445355946]},"properties":{"magnitude":"4.2","depth":34}},{"type":"Feature","geometry":{"type":"Point","coordinates":[88.58889467507011,22.868723833090737]},"properties":{"magnitude":"5.1","depth":15}},{"type":"Feature","geometry":{"type":"Point","coordinates":[88.74636982775577,22.788326980822887]},"properties":{"magnitude":"4.9","depth":22}},{"type":"Feature","geometry":{"type":"Point","coordinates":[88.6291399459833,22.003117653569937]},"properties":{"magnitude":"5.3","depth":19}},{"type":"Feature","geometry":{"type":"Point","coordinates":[88.00031471233272,22.039131077542876]},"properties":{"magnitude":"4.7","depth":32}},{"type":"Feature","geometry":{"type":"Point","coordinates":[88.73870668089478,22.873028389396158]},"properties":{"magnitude":"5.0","depth":27}},{"type":"Feature","geometry":{"type":"Point","coordinates":[88.75650597610854,22.618802167480784]},"properties":{"magnitude":"3.7","depth":19}},{"type":"Feature","geometry":{"type":"Point","coordinates":[88.3364948950333,22.850638419398162]},"properties":{"magnitude":"5.7","depth":27}},{"type":"Feature","geometry":{"type":"Point","coordinates":[88.42762151174084,22.637609371426375]},"properties":{"magnitude":"2.2","depth":27}},{"type":"Feature","geometry":{"type":"Point","coordinates":[88.51907751197858,22.18876673255442]},"properties":{"magnitude":"4.4","depth":20}},{"type":"Feature","geometry":{"type":"Point","coordinates":[87.89902397339188,22.173075793875924]},"properties":{"magnitude":"4.4","depth":13}},{"type":"Feature","geometry":{"type":"Point","coordinates":[88.53038514385985,21.971693279546525]},"properties":{"magnitude":"4.6","depth":34}},{"type":"Feature","geometry":{"type":"Point","coordinates":[88.88652301676356,22.70402084027581]},"properties":{"magnitude":"3.1","depth":13}},{"type":"Feature","geometry":{"type":"Point","coordinates":[88.58553181985937,22.858316768331413]},"properties":{"magnitude":"4.8","depth":21}},{"type":"Feature","geometry":{"type":"Point","coordinates":[88.39383340392625,22.224004926075892]},"properties":{"magnitude":"4.1","depth":12}},{"type":"Feature","geometry":{"type":"Point","coordinates":[87.78807532890828,22.338676716802986]},"properties":{"magnitude":"5.3","depth":6}},{"type":"Feature","geometry":{"type":"Point","coordinates":[87.91511078484477,23.08317149544663]},"properties":{"magnitude":"2.3","depth":26}},{"type":"Feature","geometry":{"type":"Point","coordinates":[88.1553367182567,22.546629390588212]},"properties":{"magnitude":"5.6","depth":17}},{"type":"Feature","geometry":{"type":"Point","coordinates":[87.77611408029036,22.596432527004747]},"properties":{"magnitude":"2.8","depth":10}},{"type":"Feature","geometry":{"type":"Point","coordinates":[88.19665551327492,22.074808482622558]},"properties":{"magnitude":"5.0","depth":18}},{"type":"Feature","geometry":{"type":"Point","coordinates":[88.76691891547837,22.53444948246412]},"properties":{"magnitude":"4.8","depth":7}},{"type":"Feature","geometry":{"type":"Point","coordinates":[88.58611638203678,22.548244044563386]},"properties":{"magnitude":"2.7","depth":16}},{"type":"Feature","geometry":{"type":"Point","coordinates":[88.08125285140426,22.630820568050037]},"properties":{"magnitude":"4.7","depth":19}},{"type":"Feature","geometry":{"type":"Point","coordinates":[88.86598996578745,22.742062235681203]},"properties":{"magnitude":"2.5","depth":28}},{"type":"Feature","geometry":{"type":"Point","coordinates":[88.74107226643655,22.86605588613337]},"properties":{"magnitude":"3.8","depth":30}},{"type":"Feature","geometry":{"type":"Point","coordinates":[88.93091302602471,22.585263504441077]},"properties":{"magnitude":"5.5","depth":34}},{"type":"Feature","geometry":{"type":"Point","coordinates":[88.40350708583271,22.95897861916545]},"properties":{"magnitude":"3.3","depth":21}},{"type":"Feature","geometry":{"type":"Point","coordinates":[87.87198570301395,22.955163685449218]},"properties":{"magnitude":"2.9","depth":14}},{"type":"Feature","geometry":{"type":"Point","coordinates":[88.3106560975505,22.05335707717261]},"properties":{"magnitude":"4.5","depth":32}},{"type":"Feature","geometry":{"type":"Point","coordinates":[88.67949539900597,22.060566715196714]},"properties":{"magnitude":"5.2","depth":25}},{"type":"Feature","geometry":{"type":"Point","coordinates":[87.96435404182802,22.51346403470178]},"properties":{"magnitude":"2.3","depth":33}},{"type":"Feature","geometry":{"type":"Point","coordinates":[88.91934344544491,22.23224096549694]},"properties":{"magnitude":"4.6","depth":8}},{"type":"Feature","geometry":{"type":"Point","coordinates":[88.73669979246282,22.99660786028581]},"properties":{"magnitude":"4.3","depth":22}},{"type":"Feature","geometry":{"type":"Point","coordinates":[88.30371887978124,22.773110354961418]},"properties":{"magnitude":"3.0","depth":13}},{"type":"Feature","geometry":{"type":"Point","coordinates":[88.55725583381428,23.002380663976474]},"properties":{"magnitude":"3.4","depth":5}},{"type":"Feature","geometry":{"type":"Point","coordinates":[88.95281577644363,22.7226794012043]},"properties":{"magnitude":"5.2","depth":19}},{"type":"Feature","geometry":{"type":"Point","coordinates":[88.24006374698298,23.128506286847504]},"properties":{"magnitude":"4.2","depth":30}},{"type":"Feature","geometry":{"type":"Point","coordinates":[88.12661521568214,22.05877747505817]},"properties":{"magnitude":"3.2","depth":31}},{"type":"Feature","geometry":{"type":"Point","coordinates":[87.76497512855182,22.430898997277744]},"properties":{"magnitude":"4.6","depth":25}},{"type":"Feature","geometry":{"type":"Point","coordinates":[88.60764108270915,22.346673602372107]},"properties":{"magnitude":"4.4","depth":13}},{"type":"Feature","geometry":{"type":"Point","coordinates":[88.1387036673193,22.67553720687706]},"properties":{"magnitude":"5.3","depth":17}},{"type":"Feature","geometry":{"type":"Point","coordinates":[87.90335937270875,22.98505441722773]},"properties":{"magnitude":"3.4","depth":15}},{"type":"Feature","geometry":{"type":"Point","coordinates":[87.95043314608274,22.084711486635705]},"properties":{"magnitude":"4.7","depth":20}},{"type":"Feature","geometry":{"type":"Point","coordinates":[88.68293552208054,23.16567781601982]},"properties":{"magnitude":"5.6","depth":11}},{"type":"Feature","geometry":{"type":"Point","coordinates":[88.94887006822158,22.723711376464273]},"properties":{"magnitude":"2.2","depth":11}},{"type":"Feature","geometry":{"type":"Point","coordinates":[88.80918001716422,22.983268212699443]},"properties":{"magnitude":"4.5","depth":15}},{"type":"Feature","geometry":{"type":"Point","coordinates":[88.3339875421559,23.00484215536012]},"properties":{"magnitude":"5.3","depth":21}},{"type":"Feature","geometry":{"type":"Point","coordinates":[88.60838284197436,22.23471486320171]},"properties":{"magnitude":"5.7","depth":17}},{"type":"Feature","geometry":{"type":"Point","coordinates":[88.7358034218523,22.165962130323116]},"properties":{"magnitude":"4.5","depth":32}},{"type":"Feature","geometry":{"type":"Point","coordinates":[88.57699626712372,22.31285598610989]},"properties":{"magnitude":"5.3","depth":13}},{"type":"Feature","geometry":{"type":"Point","coordinates":[88.22168121457837,21.98618196552186]},"properties":{"magnitude":"3.2","depth":24}},{"type":"Feature","geometry":{"type":"Point","coordinates":[88.34029894083565,22.844864541715285]},"properties":{"magnitude":"2.3","depth":27}},{"type":"Feature","geometry":{"type":"Point","coordinates":[88.69240037891193,22.407104418272187]},"properties":{"magnitude":"4.0","depth":13}},{"type":"Feature","geometry":{"type":"Point","coordinates":[88.38007633340764,22.929180267455934]},"properties":{"magnitude":"3.8","depth":28}},{"type":"Feature","geometry":{"type":"Point","coordinates":[87.9298159549777,22.79883610600245]},"properties":{"magnitude":"2.1","depth":34}},{"type":"Feature","geometry":{"type":"Point","coordinates":[88.17168284524617,22.206448754607386]},"properties":{"magnitude":"5.7","depth":33}},{"type":"Feature","geometry":{"type":"Point","coordinates":[88.81117874086975,23.031037678284914]},"properties":{"magnitude":"2.1","depth":11}},{"type":"Feature","geometry":{"type":"Point","coordinates":[87.83323062945965,22.789253717209064]},"properties":{"magnitude":"4.9","depth":13}},{"type":"Feature","geometry":{"type":"Point","coordinates":[88.15483485230872,22.180607372470508]},"properties":{"magnitude":"3.0","depth":19}},{"type":"Feature","geometry":{"type":"Point","coordinates":[88.52420420713092,22.81544149873584]},"properties":{"magnitude":"4.7","depth":17}},{"type":"Feature","geometry":{"type":"Point","coordinates":[88.59232070716692,23.15258697683076]},"properties":{"magnitude":"3.2","depth":28}},{"type":"Feature","geometry":{"type":"Point","coordinates":[88.38264715032926,22.005864964996732]},"properties":{"magnitude":"5.3","depth":23}},{"type":"Feature","geometry":{"type":"Point","coordinates":[88.24293296241214,22.89806091474533]},"properties":{"magnitude":"3.7","depth":18}},{"type":"Feature","geometry":{"type":"Point","coordinates":[87.9044838059163,22.823857114064335]},"properties":{"magnitude":"2.6","depth":21}},{"type":"Feature","geometry":{"type":"Point","coordinates":[88.58432322881407,22.018099684172398]},"properties":{"magnitude":"5.1","depth":8}},{"type":"Feature","geometry":{"type":"Point","coordinates":[87.96944518497173,22.744933039604724]},"properties":{"magnitude":"2.2","depth":23}},{"type":"Feature","geometry":{"type":"Point","coordinates":[88.16352259371888,22.63622611792875]},"properties":{"magnitude":"5.7","depth":25}},{"type":"Feature","geometry":{"type":"Point","coordinates":[88.14355303531138,22.552313101112755]},"properties":{"magnitude":"4.1","depth":18}},{"type":"Feature","geometry":{"type":"Point","coordinates":[87.86276806969971,22.09864539556381]},"properties":{"magnitude":"3.1","depth":16}},{"type":"Feature","geometry":{"type":"Point","coordinates":[87.95866946734877,22.989766379575745]},"properties":{"magnitude":"5.2","depth":29}},{"type":"Feature","geometry":{"type":"Point","coordinates":[88.00030249240018,22.072705140170427]},"properties":{"magnitude":"2.8","depth":8}},{"type":"Feature","geometry":{"type":"Point","coordinates":[88.4002546833081,22.19940792602551]},"properties":{"magnitude":"3.0","depth":17}},{"type":"Feature","geometry":{"type":"Point","coordinates":[88.84376347594646,23.146668566044625]},"properties":{"magnitude":"2.8","depth":16}},{"type":"Feature","geometry":{"type":"Point","coordinates":[88.95254269628154,22.29648733248625]},"properties":{"magnitude":"2.3","depth":31}},{"type":"Feature","geometry":{"type":"Point","coordinates":[88.00604479196096,22.05220931604835]},"properties":{"magnitude":"2.2","depth":8}},{"type":"Feature","geometry":{"type":"Point","coordinates":[88.62447835261165,22.670260715605686]},"properties":{"magnitude":"5.5","depth":28}},{"type":"Feature","geometry":{"type":"Point","coordinates":[88.59934197368065,22.297022103279783]},"properties":{"magnitude":"2.2","depth":29}},{"type":"Feature","geometry":{"type":"Point","coordinates":[88.67886560318686,22.80569716981208]},"properties":{"magnitude":"4.6","depth":19}},{"type":"Feature","geometry":{"type":"Point","coordinates":[88.63605229207185,23.07854256076643]},"properties":{"magnitude":"3.3","depth":29}},{"type":"Feature","geometry":{"type":"Point","coordinates":[88.33878079084516,22.322788003816452]},"properties":{"magnitude":"5.7","depth":5}},{"type":"Feature","geometry":{"type":"Point","coordinates":[88.22707938240069,22.63685537029876]},"properties":{"magnitude":"4.8","depth":20}},{"type":"Feature","geometry":{"type":"Point","coordinates":[88.92454974908462,22.02756928258488]},"properties":{"magnitude":"4.9","depth":12}},{"type":"Feature","geometry":{"type":"Point","coordinates":[88.76787282432225,22.762164776303827]},"properties":{"magnitude":"5.1","depth":32}},{"type":"Feature","geometry":{"type":"Point","coordinates":[88.82527239233391,23.108805145519533]},"properties":{"magnitude":"5.1","depth":12}},{"type":"Feature","geometry":{"type":"Point","coordinates":[88.10684033939255,22.429436238052364]},"properties":{"magnitude":"2.1","depth":22}},{"type":"Feature","geometry":{"type":"Point","coordinates":[88.40957967703157,22.241550864543875]},"properties":{"magnitude":"3.3","depth":22}},{"type":"Feature","geometry":{"type":"Point","coordinates":[88.31658279368514,22.90063900401132]},"properties":{"magnitude":"3.1","depth":29}},{"type":"Feature","geometry":{"type":"Point","coordinates":[88.81010377119902,22.262510711077923]},"properties":{"magnitude":"3.1","depth":5}},{"type":"Feature","geometry":{"type":"Point","coordinates":[88.1860775729003,22.44577885149163]},"properties":{"magnitude":"5.3","depth":22}},{"type":"Feature","geometry":{"type":"Point","coordinates":[87.96841142108698,22.01469013773671]},"properties":{"magnitude":"5.0","depth":32}},{"type":"Feature","geometry":{"type":"Point","coordinates":[88.79620328621287,22.415327004961423]},"properties":{"magnitude":"2.6","depth":27}},{"type":"Feature","geometry":{"type":"Point","coordinates":[88.89057914959086,22.85431852560636]},"properties":{"magnitude":"2.7","depth":13}},{"type":"Feature","geometry":{"type":"Point","coordinates":[88.81564931245717,22.58459438602059]},"properties":{"magnitude":"5.1","depth":18}},{"type":"Feature","geometry":{"type":"Point","coordinates":[88.94181037048584,22.820722060096255]},"properties":{"magnitude":"3.7","depth":30}},{"type":"Feature","geometry":{"type":"Point","coordinates":[88.3192349712248,22.108782607963605]},"properties":{"magnitude":"2.0","depth":10}},{"type":"Feature","geometry":{"type":"Point","coordinates":[88.80869708114953,22.920081799395348]},"properties":{"magnitude":"4.4","depth":12}},{"type":"Feature","geometry":{"type":"Point","coordinates":[88.44004473898293,22.118015138207145]},"properties":{"magnitude":"2.8","depth":17}},{"type":"Feature","geometry":{"type":"Point","coordinates":[88.26402887245551,22.79194123345539]},"properties":{"magnitude":"5.8","depth":28}},{"type":"Feature","geometry":{"type":"Point","coordinates":[88.09908768876019,22.248077086833455]},"properties":{"magnitude":"3.7","depth":12}},{"type":"Feature","geometry":{"type":"Point","coordinates":[87.7852397051447,22.806316711249206]},"properties":{"magnitude":"3.2","depth":25}},{"type":"Feature","geometry":{"type":"Point","coordinates":[88.36341727723317,23.15393103667201]},"properties":{"magnitude":"2.8","depth":19}},{"type":"Feature","geometry":{"type":"Point","coordinates":[88.66662191691029,22.55483854720093]},"properties":{"magnitude":"4.4","depth":31}},{"type":"Feature","geometry":{"type":"Point","coordinates":[88.05283074557909,21.976380491446385]},"properties":{"magnitude":"3.4","depth":11}},{"type":"Feature","geometry":{"type":"Point","coordinates":[88.63703855261517,23.06831758466489]},"properties":{"magnitude":"3.0","depth":29}},{"type":"Feature","geometry":{"type":"Point","coordinates":[88.72249765164248,22.218902733293504]},"properties":{"magnitude":"3.0","depth":30}},{"type":"Feature","geometry":{"type":"Point","coordinates":[88.93805901884855,22.3557545132916]},"properties":{"magnitude":"2.6","depth":24}},{"type":"Feature","geometry":{"type":"Point","coordinates":[87.91266456893769,22.528423183708984]},"properties":{"magnitude":"3.0","depth":6}},{"type":"Feature","geometry":{"type":"Point","coordinates":[88.32701472123921,22.548425317537294]},"properties":{"magnitude":"2.2","depth":29}},{"type":"Feature","geometry":{"type":"Point","coordinates":[88.60128157249846,22.7460171201166]},"properties":{"magnitude":"2.4","depth":17}},{"type":"Feature","geometry":{"type":"Point","coordinates":[88.32748147824849,23.031245103100368]},"properties":{"magnitude":"5.7","depth":15}},{"type":"Feature","geometry":{"type":"Point","coordinates":[87.77324592275077,22.28934825724777]},"properties":{"magnitude":"3.4","depth":23}},{"type":"Feature","geometry":{"type":"Point","coordinates":[88.55366369036705,22.63746986292178]},"properties":{"magnitude":"3.5","depth":15}},{"type":"Feature","geometry":{"type":"Point","coordinates":[88.0971129424889,22.575197134270223]},"properties":{"magnitude":"4.6","depth":30}},{"type":"Feature","geometry":{"type":"Point","coordinates":[88.56497510740111,22.120565677022263]},"properties":{"magnitude":"2.9","depth":15}},{"type":"Feature","geometry":{"type":"Point","coordinates":[88.7513257737796,22.17371905618922]},"properties":{"magnitude":"2.6","depth":14}},{"type":"Feature","geometry":{"type":"Point","coordinates":[88.9436353089802,22.73128488442946]},"properties":{"magnitude":"3.4","depth":30}},{"type":"Feature","geometry":{"type":"Point","coordinates":[88.1398037809553,22.761670110166587]},"properties":{"magnitude":"5.5","depth":34}},{"type":"Feature","geometry":{"type":"Point","coordinates":[88.13535225572669,22.51409458880766]},"properties":{"magnitude":"5.2","depth":6}},{"type":"Feature","geometry":{"type":"Point","coordinates":[88.12933811483964,22.65452117198208]},"properties":{"magnitude":"3.5","depth":30}},{"type":"Feature","geometry":{"type":"Point","coordinates":[87.89480147145112,22.041829095419562]},"properties":{"magnitude":"3.7","depth":22}},{"type":"Feature","geometry":{"type":"Point","coordinates":[88.38933799873094,22.090017917277216]},"properties":{"magnitude":"4.4","depth":13}},{"type":"Feature","geometry":{"type":"Point","coordinates":[88.00071086894731,22.45556882010566]},"properties":{"magnitude":"5.1","depth":26}},{"type":"Feature","geometry":{"type":"Point","coordinates":[87.8194342467482,22.9804920450462]},"properties":{"magnitude":"2.4","depth":25}},{"type":"Feature","geometry":{"type":"Point","coordinates":[88.54066330910237,22.365910410369437]},"properties":{"magnitude":"4.8","depth":17}},{"type":"Feature","geometry":{"type":"Point","coordinates":[87.941501718101,22.09401194426271]},"properties":{"magnitude":"5.4","depth":5}},{"type":"Feature","geometry":{"type":"Point","coordinates":[88.72653882389467,22.274896292032775]},"properties":{"magnitude":"4.9","depth":26}},{"type":"Feature","geometry":{"type":"Point","coordinates":[88.49066400353132,22.907327467096774]},"properties":{"magnitude":"3.9","depth":16}},{"type":"Feature","geometry":{"type":"Point","coordinates":[88.6846938949034,22.36428243050172]},"properties":{"magnitude":"3.8","depth":21}},{"type":"Feature","geometry":{"type":"Point","coordinates":[87.86301398166765,22.83973526215298]},"properties":{"magnitude":"2.1","depth":10}},{"type":"Feature","geometry":{"type":"Point","coordinates":[88.02767831851362,22.38558994813938]},"properties":{"magnitude":"3.0","depth":28}},{"type":"Feature","geometry":{"type":"Point","coordinates":[87.97342496010873,23.087139699058305]},"properties":{"magnitude":"5.8","depth":5}},{"type":"Feature","geometry":{"type":"Point","coordinates":[88.23041448059494,23.044271420209753]},"properties":{"magnitude":"5.4","depth":23}},{"type":"Feature","geometry":{"type":"Point","coordinates":[88.08388882861831,23.153975573036227]},"properties":{"magnitude":"3.5","depth":5}},{"type":"Feature","geometry":{"type":"Point","coordinates":[88.09067161593846,22.07064883374439]},"properties":{"magnitude":"3.9","depth":15}},{"type":"Feature","geometry":{"type":"Point","coordinates":[88.47320305946546,22.161428887206196]},"properties":{"magnitude":"3.7","depth":28}},{"type":"Feature","geometry":{"type":"Point","coordinates":[88.80981767868624,22.166268210941414]},"properties":{"magnitude":"3.4","depth":32}},{"type":"Feature","geometry":{"type":"Point","coordinates":[87.8415491187381,22.065037448942824]},"properties":{"magnitude":"3.8","depth":23}},{"type":"Feature","geometry":{"type":"Point","coordinates":[88.25706175411652,22.371859947588426]},"properties":{"magnitude":"5.7","depth":8}},{"type":"Feature","geometry":{"type":"Point","coordinates":[88.38912554323674,22.332313210978555]},"properties":{"magnitude":"5.6","depth":9}},{"type":"Feature","geometry":{"type":"Point","coordinates":[88.8912002935715,22.619732212206628]},"properties":{"magnitude":"3.9","depth":25}},{"type":"Feature","geometry":{"type":"Point","coordinates":[88.59845659141698,22.170998765889113]},"properties":{"magnitude":"2.8","depth":16}},{"type":"Feature","geometry":{"type":"Point","coordinates":[88.51911563965722,22.639095179179566]},"properties":{"magnitude":"4.1","depth":9}},{"type":"Feature","geometry":{"type":"Point","coordinates":[88.13382510356863,22.123973142754103]},"properties":{"magnitude":"4.3","depth":21}},{"type":"Feature","geometry":{"type":"Point","coordinates":[88.0579086119619,22.454053158117553]},"properties":{"magnitude":"3.4","depth":29}}]}