{"type":"FeatureCollection","features":[{"type":"Feature","geometry":{"type":"Point","coordinates":[88.49766146349148,22.61452435751848]},"properties":{"name":"Kolkata Hospital 1","type":"hospital","capacity":323,"availableBeds":27}},{"type":"Feature","geometry":{"type":"Point","coordinates":[88.20131831589705,22.58094842383941]},"properties":{"name":"Kolkata Hospital 2","type":"hospital","capacity":509,"availableBeds":38}},{"type":"Feature","geometry":{"type":"Point","coordinates":[88.26532509506559,22.452822070018488]},"properties":{"name":"Kolkata Hospital 3","type":"hospital","capacity":274,"availableBeds":5}},{"type":"Feature","geometry":{"type":"Point","coordinates":[88.19321706364117,22.686492355519345]},"properties":{"name":"Kolkata Hospital 4","type":"hospital","capacity":396,"availableBeds":44}},{"type":"Feature","geometry":{"type":"Point","coordinates":[88.2401639200812,22.669437351621852]},"properties":{"name":"Kolkata Hospital 5","type":"hospital","capacity":413,"availableBeds":11}},{"type":"Feature","geometry":{"type":"Point","coordinates":[88.48687894310082,22.472167590542934]},"properties":{"name":"Kolkata Hospital 6","type":"hospital","capacity":519,"availableBeds":27}},{"type":"Feature","geometry":{"type":"Point","coordinates":[88.40848469632296,22.687218439774373]},"properties":{"name":"Kolkata Hospital 7","type":"hospital","capacity":423,"availableBeds":39}},{"type":"Feature","geometry":{"type":"Point","coordinates":[88.51828817097933,22.513798611088653]},"properties":{"name":"Kolkata Hospital 8","type":"hospital","capacity":553,"availableBeds":14}},{"type":"Feature","geometry":{"type":"Point","coordinates":[88.53155300432222,22.683956901018238]},"properties":{"name":"Kolkata Hospital 9","type":"hospital","capacity":115,"availableBeds":3}},{"type":"Feature","geometry":{"type":"Point","coordinates":[88.28676359508576,22.563912040960915]},"properties":{"name":"Kolkata Hospital 10","type":"hospital","capacity":499,"availableBeds":45}},{"type":"Feature","geometry":{"type":"Point","coordinates":[88.41048449151519,22.71527562081857]},"properties":{"name":"Kolkata Hospital 11","type":"hospital","capacity":518,"availableBeds":5}},{"type":"Feature","geometry":{"type":"Point","coordinates":[88.21336813624029,22.612216426637566]},"properties":{"name":"Kolkata Hospital 12","type":"hospital","capacity":520,"availableBeds":14}},{"type":"Feature","geometry":{"type":"Point","coordinates":[88.3068446636733,22.549383726519046]},"properties":{"name":"Kolkata Hospital 13","type":"hospital","capacity":554,"availableBeds":31}},{"type":"Feature","geometry":{"type":"Point","coordinates":[88.4746421310885,22.703453059816894]},"properties":{"name":"Kolkata Hospital 14","type":"hospital","capacity":379,"availableBeds":26}},{"type":"Feature","geometry":{"type":"Point","coordinates":[88.43724045406991,22.387348110669123]},"properties":{"name":"Kolkata Hospital 15","type":"hospital","capacity":403,"availableBeds":36}},{"type":"Feature","geometry":{"type":"Point","coordinates":[88.24692779960675,22.686668952936007]},"properties":{"name":"Kolkata Hospital 16","type":"hospital","capacity":436,"availableBeds":23}},{"type":"Feature","geometry":{"type":"Point","coordinates":[88.48892734974152,22.49864141620663]},"properties":{"name":"Kolkata Hospital 17","type":"hospital","capacity":335,"availableBeds":41}},{"type":"Feature","geometry":{"type":"Point","coordinates":[88.47800066860322,22.731181878734482]},"properties":{"name":"Kolkata Hospital 18","type":"hospital","capacity":533,"availableBeds":24}},{"type":"Feature","geometry":{"type":"Point","coordinates":[88.23482040179545,22.4970790581088]},"properties":{"name":"Kolkata Hospital 19","type":"hospital","capacity":496,"availableBeds":13}},{"type":"Feature","geometry":{"type":"Point","coordinates":[88.51777632783269,22.63557555364766]},"properties":{"name":"Kolkata Hospital 20","type":"hospital","capacity":287,"availableBeds":20}},{"type":"Feature","geometry":{"type":"Point","coordinates":[88.49225406945357,22.588109379607427]},"properties":{"name":"Kolkata Hospital 21","type":"hospital","capacity":303,"availableBeds":14}},{"type":"Feature","geometry":{"type":"Point","coordinates":[88.17980372232977,22.610419189882265]},"properties":{"name":"Kolkata Hospital 22","type":"hospital","capacity":128,"availableBeds":17}},{"type":"Feature","geometry":{"type":"Point","coordinates":[88.22199095228194,22.43975399792135]},"properties":{"name":"Kolkata Hospital 23","type":"hospital","capacity":547,"availableBeds":43}},{"type":"Feature","geometry":{"type":"Point","coordinates":[88.4645175924384,22.736689910015592]},"properties":{"name":"Kolkata Hospital 24","type":"hospital","capacity":320,"availableBeds":3}},{"type":"Feature","geometry":{"type":"Point","coordinates":[88.53052881967689,22.566662020770337]},"properties":{"name":"Kolkata Hospital 25","type":"hospital","capacity":556,"availableBeds":49}},{"type":"Feature","geometry":{"type":"Point","coordinates":[88.30933306221539,22.626602764306423]},"properties":{"name":"Kolkata Hospital 26","type":"hospital","capacity":410,"availableBeds":34}},{"type":"Feature","geometry":{"type":"Point","coordinates":[88.55322909339229,22.748365070966344]},"properties":{"name":"Kolkata Hospital 27","type":"hospital","capacity":430,"availableBeds":2}},{"type":"Feature","geometry":{"type":"Point","coordinates":[88.49401653517637,22.624993651973483]},"properties":{"name":"Kolkata Hospital 28","type":"hospital","capacity":241,"availableBeds":34}},{"type":"Feature","geometry":{"type":"Point","coordinates":[88.33648756707855,22.609119165343134]},"properties":{"name":"Kolkata Hospital 29","type":"hospital","capacity":470,"availableBeds":47}},{"type":"Feature","geometry":{"type":"Point","coordinates":[88.42548542512692,22.57932607042359]},"properties":{"name":"Kolkata Hospital 30","type":"hospital","capacity":592,"availableBeds":2}},{"type":"Feature","geometry":{"type":"Point","coordinates":[88.34832724246763,22.715802577075838]},"properties":{"name":"Kolkata Hospital 31","type":"hospital","capacity":502,"availableBeds":37}},{"type":"Feature","geometry":{"type":"Point","coordinates":[88.16842435159455,22.596196583309684]},"properties":{"name":"Kolkata Hospital 32","type":"hospital","capacity":495,"availableBeds":9}},{"type":"Feature","geometry":{"type":"Point","coordinates":[88.17568825159313,22.670139561416434]},"properties":{"name":"Kolkata Hospital 33","type":"hospital","capacity":482,"availableBeds":15}},{"type":"Feature","geometry":{"type":"Point","coordinates":[88.29731979623391,22.68933092285786]},"properties":{"name":"Kolkata Hospital 34","type":"hospital","capacity":215,"availableBeds":5}},{"type":"Feature","geometry":{"type":"Point","coordinates":[88.29310110339604,22.600843394111216]},"properties":{"name":"Kolkata Hospital 35","type":"hospital","capacity":436,"availableBeds":1}},{"type":"Feature","geometry":{"type":"Point","coordinates":[88.42867203724633,22.767880903352157]},"properties":{"name":"Kolkata Hospital 36","type":"hospital","capacity":270,"availableBeds":11}},{"type":"Feature","geometry":{"type":"Point","coordinates":[88.37424445658304,22.471597926367284]},"properties":{"name":"Kolkata Hospital 37","type":"hospital","capacity":294,"availableBeds":37}},{"type":"Feature","geometry":{"type":"Point","coordinates":[88.40701510605611,22.494339631380953]},"properties":{"name":"Kolkata Hospital 38","type":"hospital","capacity":379,"availableBeds":36}},{"type":"Feature","geometry":{"type":"Point","coordinates":[88.41981839016998,22.46021039721541]},"properties":{"name":"Kolkata Hospital 39","type":"hospital","capacity":575,"availableBeds":26}},{"type":"Feature","geometry":{"type":"Point","coordinates":[88.21341192861777,22.728920062045834]},"properties":{"name":"Kolkata Hospital 40","type":"hospital","capacity":137,"availableBeds":46}},{"type":"Feature","geometry":{"type":"Point","coordinates":[88.18038702666908,22.644168076380993]},"properties":{"name":"Kolkata Hospital 41","type":"hospital","capacity":288,"availableBeds":29}},{"type":"Feature","geometry":{"type":"Point","coordinates":[88.52961832545915,22.52274954349797]},"properties":{"name":"Kolkata Hospital 42","type":"hospital","capacity":280,"availableBeds":29}},{"type":"Feature","geometry":{"type":"Point","coordinates":[88.16115117044005,22.610841868009068]},"properties":{"name":"Kolkata Hospital 43","type":"hospital","capacity":170,"availableBeds":42}},{"type":"Feature","geometry":{"type":"Point","coordinates":[88.4353286982151,22.656388438568065]},"properties":{"name":"Kolkata Hospital 44","type":"hospital","capacity":376,"availableBeds":17}},{"type":"Feature","geometry":{"type":"Point","coordinates":[88.24981341949517,22.729084487876186]},"properties":{"name":"Kolkata Hospital 45","type":"hospital","capacity":234,"availableBeds":22}},{"type":"Feature","geometry":{"type":"Point","coordinates":[88.37787837696678,22.643848549770606]},"properties":{"name":"Kolkata Hospital 46","type":"hospital","capacity":531,"availableBeds":15}},{"type":"Feature","geometry":{"type":"Point","coordinates":[88.42095586838123,22.664590632276827]},"properties":{"name":"Kolkata Hospital 47","type":"hospital","capacity":213,"availableBeds":27}},{"type":"Feature","geometry":{"type":"Point","coordinates":[88.5291947631853,22.529951973045122]},"properties":{"name":"Kolkata Hospital 48","type":"hospital","capacity":171,"availableBeds":26}},{"type":"Feature","geometry":{"type":"Point","coordinates":[88.26835214661291,22.617051786733672]},"properties":{"name":"Kolkata Hospital 49","type":"hospital","capacity":164,"availableBeds":43}},{"type":"Feature","geometry":{"type":"Point","coordinates":[88.45837352103023,22.44341410153488]},"properties":{"name":"Kolkata Hospital 50","type":"hospital","capacity":288,"availableBeds":35}},{"type":"Feature","geometry":{"type":"Point","coordinates":[88.5401997735986,22.60416780577964]},"properties":{"name":"Kolkata Hospital 51","type":"hospital","capacity":105,"availableBeds":10}},{"type":"Feature","geometry":{"type":"Point","coordinates":[88.54006824335372,22.464329165457645]},"properties":{"name":"Kolkata Hospital 52","type":"hospital","capacity":420,"availableBeds":30}},{"type":"Feature","geometry":{"type":"Point","coordinates":[88.38260173394875,22.636022526974884]},"properties":{"name":"Kolkata Hospital 53","type":"hospital","capacity":505,"availableBeds":41}},{"type":"Feature","geometry":{"type":"Point","coordinates":[88.54757681292743,22.466601346154622]},"properties":{"name":"Kolkata Hospital 54","type":"hospital","capacity":348,"availableBeds":22}},{"type":"Feature","geometry":{"type":"Point","coordinates":[88.50189433277131,22.74193662060243]},"properties":{"name":"Kolkata Hospital 55","type":"hospital","capacity":582,"availableBeds":24}},{"type":"Feature","geometry":{"type":"Point","coordinates":[88.25314983840808,22.66017538955402]},"properties":{"name":"Kolkata Hospital 56","type":"hospital","capacity":485,"availableBeds":44}},{"type":"Feature","geometry":{"type":"Point","coordinates":[88.25325595486981,22.465673508767917]},"properties":{"name":"Kolkata Hospital 57","type":"hospital","capacity":455,"availableBeds":32}},{"type":"Feature","geometry":{"type":"Point","coordinates":[88.40502094063054,22.37639492261445]},"properties":{"name":"Kolkata Hospital 58","type":"hospital","capacity":149,"availableBeds":37}},{"type":"Feature","geometry":{"type":"Point","coordinates":[88.19161772235493,22.700251763788867]},"properties":{"name":"Kolkata Hospital 59","type":"hospital","capacity":249,"availableBeds":49}},{"type":"Feature","geometry":{"type":"Point","coordinates":[88.5398371439069,22.39181234427964]},"properties":{"name":"Kolkata Hospital 60","type":"hospital","capacity":248,"availableBeds":18}}]}