{"type":"FeatureCollection","features":[{"type":"Feature","geometry":{"type":"LineString","coordinates":[[88.3,22.58],[88.34,22.57],[88.38,22.56],[88.42,22.55],[88.46,22.54]]},"properties":{"name":"AJC Bose Road","status":"clear","lanes":4}},{"type":"Feature","geometry":{"type":"LineString","coordinates":[[88.32,22.62],[88.34,22.59],[88.36,22.56],[88.38,22.53]]},"properties":{"name":"Park Street Corridor","status":"clear","lanes":6}},{"type":"Feature","geometry":{"type":"LineString","coordinates":[[88.36,22.64],[88.4,22.62],[88.44,22.58],[88.46,22.54]]},"properties":{"name":"EM Bypass","status":"clear","lanes":8}},{"type":"Feature","geometry":{"type":"LineString","coordinates":[[88.28,22.56],[88.32,22.54],[88.36,22.52],[88.4,22.5]]},"properties":{"name":"Diamond Harbour Road","status":"clear","lanes":4}},{"type":"Feature","geometry":{"type":"LineString","coordinates":[[88.34,22.62],[88.38,22.6],[88.42,22.58],[88.46,22.56],[88.5,22.54]]},"properties":{"name":"VIP Road","status":"clear","lanes":6}}]}