{"type":"FeatureCollection","features":[{"type":"Feature","geometry":{"type":"Point","coordinates":[88.16708253733705,22.38912573437256]},"properties":{"name":"Shelter Station 1","type":"shelter","capacity":577,"occupancy":360}},{"type":"Feature","geometry":{"type":"Point","coordinates":[88.35705175457234,22.632975311403246]},"properties":{"name":"Shelter Station 2","type":"shelter","capacity":1059,"occupancy":301}},{"type":"Feature","geometry":{"type":"Point","coordinates":[88.27530746663504,22.454922894620545]},"properties":{"name":"Shelter Station 3","type":"shelter","capacity":770,"occupancy":299}},{"type":"Feature","geometry":{"type":"Point","coordinates":[88.4345630072056,22.666763465294633]},"properties":{"name":"Shelter Station 4","type":"shelter","capacity":621,"occupancy":52}},{"type":"Feature","geometry":{"type":"Point","coordinates":[88.12862354162021,22.556845281184582]},"properties":{"name":"Shelter Station 5","type":"shelter","capacity":819,"occupancy":495}},{"type":"Feature","geometry":{"type":"Point","coordinates":[88.51041313657363,22.705870513824248]},"properties":{"name":"Shelter Station 6","type":"shelter","capacity":475,"occupancy":366}},{"type":"Feature","geometry":{"type":"Point","coordinates":[88.34115155362979,22.620102193980163]},"properties":{"name":"Shelter Station 7","type":"shelter","capacity":1169,"occupancy":34}},{"type":"Feature","geometry":{"type":"Point","coordinates":[88.50925200625996,22.602486695098396]},"properties":{"name":"Shelter Station 8","type":"shelter","capacity":1093,"occupancy":157}},{"type":"Feature","geometry":{"type":"Point","coordinates":[88.22019191444595,22.746381033464267]},"properties":{"name":"Shelter Station 9","type":"shelter","capacity":806,"occupancy":113}},{"type":"Feature","geometry":{"type":"Point","coordinates":[88.55684310394471,22.703239633104157]},"properties":{"name":"Shelter Station 10","type":"shelter","capacity":242,"occupancy":348}},{"type":"Feature","geometry":{"type":"Point","coordinates":[88.44450180751154,22.574553115734542]},"properties":{"name":"Shelter Station 11","type":"shelter","capacity":1148,"occupancy":13}},{"type":"Feature","geometry":{"type":"Point","coordinates":[88.13814715968914,22.649892076661487]},"properties":{"name":"Shelter Station 12","type":"shelter","capacity":1106,"occupancy":45}},{"type":"Feature","geometry":{"type":"Point","coordinates":[88.13861028574966,22.497017048741508]},"properties":{"name":"Shelter Station 13","type":"shelter","capacity":1087,"occupancy":489}},{"type":"Feature","geometry":{"type":"Point","coordinates":[88.41654093748086,22.725964652440602]},"properties":{"name":"Shelter Station 14","type":"shelter","capacity":302,"occupancy":192}},{"type":"Feature","geometry":{"type":"Point","coordinates":[88.11339606254721,22.3279465750085]},"properties":{"name":"Shelter Station 15","type":"shelter","capacity":1195,"occupancy":407}},{"type":"Feature","geometry":{"type":"Point","coordinates":[88.26727856728093,22.34329996505602]},"properties":{"name":"Shelter Station 16","type":"shelter","capacity":894,"occupancy":134}},{"type":"Feature","geometry":{"type":"Point","coordinates":[88.51441973371577,22.645461278999512]},"properties":{"name":"Shelter Station 17","type":"shelter","capacity":587,"occupancy":361}},{"type":"Feature","geometry":{"type":"Point","coordinates":[88.12018672413852,22.723592970807104]},"properties":{"name":"Shelter Station 18","type":"shelter","capacity":1096,"occupancy":409}},{"type":"Feature","geometry":{"type":"Point","coordinates":[88.22666465171977,22.5662980496192]},"properties":{"name":"Shelter Station 19","type":"shelter","capacity":1125,"occupancy":246}},{"type":"Feature","geometry":{"type":"Point","coordinates":[88.60584444958675,22.435090472869092]},"properties":{"name":"Shelter Station 20","type":"shelter","capacity":1040,"occupancy":327}},{"type":"Feature","geometry":{"type":"Point","coordinates":[88.32639389042352,22.440412607455297]},"properties":{"name":"Shelter Station 21","type":"shelter","capacity":499,"occupancy":287}},{"type":"Feature","geometry":{"type":"Point","coordinates":[88.60793172659541,22.61101157030941]},"properties":{"name":"Shelter Station 22","type":"shelter","capacity":614,"occupancy":367}},{"type":"Feature","geometry":{"type":"Point","coordinates":[88.58890860599321,22.634692312941368]},"properties":{"name":"Shelter Station 23","type":"shelter","capacity":390,"occupancy":217}},{"type":"Feature","geometry":{"type":"Point","coordinates":[88.51875384553976,22.73536160806857]},"properties":{"name":"Shelter Station 24","type":"shelter","capacity":247,"occupancy":158}},{"type":"Feature","geometry":{"type":"Point","coordinates":[88.30899923933215,22.44695708636702]},"properties":{"name":"Shelter Station 25","type":"shelter","capacity":603,"occupancy":124}},{"type":"Feature","geometry":{"type":"Point","coordinates":[88.2321988439474,22.38540591272588]},"properties":{"name":"Shelter Station 26","type":"shelter","capacity":1023,"occupancy":460}},{"type":"Feature","geometry":{"type":"Point","coordinates":[88.28093172271585,22.631304994703424]},"properties":{"name":"Shelter Station 27","type":"shelter","capacity":224,"occupancy":72}},{"type":"Feature","geometry":{"type":"Point","coordinates":[88.51159380032848,22.771475087519146]},"properties":{"name":"Shelter Station 28","type":"shelter","capacity":645,"occupancy":265}},{"type":"Feature","geometry":{"type":"Point","coordinates":[88.26598033131444,22.761441008302786]},"properties":{"name":"Shelter Station 29","type":"shelter","capacity":416,"occupancy":370}},{"type":"Feature","geometry":{"type":"Point","coordinates":[88.47786855542246,22.471089984212025]},"properties":{"name":"Shelter Station 30","type":"shelter","capacity":945,"occupancy":383}},{"type":"Feature","geometry":{"type":"Point","coordinates":[88.58276345097738,22.486507565217213]},"properties":{"name":"Shelter Station 31","type":"shelter","capacity":733,"occupancy":370}},{"type":"Feature","geometry":{"type":"Point","coordinates":[88.59396049491858,22.54233302788643]},"properties":{"name":"Shelter Station 32","type":"shelter","capacity":203,"occupancy":9}},{"type":"Feature","geometry":{"type":"Point","coordinates":[88.44611992933557,22.458529594966972]},"properties":{"name":"Shelter Station 33","type":"shelter","capacity":1070,"occupancy":163}},{"type":"Feature","geometry":{"type":"Point","coordinates":[88.36852632739149,22.678907781603794]},"properties":{"name":"Shelter Station 34","type":"shelter","capacity":591,"occupancy":362}},{"type":"Feature","geometry":{"type":"Point","coordinates":[88.51075070042937,22.406802026257765]},"properties":{"name":"Shelter Station 35","type":"shelter","capacity":340,"occupancy":298}},{"type":"Feature","geometry":{"type":"Point","coordinates":[88.4766869417446,22.681515200628187]},"properties":{"name":"Shelter Station 36","type":"shelter","capacity":354,"occupancy":0}},{"type":"Feature","geometry":{"type":"Point","coordinates":[88.3710682961538,22.49027878535391]},"properties":{"name":"Shelter Station 37","type":"shelter","capacity":320,"occupancy":403}},{"type":"Feature","geometry":{"type":"Point","coordinates":[88.11430940520646,22.423068886392965]},"properties":{"name":"Shelter Station 38","type":"shelter","capacity":782,"occupancy":347}},{"type":"Feature","geometry":{"type":"Point","coordinates":[88.50916741367689,22.795412938091808]},"properties":{"name":"Shelter Station 39","type":"shelter","capacity":835,"occupancy":191}},{"type":"Feature","geometry":{"type":"Point","coordinates":[88.57492947202063,22.59246803147181]},"properties":{"name":"Shelter Station 40","type":"shelter","capacity":1041,"occupancy":405}},{"type":"Feature","geometry":{"type":"Point","coordinates":[88.39912583295886,22.67498362369433]},"properties":{"name":"Shelter Station 41","type":"shelter","capacity":897,"occupancy":169}},{"type":"Feature","geometry":{"type":"Point","coordinates":[88.36727566473301,22.48390428118306]},"properties":{"name":"Shelter Station 42","type":"shelter","capacity":899,"occupancy":437}},{"type":"Feature","geometry":{"type":"Point","coordinates":[88.25607048598377,22.47505915266176]},"properties":{"name":"Shelter Station 43","type":"shelter","capacity":350,"occupancy":309}},{"type":"Feature","geometry":{"type":"Point","coordinates":[88.39257394779722,22.694222856349903]},"properties":{"name":"Shelter Station 44","type":"shelter","capacity":713,"occupancy":36}},{"type":"Feature","geometry":{"type":"Point","coordinates":[88.17364313913752,22.325599331230187]},"properties":{"name":"Shelter Station 45","type":"shelter","capacity":243,"occupancy":223}},{"type":"Feature","geometry":{"type":"Point","coordinates":[88.27204107817565,22.467134150176825]},"properties":{"name":"Shelter Station 46","type":"shelter","capacity":963,"occupancy":2}},{"type":"Feature","geometry":{"type":"Point","coordinates":[88.37832719426149,22.445237273160565]},"properties":{"name":"Shelter Station 47","type":"shelter","capacity":252,"occupancy":417}},{"type":"Feature","geometry":{"type":"Point","coordinates":[88.56728702529477,22.796134228561034]},"properties":{"name":"Shelter Station 48","type":"shelter","capacity":1029,"occupancy":115}},{"type":"Feature","geometry":{"type":"Point","coordinates":[88.56734465240932,22.552969978447422]},"properties":{"name":"Shelter Station 49","type":"shelter","capacity":603,"occupancy":48}},{"type":"Feature","geometry":{"type":"Point","coordinates":[88.54115923628233,22.342105742070434]},"properties":{"name":"Shelter Station 50","type":"shelter","capacity":996,"occupancy":425}},{"type":"Feature","geometry":{"type":"Point","coordinates":[88.22658735070434,22.782553861876163]},"properties":{"name":"Shelter Station 51","type":"shelter","capacity":613,"occupancy":163}},{"type":"Feature","geometry":{"type":"Point","coordinates":[88.18657987563302,22.758776110322717]},"properties":{"name":"Shelter Station 52","type":"shelter","capacity":593,"occupancy":0}},{"type":"Feature","geometry":{"type":"Point","coordinates":[88.20383571192762,22.548482531159678]},"properties":{"name":"Shelter Station 53","type":"shelter","capacity":995,"occupancy":126}},{"type":"Feature","geometry":{"type":"Point","coordinates":[88.59362961330642,22.69932249648076]},"properties":{"name":"Shelter Station 54","type":"shelter","capacity":927,"occupancy":11}},{"type":"Feature","geometry":{"type":"Point","coordinates":[88.28093717585116,22.6095243627951]},"properties":{"name":"Shelter Station 55","type":"shelter","capacity":301,"occupancy":483}},{"type":"Feature","geometry":{"type":"Point","coordinates":[88.55647580639868,22.345841004733007]},"properties":{"name":"Shelter Station 56","type":"shelter","capacity":1077,"occupancy":53}},{"type":"Feature","geometry":{"type":"Point","coordinates":[88.18480501324879,22.348247785695275]},"properties":{"name":"Shelter Station 57","type":"shelter","capacity":966,"occupancy":43}},{"type":"Feature","geometry":{"type":"Point","coordinates":[88.16119262833547,22.744381901753947]},"properties":{"name":"Shelter Station 58","type":"shelter","capacity":936,"occupancy":23}},{"type":"Feature","geometry":{"type":"Point","coordinates":[88.15983780880515,22.590376062055483]},"properties":{"name":"Shelter Station 59","type":"shelter","capacity":308,"occupancy":196}},{"type":"Feature","geometry":{"type":"Point","coordinates":[88.43061462742612,22.623066811439674]},"properties":{"name":"Shelter Station 60","type":"shelter","capacity":530,"occupancy":348}},{"type":"Feature","geometry":{"type":"Point","coordinates":[88.3565001102654,22.3728531576252]},"properties":{"name":"Shelter Station 61","type":"shelter","capacity":1075,"occupancy":321}},{"type":"Feature","geometry":{"type":"Point","coordinates":[88.22364713273905,22.609698841518078]},"properties":{"name":"Shelter Station 62","type":"shelter","capacity":931,"occupancy":178}},{"type":"Feature","geometry":{"type":"Point","coordinates":[88.26800164281381,22.51210591397562]},"properties":{"name":"Shelter Station 63","type":"shelter","capacity":348,"occupancy":437}},{"type":"Feature","geometry":{"type":"Point","coordinates":[88.45384229547976,22.372312808766882]},"properties":{"name":"Shelter Station 64","type":"shelter","capacity":891,"occupancy":363}},{"type":"Feature","geometry":{"type":"Point","coordinates":[88.25379610185121,22.56671575751212]},"properties":{"name":"Shelter Station 65","type":"shelter","capacity":323,"occupancy":375}},{"type":"Feature","geometry":{"type":"Point","coordinates":[88.3498189095178,22.41133050315561]},"properties":{"name":"Shelter Station 66","type":"shelter","capacity":1171,"occupancy":242}},{"type":"Feature","geometry":{"type":"Point","coordinates":[88.31354747318491,22.598774178335134]},"properties":{"name":"Shelter Station 67","type":"shelter","capacity":1036,"occupancy":73}},{"type":"Feature","geometry":{"type":"Point","coordinates":[88.37222756271542,22.54491024826671]},"properties":{"name":"Shelter Station 68","type":"shelter","capacity":775,"occupancy":71}},{"type":"Feature","geometry":{"type":"Point","coordinates":[88.32925721249406,22.41563669156615]},"properties":{"name":"Shelter Station 69","type":"shelter","capacity":966,"occupancy":212}},{"type":"Feature","geometry":{"type":"Point","coordinates":[88.29291657913471,22.520129529344555]},"properties":{"name":"Shelter Station 70","type":"shelter","capacity":691,"occupancy":62}},{"type":"Feature","geometry":{"type":"Point","coordinates":[88.37343171931877,22.48878723737859]},"properties":{"name":"Shelter Station 71","type":"shelter","capacity":341,"occupancy":115}},{"type":"Feature","geometry":{"type":"Point","coordinates":[88.42174924987583,22.56512963580527]},"properties":{"name":"Shelter Station 72","type":"shelter","capacity":944,"occupancy":333}},{"type":"Feature","geometry":{"type":"Point","coordinates":[88.32859577203847,22.543585827049064]},"properties":{"name":"Shelter Station 73","type":"shelter","capacity":1106,"occupancy":362}},{"type":"Feature","geometry":{"type":"Point","coordinates":[88.13934154091972,22.744938287371095]},"properties":{"name":"Shelter Station 74","type":"shelter","capacity":1020,"occupancy":48}},{"type":"Feature","geometry":{"type":"Point","coordinates":[88.19832346831797,22.75928926186032]},"properties":{"name":"Shelter Station 75","type":"shelter","capacity":497,"occupancy":395}},{"type":"Feature","geometry":{"type":"Point","coordinates":[88.5471114581113,22.655292204900114]},"properties":{"name":"Shelter Station 76","type":"shelter","capacity":410,"occupancy":388}},{"type":"Feature","geometry":{"type":"Point","coordinates":[88.21965203006708,22.517521424827105]},"properties":{"name":"Shelter Station 77","type":"shelter","capacity":952,"occupancy":173}},{"type":"Feature","geometry":{"type":"Point","coordinates":[88.31612603091038,22.53857079088636]},"properties":{"name":"Shelter Station 78","type":"shelter","capacity":360,"occupancy":250}},{"type":"Feature","geometry":{"type":"Point","coordinates":[88.28892336543731,22.707465960712213]},"properties":{"name":"Shelter Station 79","type":"shelter","capacity":1035,"occupancy":330}},{"type":"Feature","geometry":{"type":"Point","coordinates":[88.19541991352854,22.404363619298998]},"properties":{"name":"Shelter Station 80","type":"shelter","capacity":1074,"occupancy":260}},{"type":"Feature","geometry":{"type":"Point","coordinates":[88.47462401604871,22.41272790350025]},"properties":{"name":"Shelter Station 81","type":"shelter","capacity":242,"occupancy":381}},{"type":"Feature","geometry":{"type":"Point","coordinates":[88.55450927769182,22.496896123713217]},"properties":{"name":"Shelter Station 82","type":"shelter","capacity":780,"occupancy":75}},{"type":"Feature","geometry":{"type":"Point","coordinates":[88.41513895651579,22.735597106931237]},"properties":{"name":"Shelter Station 83","type":"shelter","capacity":759,"occupancy":141}},{"type":"Feature","geometry":{"type":"Point","coordinates":[88.53326969630804,22.71193149482453]},"properties":{"name":"Shelter Station 84","type":"shelter","capacity":895,"occupancy":257}},{"type":"Feature","geometry":{"type":"Point","coordinates":[88.52980982059862,22.784981482503504]},"properties":{"name":"Shelter Station 85","type":"shelter","capacity":846,"occupancy":204}},{"type":"Feature","geometry":{"type":"Point","coordinates":[88.60694658535006,22.707074668123134]},"properties":{"name":"Shelter Station 86","type":"shelter","capacity":1013,"occupancy":492}},{"type":"Feature","geometry":{"type":"Point","coordinates":[88.60357979385687,22.696922294510244]},"properties":{"name":"Shelter Station 87","type":"shelter","capacity":802,"occupancy":366}},{"type":"Feature","geometry":{"type":"Point","coordinates":[88.51977662434084,22.561148893023113]},"properties":{"name":"Shelter Station 88","type":"shelter","capacity":560,"occupancy":336}},{"type":"Feature","geometry":{"type":"Point","coordinates":[88.25409522562633,22.583569914533776]},"properties":{"name":"Shelter Station 89","type":"shelter","capacity":1036,"occupancy":404}},{"type":"Feature","geometry":{"type":"Point","coordinates":[88.6046551258369,22.63373593652801]},"properties":{"name":"Shelter Station 90","type":"shelter","capacity":631,"occupancy":228}}]}