{
"type": "FeatureCollection",
"name": "LAKSHADWEEP",
"features": [
{ "type": "Feature", "properties": { "OBJECTID_1": 16, "OBJECTID": 16, "STATE": "LAKSHADWEEP", "Shape_Leng": 147563.01730199999, "Shape_Area": 30760922.654300001 }, "geometry": { "type": "MultiPolygon", "coordinates": [ [ [ [ 3217278.29559999704361, 2292327.746899999678135 ], [ 3217296.551700003445148, 2292326.34180000051856 ], [ 3217304.190200001001358, 2292326.469000000506639 ], [ 3217319.152699999511242, 2292320.132399998605251 ], [ 3217337.142499998211861, 2292302.954500000923872 ], [ 3217348.215199999511242, 2292290.186599999666214 ], [ 3217358.895300000905991, 2292269.304699998348951 ], [ 3217376.029399998486042, 2292245.040899999439716 ], [ 3217388.826999999582767, 2292236.256700001657009 ], [ 3217399.298000000417233, 2292231.667599998414516 ], [ 3217418.693400003015995, 2292232.756000000983477 ], [ 3217435.074500001966953, 2292234.487700000405312 ], [ 3217444.262999996542931, 2292224.877500001341105 ], [ 3217446.251900002360344, 2292213.5735 ], [ 3217446.897200003266335, 2292205.911800000816584 ], [ 3217448.039599999785423, 2292198.217700000852346 ], [ 3217439.40259999781847, 2292177.770500000566244 ], [ 3217428.66889999806881, 2292156.409299999475479 ], [ 3217409.560699999332428, 2292140.551100000739098 ], [ 3217390.676899999380112, 2292129.262699998915195 ], [ 3217372.804999999701977, 2292128.1064000017941 ], [ 3217345.12610000371933, 2292134.562699999660254 ], [ 3217333.434500001370907, 2292145.322900000959635 ], [ 3217293.246799997985363, 2292176.834100000560284 ], [ 3217267.82209999859333, 2292228.997400000691414 ], [ 3217255.885399997234344, 2292265.730399999767542 ], [ 3217251.63400000333786, 2292292.920200001448393 ], [ 3217250.578599996864796, 2292312.822900000959635 ], [ 3217251.635899998247623, 2292323.970499999821186 ], [ 3217257.445699997246265, 2292328.270599998533726 ], [ 3217278.29559999704361, 2292327.746899999678135 ] ] ], [ [ [ 3217801.950900003314018, 2295018.186599999666214 ], [ 3217792.125799998641014, 2295015.103999998420477 ], [ 3217783.495200000703335, 2295015.529699999839067 ], [ 3217780.577799998223782, 2295018.793999999761581 ], [ 3217780.120399996638298, 2295019.262200001627207 ], [ 3217764.54730000346899, 2295033.77589999884367 ], [ 3217764.282300002872944, 2295049.051699999719858 ], [ 3217773.992499999701977, 2295060.280200000852346 ], [ 3217790.472900003194809, 2295064.052999999374151 ], [ 3217799.487899996340275, 2295061.066199999302626 ], [ 3217809.137599997222424, 2295050.408900000154972 ], [ 3217806.411799997091293, 2295036.294300001114607 ], [ 3217805.952799998223782, 2295027.146200001239777 ], [ 3217801.950900003314018, 2295018.186599999666214 ] ] ], [ [ [ 3222138.546800002455711, 2291574.792399998754263 ], [ 3222060.140299998223782, 2291460.543099999427795 ], [ 3221883.933300003409386, 2291293.564599998295307 ], [ 3221767.62049999833107, 2291164.379799999296665 ], [ 3221694.238099999725819, 2291038.670299999415874 ], [ 3221480.232699997723103, 2290806.860399998724461 ], [ 3221345.581900000572205, 2290698.429200001060963 ], [ 3221221.667900003492832, 2290642.405099999159575 ], [ 3221009.642800003290176, 2290606.504599999636412 ], [ 3220811.724600002169609, 2290588.237300001084805 ], [ 3220294.323700003325939, 2290647.295400001108646 ], [ 3220059.366999998688698, 2290673.114900000393391 ], [ 3219589.606100000441074, 2290769.037300001829863 ], [ 3219139.498400002717972, 2290943.428199999034405 ], [ 3218798.929099999368191, 2291047.265999998897314 ], [ 3218631.230800002813339, 2291125.782499998807907 ], [ 3218455.711900003254414, 2291210.795899998396635 ], [ 3218384.387100003659725, 2291250.962000001221895 ], [ 3218294.856100000441074, 2291314.432599999010563 ], [ 3218251.966600000858307, 2291353.198399998247623 ], [ 3218254.9353, 2291351.529100000858307 ], [ 3218185.904100000858307, 2291417.545899998396635 ], [ 3218176.38120000064373, 2291451.617600001394749 ], [ 3218184.317699998617172, 2291571.368099998682737 ], [ 3218152.709899999201298, 2291714.96680000051856 ], [ 3218105.179999999701977, 2291897.01240000128746 ], [ 3218082.98369999974966, 2291973.456999998539686 ], [ 3218077.193999998271465, 2292010.903000000864267 ], [ 3218080.502099998295307, 2292036.697299998253584 ], [ 3218097.926600001752377, 2292059.7654 ], [ 3218120.712399996817112, 2292077.994300000369549 ], [ 3218146.8191, 2292080.778599999845028 ], [ 3218173.935000002384186, 2292073.330600000917912 ], [ 3218200.182899996638298, 2292058.28830000013113 ], [ 3218231.909500002861023, 2292030.7685999982059 ], [ 3218269.518700003623962, 2291988.188900001347065 ], [ 3218296.932199999690056, 2291965.960400000214577 ], [ 3218338.233999997377396, 2291946.613499999046326 ], [ 3218379.275200001895428, 2291932.3772 ], [ 3218413.614600002765656, 2291916.424699999392033 ], [ 3218447.542599998414516, 2291881.662500001490116 ], [ 3218479.960199996829033, 2291847.486600000411272 ], [ 3218502.363499999046326, 2291764.926300000399351 ], [ 3218502.318199999630451, 2291763.910599999129772 ], [ 3218516.818499997258186, 2291727.561700001358986 ], [ 3218531.181000001728535, 2291698.852000001817942 ], [ 3218555.2466000020504, 2291670.686700001358986 ], [ 3218566.641099996864796, 2291643.656300000846386 ], [ 3218565.598200000822544, 2291622.320000000298023 ], [ 3218553.84570000320673, 2291611.1908 ], [ 3218536.074600003659725, 2291612.074799999594688 ], [ 3218512.543200001120567, 2291630.537599999457598 ], [ 3218488.01129999756813, 2291669.929099999368191 ], [ 3218448.855499997735023, 2291712.079500000923872 ], [ 3218415.023800000548363, 2291759.050500001758337 ], [ 3218391.219499997794628, 2291782.115499999374151 ], [ 3218341.651699997484684, 2291819.682100001722574 ], [ 3218321.593400001525879, 2291846.640799999237061 ], [ 3218289.546300001442432, 2291888.433299999684095 ], [ 3218263.304200001060963, 2291913.65260000154376 ], [ 3218245.843999996781349, 2291931.315499998629093 ], [ 3218217.656800001859665, 2291937.793600000441074 ], [ 3218197.373400002717972, 2291929.121399998664856 ], [ 3218190.813100002706051, 2291909.588599998503923 ], [ 3218191.15990000218153, 2291885.646200001239777 ], [ 3218211.853299997746944, 2291851.026099998503923 ], [ 3218257.508599996566772, 2291806.519799999892712 ], [ 3218281.532499998807907, 2291767.161100000143051 ], [ 3218300.056900002062321, 2291709.229600001126528 ], [ 3218322.841099999845028, 2291665.3462999984622 ], [ 3218369.444200001657009, 2291619.260800000280142 ], [ 3218496.237999998033047, 2291537.163800001144409 ], [ 3218586.098200000822544, 2291501.169300001114607 ], [ 3218689.119599997997284, 2291484.383600000292063 ], [ 3218895.777400001883507, 2291462.999000001698732 ], [ 3219223.3037, 2291435.670200001448393 ], [ 3219330.98759999871254, 2291441.049600001424551 ], [ 3219782.659699998795986, 2291536.413600001484156 ], [ 3219843.843099996447563, 2291548.670099999755621 ], [ 3219913.942299999296665, 2291555.909099999815226 ], [ 3220210.270400002598763, 2291556.597199998795986 ], [ 3220305.77759999781847, 2291542.229100000113249 ], [ 3220482.612099997699261, 2291504.50730000063777 ], [ 3220581.671800002455711, 2291521.013399999588728 ], [ 3220856.413699999451637, 2291579.796399999409914 ], [ 3221072.137500002980232, 2291649.61430000141263 ], [ 3221314.83669999986887, 2291771.065200001001358 ], [ 3221434.716899998486042, 2291848.659699998795986 ], [ 3221496.762199997901917, 2291919.931000001728535 ], [ 3221548.833999998867512, 2291964.207600001245737 ], [ 3221677.092699997127056, 2292046.478100001811981 ], [ 3221974.158100001513958, 2292259.432700000703335 ], [ 3222198.832099996507168, 2292418.420400001108646 ], [ 3222370.322999998927116, 2292541.333000000566244 ], [ 3222537.670199997723103, 2292797.820700000971556 ], [ 3222662.496500000357628, 2292996.833399999886751 ], [ 3222801.789399996399879, 2293190.053300000727177 ], [ 3222897.459399998188019, 2293365.558200001716614 ], [ 3223115.047600001096725, 2293619.067899998277426 ], [ 3223313.171099998056889, 2293828.725099999457598 ], [ 3223418.878799997270107, 2293980.833999998867512 ], [ 3223469.624099999666214, 2294102.033100001513958 ], [ 3223498.123999997973442, 2294278.286200001835823 ], [ 3223532.195600003004074, 2294453.751499999314547 ], [ 3223604.704300001263618, 2294728.112399999052286 ], [ 3223642.750799998641014, 2294818.885200001299381 ], [ 3223779.621799997985363, 2295087.537799999117851 ], [ 3223868.246200002729893, 2295285.773699998855591 ], [ 3223924.303000003099442, 2295401.114700000733137 ], [ 3223958.395199999213219, 2295514.977099999785423 ], [ 3224104.934199996292591, 2295752.61710000038147 ], [ 3224287.556599996984005, 2296030.722199998795986 ], [ 3224519.019599996507168, 2296401.61879999935627 ], [ 3224654.940200001001358, 2296661.652399998158216 ], [ 3224725.081500001251698, 2296773.749699998646975 ], [ 3224874.656999997794628, 2296949.138000000268221 ], [ 3225004.363200001418591, 2297072.0472999997437 ], [ 3225089.339400000870228, 2297144.230700001120567 ], [ 3225115.813500002026558, 2297165.321199998259544 ], [ 3225135.114699997007847, 2297164.374600000679493 ], [ 3225139.597300000488758, 2297141.760099999606609 ], [ 3225138.483599998056889, 2297118.915100000798702 ], [ 3225091.884300000965595, 2297082.008299998939037 ], [ 3225033.463699996471405, 2297042.633699998259544 ], [ 3224891.464199997484684, 2296897.41499999910593 ], [ 3224797.772299997508526, 2296761.533399999141693 ], [ 3224697.837399996817112, 2296560.805300001055002 ], [ 3224541.732600003480911, 2296304.310600001364946 ], [ 3224117.967500001192093, 2295634.396499998867512 ], [ 3224001.023100003600121, 2295429.420200001448393 ], [ 3223728.925200000405312, 2294811.602200001478195 ], [ 3223683.818999998271465, 2294639.223600000143051 ], [ 3223628.936599999666214, 2294495.832499999552965 ], [ 3223616.397799998521805, 2294406.348700001835823 ], [ 3223603.484499998390675, 2294319.435400001704693 ], [ 3223607.978299997746944, 2294234.710799999535084 ], [ 3223612.365900002419949, 2294158.142000000923872 ], [ 3223579.821599997580051, 2294013.655200000852346 ], [ 3223533.424699999392033, 2293804.682799998670816 ], [ 3223523.743000000715256, 2293669.753100000321865 ], [ 3223514.323399998247623, 2293529.722600001841784 ], [ 3223537.103399999439716, 2293309.209199998527765 ], [ 3223566.330899998545647, 2293220.218499999493361 ], [ 3223582.943000003695488, 2293154.247600000351667 ], [ 3223585.9934, 2292988.147199999541044 ], [ 3223564.676299996674061, 2292896.035100001841784 ], [ 3223526.532200001180172, 2292813.920200001448393 ], [ 3223427.899700000882149, 2292692.000500001013279 ], [ 3222988.014200001955032, 2292327.738000001758337 ], [ 3222862.5669, 2292230.03999999910593 ], [ 3222472.096600003540516, 2291887.777699999511242 ], [ 3222240.236699998378754, 2291696.5559 ], [ 3222187.2212999984622, 2291643.169700000435114 ], [ 3222138.546800002455711, 2291574.792399998754263 ] ] ], [ [ [ 3295764.576999999582767, 2489396.760200001299381 ], [ 3295730.145700000226498, 2489394.780099999159575 ], [ 3295715.520999997854233, 2489417.660900000482798 ], [ 3295718.127300001680851, 2489441.783700000494719 ], [ 3295736.244499996304512, 2489451.574200000613928 ], [ 3295748.661899998784065, 2489458.08390000090003 ], [ 3295771.12950000166893, 2489463.625500001013279 ], [ 3295799.00789999961853, 2489465.905000001192093 ], [ 3295842.450000002980232, 2489465.96000000089407 ], [ 3295865.612800002098083, 2489442.183400001376867 ], [ 3295856.269799999892712, 2489425.437399998307228 ], [ 3295815.272299997508526, 2489401.0320999994874 ], [ 3295764.576999999582767, 2489396.760200001299381 ] ] ], [ [ [ 3295883.199600003659725, 2489484.820500001311302 ], [ 3295865.082900002598763, 2489475.03999999910593 ], [ 3295849.961000002920628, 2489475.7212999984622 ], [ 3295836.01240000128746, 2489479.889400001615286 ], [ 3295828.174400001764297, 2489485.291400000452995 ], [ 3295829.5022, 2489492.296799998730421 ], [ 3295840.469700001180172, 2489500.391100000590086 ], [ 3295857.762699998915195, 2489503.145500000566244 ], [ 3295869.953000001609325, 2489504.614700000733137 ], [ 3295880.053000003099442, 2489493.544700000435114 ], [ 3295883.199600003659725, 2489484.820500001311302 ] ] ], [ [ [ 3296033.382299996912479, 2489500.250199999660254 ], [ 3295996.763700000941753, 2489449.889899998903275 ], [ 3295951.027300000190735, 2489451.958099998533726 ], [ 3295948.383900001645088, 2489452.077599998563528 ], [ 3295935.363899998366833, 2489476.902300000190735 ], [ 3295944.474600002169609, 2489521.947599999606609 ], [ 3295985.424400001764297, 2489565.72239999845624 ], [ 3295995.175999999046326, 2489571.164099998772144 ], [ 3296012.79900000244379, 2489580.975000001490116 ], [ 3296026.428000003099442, 2489569.760299999266863 ], [ 3296031.587499998509884, 2489538.713599998503923 ], [ 3296033.382299996912479, 2489500.250199999660254 ] ] ], [ [ [ 3296182.765600003302097, 2489746.515599999576807 ], [ 3296116.608599998056889, 2489735.363299999386072 ], [ 3296093.992600001394749, 2489771.2368 ], [ 3296090.523400001227856, 2489822.059999998658895 ], [ 3296120.463600002229214, 2489840.626899998635054 ], [ 3296160.753200002014637, 2489840.417899999767542 ], [ 3296180.04839999973774, 2489839.545299999415874 ], [ 3296208.693199999630451, 2489832.451400000602007 ], [ 3296217.452799998223782, 2489821.2043999992311 ], [ 3296219.093000002205372, 2489779.212799999862909 ], [ 3296182.765600003302097, 2489746.515599999576807 ] ] ], [ [ [ 3295803.279399998486042, 2489947.40089999884367 ], [ 3295782.298500001430511, 2489931.0724 ], [ 3295769.890299998223782, 2489933.147199999541044 ], [ 3295762.214100003242493, 2489936.583099998533726 ], [ 3295756.549500003457069, 2489950.88459999859333 ], [ 3295757.316100001335144, 2489957.013999998569489 ], [ 3295758.880500003695488, 2489969.534000001847744 ], [ 3295767.45269999653101, 2489987.927299998700619 ], [ 3295791.741099998354912, 2490008.80629999935627 ], [ 3295810.902900002896786, 2490018.957699999213219 ], [ 3295825.14019999653101, 2490023.059599999338388 ], [ 3295835.995999999344349, 2490021.058600001037121 ], [ 3295840.097900003194809, 2490006.8213 ], [ 3295832.896499998867512, 2489983.685600001364946 ], [ 3295822.771200001239777, 2489965.346000000834465 ], [ 3295803.279399998486042, 2489947.40089999884367 ] ] ], [ [ [ 3295482.359899997711182, 2490024.143500000238419 ], [ 3295495.483900003135204, 2490012.939399998635054 ], [ 3295541.283600002527237, 2490031.57149999961257 ], [ 3295564.538999997079372, 2490009.8213 ], [ 3295524.391699999570847, 2489959.61769999936223 ], [ 3295491.891199998557568, 2489933.309099998325109 ], [ 3295462.134700000286102, 2489889.708099998533726 ], [ 3295377.776799999177456, 2489855.651399999856949 ], [ 3295318.4824, 2489851.258900001645088 ], [ 3295279.029200002551079, 2489894.459800001233816 ], [ 3295270.178800001740456, 2489933.24269999936223 ], [ 3295302.978900000452995, 2489966.10359999909997 ], [ 3295367.979699999094009, 2490018.710099998861551 ], [ 3295403.824199996888638, 2490051.930799998342991 ], [ 3295446.704999998211861, 2490084.33729999884963 ], [ 3295489.016199998557568, 2490093.032999999821186 ], [ 3295516.408500000834465, 2490084.717300001531839 ], [ 3295539.983499996364117, 2490070.013799998909235 ], [ 3295528.603699997067451, 2490052.857099998742342 ], [ 3295486.507399998605251, 2490037.587699998170137 ], [ 3295482.359899997711182, 2490024.143500000238419 ] ] ], [ [ [ 3297653.553999997675419, 2489780.555300001055002 ], [ 3297663.770599998533726, 2489548.284200001507998 ], [ 3297650.455700002610683, 2489253.44649999961257 ], [ 3297639.832000002264977, 2489163.526999998837709 ], [ 3297643.193599998950958, 2489014.382800001651049 ], [ 3297632.502300001680851, 2488855.784299999475479 ], [ 3297617.731200002133846, 2488752.408300001174212 ], [ 3297597.515600003302097, 2488617.974599998444319 ], [ 3297590.032600000500679, 2488452.151900000870228 ], [ 3297559.9199, 2488322.192800000309944 ], [ 3297529.400799997150898, 2488250.337200000882149 ], [ 3297481.743699997663498, 2488190.375199999660254 ], [ 3297402.512999996542931, 2488124.758299998939037 ], [ 3297335.105099998414516, 2488085.887600000947714 ], [ 3297234.182800002396107, 2488076.803599998354912 ], [ 3297095.762900002300739, 2488075.984499998390675 ], [ 3296950.925300002098083, 2488089.600099999457598 ], [ 3296852.219300001859665, 2488118.303300000727177 ], [ 3296755.515900000929832, 2488202.477000001817942 ], [ 3296692.9551, 2488270.958200000226498 ], [ 3296675.413099996745586, 2488340.945999998599291 ], [ 3296682.541299998760223, 2488420.415899999439716 ], [ 3296741.230800002813339, 2488501.103799998760223 ], [ 3296743.417300000786781, 2488549.485399998724461 ], [ 3296716.732199996709824, 2488640.593400001525879 ], [ 3296664.479999996721745, 2488791.936900001019239 ], [ 3296628.777800001204014, 2488918.299899999052286 ], [ 3296582.015699997544289, 2489034.551399998366833 ], [ 3296542.032499998807907, 2489144.434000000357628 ], [ 3296489.347900003194809, 2489275.097899999469519 ], [ 3296404.443099997937679, 2489396.609400000423193 ], [ 3296324.345299996435642, 2489535.073100000619888 ], [ 3296276.492200002074242, 2489627.137600000947714 ], [ 3296277.613600000739098, 2489629.606499999761581 ], [ 3296258.680399999022484, 2489668.843600001186132 ], [ 3296240.036399997770786, 2489714.633699998259544 ], [ 3296262.250299997627735, 2489747.97069999948144 ], [ 3296310.639700002968311, 2489745.783300001174212 ], [ 3296415.777099996805191, 2489703.151000000536442 ], [ 3296483.090000003576279, 2489661.727299999445677 ], [ 3296560.515100002288818, 2489620.353500001132488 ], [ 3296660.648000001907349, 2489612.2971 ], [ 3296758.665100000798702, 2489635.637499999254942 ], [ 3296843.197700001299381, 2489673.236699998378754 ], [ 3296906.953699998557568, 2489743.078400000929832 ], [ 3296966.308200001716614, 2489827.260499998927116 ], [ 3297038.312700003385544, 2489889.653599999845028 ], [ 3297110.956500001251698, 2489966.170299999415874 ], [ 3297156.185900002717972, 2490050.486900001764297 ], [ 3297215.693599998950958, 2490138.197200000286102 ], [ 3297271.816600002348423, 2490229.086100000888109 ], [ 3297292.55179999768734, 2490307.942400000989437 ], [ 3297317.588200002908707, 2490403.771299999207258 ], [ 3297357.232900001108646, 2490510.060100000351667 ], [ 3297403.089100003242493, 2490608.478900000452995 ], [ 3297458.804999999701977, 2490768.574799999594688 ], [ 3297496.735100001096725, 2490926.449700001627207 ], [ 3297570.678999997675419, 2491109.9543999992311 ], [ 3297673.291900001466274, 2491313.380699999630451 ], [ 3297723.169299997389317, 2491433.840599998831749 ], [ 3297781.018899999558926, 2491563.032400000840425 ], [ 3297806.82490000128746, 2491675.994300000369549 ], [ 3297828.551899999380112, 2491855.291999999433756 ], [ 3297861.578400000929832, 2491971.461300000548363 ], [ 3297918.622500002384186, 2492083.010600000619888 ], [ 3297964.638899996876717, 2492184.962900001555681 ], [ 3298010.170900002121925, 2492276.330899998545647 ], [ 3298037.206299997866154, 2492338.230399999767542 ], [ 3298082.216300003230572, 2492485.162999998778105 ], [ 3298133.236400000751019, 2492697.975299999117851 ], [ 3298153.230099998414516, 2492838.972600001841784 ], [ 3298166.362099997699261, 2492973.201400000602007 ], [ 3298183.718999996781349, 2493055.743599999696016 ], [ 3298207.437100000679493, 2493044.067699998617172 ], [ 3298209.410300001502037, 2493009.6415 ], [ 3298231.507700003683567, 2492883.917300000786781 ], [ 3298224.704700000584126, 2492811.50560000166297 ], [ 3298203.753899998962879, 2492649.350000001490116 ], [ 3298160.717600002884865, 2492467.981100000441074 ], [ 3298035.476300001144409, 2492143.38230000063777 ], [ 3298013.653399996459484, 2492040.347800001502037 ], [ 3297972.0154, 2491889.719999998807907 ], [ 3297952.009800001978874, 2491748.718400001525879 ], [ 3297913.600599996745586, 2491591.382199998944998 ], [ 3297894.055799998342991, 2491427.132100000977516 ], [ 3297887.89019999653101, 2491368.8293999992311 ], [ 3297859.174199998378754, 2491269.639600001275539 ], [ 3297844.879799999296665, 2491176.857299998402596 ], [ 3297782.254699997603893, 2491020.106300000101328 ], [ 3297738.681599996984005, 2490893.801199998706579 ], [ 3297705.333599999547005, 2490770.570999998599291 ], [ 3297682.532799996435642, 2490567.576400000602007 ], [ 3297665.012999996542931, 2490414.346799999475479 ], [ 3297643.640000000596046, 2490321.3772 ], [ 3297629.324299998581409, 2490239.1974 ], [ 3297649.854299999773502, 2490078.69029999896884 ], [ 3297648.481299996376038, 2489891.891199998557568 ], [ 3297653.553999997675419, 2489780.555300001055002 ] ] ], [ [ [ 3298363.353000000119209, 2493790.927999999374151 ], [ 3298338.914499998092651, 2493786.475600000470877 ], [ 3298313.572300001978874, 2493806.811200000345707 ], [ 3298301.601800002157688, 2493843.705800000578165 ], [ 3298306.540200002491474, 2493874.788199998438358 ], [ 3298323.0779, 2493894.681200001388788 ], [ 3298323.090400002896786, 2493894.741300001740456 ], [ 3298348.701200000941753, 2493891.572000000625849 ], [ 3298365.064400002360344, 2493873.664200000464916 ], [ 3298376.387699998915195, 2493855.982900001108646 ], [ 3298378.43299999833107, 2493823.069499999284744 ], [ 3298363.353000000119209, 2493790.927999999374151 ] ] ], [ [ [ 3146804.421899996697903, 2493817.930700000375509 ], [ 3146772.327200002968311, 2493813.114500001072884 ], [ 3146745.839299999177456, 2493827.692899998277426 ], [ 3146735.875699996948242, 2493848.962699998170137 ], [ 3146738.038599997758865, 2493870.061999998986721 ], [ 3146754.9397, 2493901.994100000709295 ], [ 3146801.9221, 2493966.6382 ], [ 3146833.89190000295639, 2494015.424699999392033 ], [ 3146853.401900000870228, 2494067.415500000119209 ], [ 3146868.998999997973442, 2494112.552000001072884 ], [ 3146908.373999997973442, 2494223.088700000196695 ], [ 3146927.573899999260902, 2494250.845300000160933 ], [ 3146973.308799996972084, 2494329.710299998521805 ], [ 3147008.505500003695488, 2494391.459699999541044 ], [ 3147039.203900001943111, 2494426.171799998730421 ], [ 3147096.115800000727177, 2494496.844500001519918 ], [ 3147178.645400002598763, 2494555.513900000602007 ], [ 3147229.755800001323223, 2494603.258299998939037 ], [ 3147258.532200001180172, 2494649.184500001370907 ], [ 3147274.882700003683567, 2494671.036699999123812 ], [ 3147333.852700002491474, 2494723.907200001180172 ], [ 3147379.103900000452995, 2494756.811999998986721 ], [ 3147389.942299999296665, 2494761.2949 ], [ 3147391.12950000166893, 2494764.247900001704693 ], [ 3147527.250900000333786, 2495092.35020000115037 ], [ 3147571.985299997031689, 2495115.678899999707937 ], [ 3147605.199500001966953, 2495122.462900001555681 ], [ 3147593.701399996876717, 2495059.925299998372793 ], [ 3147499.628899998962879, 2494882.128100000321865 ], [ 3147450.738600000739098, 2494745.334399998188019 ], [ 3147452.188699997961521, 2494567.888900000602007 ], [ 3147448.482500001788139, 2494546.36710000038147 ], [ 3147433.538800001144409, 2494522.420200001448393 ], [ 3147426.513099998235703, 2494495.510600000619888 ], [ 3147416.364200003445148, 2494457.661899998784065 ], [ 3147408.605400003492832, 2494417.158100001513958 ], [ 3147386.053300000727177, 2494355.728700000792742 ], [ 3147355.137299999594688, 2494289.196400001645088 ], [ 3147314.758900001645088, 2494252.985599998384714 ], [ 3147265.008699998259544, 2494193.042899999767542 ], [ 3147209.308499999344349, 2494116.740200001746416 ], [ 3147154.520199999213219, 2494018.811599999666214 ], [ 3147154.443099997937679, 2494018.673900000751019 ], [ 3147080.675999999046326, 2493953.962799999862909 ], [ 3147020.090899996459484, 2493917.853999998420477 ], [ 3146914.629199996590614, 2493837.193300001323223 ], [ 3146908.52139999717474, 2493836.104499999433756 ], [ 3146905.946099996566772, 2493835.648899998515844 ], [ 3146848.130000002682209, 2493831.726399999111891 ], [ 3146804.421899996697903, 2493817.930700000375509 ] ] ], [ [ [ 3299456.849799998104572, 2498834.524999998509884 ], [ 3299465.612000003457069, 2498726.598600000143051 ], [ 3299500.114399999380112, 2498562.481800001114607 ], [ 3299511.632600001990795, 2498437.257199998944998 ], [ 3299525.896899998188019, 2498294.745299998670816 ], [ 3299560.060500003397465, 2498134.173700001090765 ], [ 3299596.075400002300739, 2498014.912200000137091 ], [ 3299676.198700003325939, 2497865.898499999195337 ], [ 3299701.107100002467632, 2497802.67339999973774 ], [ 3299751.737300001084805, 2497626.714600000530481 ], [ 3299796.136, 2497458.107700001448393 ], [ 3299815.964900001883507, 2497360.274900000542402 ], [ 3299805.281599998474121, 2497201.71339999884367 ], [ 3299761.400700002908707, 2497068.3882 ], [ 3299709.2820999994874, 2496842.020300000905991 ], [ 3299678.172700002789497, 2496756.587600000202656 ], [ 3299633.467100001871586, 2496616.215900000184774 ], [ 3299587.331799998879433, 2496511.262899998575449 ], [ 3299529.183499999344349, 2496375.034600000828505 ], [ 3299479.910599999129772, 2496200.546999998390675 ], [ 3299448.449600003659725, 2496118.65089999884367 ], [ 3299390.999799996614456, 2496076.309300001710653 ], [ 3299345.058399997651577, 2496054.14640000090003 ], [ 3299293.501400001347065, 2496052.933299999684095 ], [ 3299287.083999998867512, 2496067.36259999871254 ], [ 3299287.865699999034405, 2496084.496399998664856 ], [ 3299348.329300001263618, 2496126.7043999992311 ], [ 3299389.766099996864796, 2496194.510200001299381 ], [ 3299401.44990000128746, 2496308.0929000005126 ], [ 3299417.483800001442432, 2496428.545099999755621 ], [ 3299450.651500001549721, 2496548.225299999117851 ], [ 3299498.227099999785423, 2496684.9254 ], [ 3299537.965700000524521, 2496793.703499998897314 ], [ 3299565.332000002264977, 2496941.416999999433756 ], [ 3299586.300800003111362, 2497104.052499998360872 ], [ 3299612.946000002324581, 2497314.395599998533726 ], [ 3299603.298299998044968, 2497480.936299998313189 ], [ 3299585.043600000441074, 2497613.538899999111891 ], [ 3299546.89919999986887, 2497764.189599998295307 ], [ 3299481.688299998641014, 2497930.213199999183416 ], [ 3299424.149499997496605, 2498109.51240000128746 ], [ 3299383.507600001990795, 2498204.74100000038743 ], [ 3299341.868600003421307, 2498356.056600000709295 ], [ 3299325.8882, 2498460.786299999803305 ], [ 3299334.578000001609325, 2498574.996899999678135 ], [ 3299303.860799998044968, 2498666.24379999935627 ], [ 3299262.613499999046326, 2498747.875199999660254 ], [ 3299251.641199998557568, 2498806.934099998325109 ], [ 3299237.532200001180172, 2498807.571800000965595 ], [ 3299228.461599998176098, 2498763.043800000101328 ], [ 3299240.863600000739098, 2498724.624099999666214 ], [ 3299234.991400003433228, 2498672.88740000128746 ], [ 3299202.823899999260902, 2498653.636599998921156 ], [ 3299176.5493, 2498675.520300000905991 ], [ 3299167.489699997007847, 2498720.860800001770258 ], [ 3299164.509999997913837, 2498726.5055 ], [ 3299164.713600002229214, 2498726.547699999064207 ], [ 3299164.919600002467632, 2498809.33049999922514 ], [ 3299193.303099997341633, 2498901.4507 ], [ 3299236.349899999797344, 2498937.874600000679493 ], [ 3299321.343500003218651, 2498975.440200001001358 ], [ 3299383.764600001275539, 2498982.721099998801947 ], [ 3299438.256899997591972, 2498959.562600001692772 ], [ 3299453.363399997353554, 2498913.945000000298023 ], [ 3299456.849799998104572, 2498834.524999998509884 ] ] ], [ [ [ 3152814.794699996709824, 2499777.463500000536442 ], [ 3152752.572400003671646, 2499702.129200000315905 ], [ 3152674.657700002193451, 2499704.696100000292063 ], [ 3152657.802799999713898, 2499730.737500000745058 ], [ 3152664.11710000038147, 2499785.669399999082088 ], [ 3152680.641500003635883, 2499845.063099998980761 ], [ 3152744.40990000218153, 2499948.788400001823902 ], [ 3152789.73480000346899, 2499988.184599999338388 ], [ 3152811.520199999213219, 2500022.179400000721216 ], [ 3152825.088899999856949, 2500240.841899998486042 ], [ 3152829.844999998807907, 2500572.207499999552965 ], [ 3152914.522299997508526, 2500632.906199999153614 ], [ 3152941.484200000762939, 2500635.081300001591444 ], [ 3153001.258599996566772, 2500639.906500000506639 ], [ 3153115.593699999153614, 2500635.358199998736382 ], [ 3153191.342299997806549, 2500562.5724 ], [ 3153214.760200001299381, 2500474.206900000572205 ], [ 3153211.962200000882149, 2500392.285900000482798 ], [ 3153191.229699999094009, 2500316.369800001382828 ], [ 3153080.656900003552437, 2500176.681000001728535 ], [ 3152973.65089999884367, 2500028.092000000178814 ], [ 3152949.510200001299381, 2499994.560499999672174 ], [ 3152814.794699996709824, 2499777.463500000536442 ] ] ], [ [ [ 3152687.955700002610683, 2503448.253400001674891 ], [ 3152712.785499997437, 2503412.560499999672174 ], [ 3152723.245099999010563, 2503391.277300000190735 ], [ 3152728.311499997973442, 2503345.034099999815226 ], [ 3152741.794600002467632, 2503304.900699999183416 ], [ 3152774.367899999022484, 2503272.320999998599291 ], [ 3152785.617600001394749, 2503246.954300001263618 ], [ 3152785.639899998903275, 2503246.781700000166893 ], [ 3152788.317500002682209, 2503240.743999999016523 ], [ 3152784.754199996590614, 2503221.744300000369549 ], [ 3152772.3574, 2503207.260600000619888 ], [ 3152753.727300003170967, 2503199.181000001728535 ], [ 3152729.421099998056889, 2503197.984200000762939 ], [ 3152702.150799997150898, 2503207.541299998760223 ], [ 3152684.444499999284744, 2503253.461199998855591 ], [ 3152676.834600001573563, 2503271.5548 ], [ 3152656.225199997425079, 2503310.5647 ], [ 3152634.601999998092651, 2503330.931400001049042 ], [ 3152595.749200001358986, 2503368.90819999948144 ], [ 3152545.309900000691414, 2503407.511900000274181 ], [ 3152471.084100000560284, 2503426.699400000274181 ], [ 3152426.887599997222424, 2503422.023200001567602 ], [ 3152392.037900000810623, 2503412.807199999690056 ], [ 3152346.368199996650219, 2503399.631299998611212 ], [ 3152310.614699997007847, 2503392.475499998778105 ], [ 3152257.508500002324581, 2503391.3202 ], [ 3152187.996299996972084, 2503404.194899998605251 ], [ 3152154.740299999713898, 2503424.181800000369549 ], [ 3152137.671099998056889, 2503444.812300000339746 ], [ 3152128.458499997854233, 2503470.5691 ], [ 3152128.296700000762939, 2503484.735399998724461 ], [ 3152128.235600002110004, 2503489.521699998527765 ], [ 3152127.746699996292591, 2503531.728000000119209 ], [ 3152133.450599998235703, 2503553.141199998557568 ], [ 3152152.420699998736382, 2503576.856899999082088 ], [ 3152179.867600001394749, 2503598.605999998748302 ], [ 3152202.0641999989748, 2503616.591699998825788 ], [ 3152222.451099999248981, 2503647.810600001364946 ], [ 3152252.758599996566772, 2503712.842000000178814 ], [ 3152259.605499997735023, 2503736.714999999850988 ], [ 3152264.425999999046326, 2503760.197299998253584 ], [ 3152266.96679999679327, 2503807.036400001496077 ], [ 3152267.165899999439716, 2503940.88289999961853 ], [ 3152266.716499999165535, 2503952.761300001293421 ], [ 3152266.819700002670288, 2503953.028999999165535 ], [ 3152265.08389999717474, 2503995.554699998348951 ], [ 3152257.7212999984622, 2504027.270199999213219 ], [ 3152257.091300003230572, 2504034.373599998652935 ], [ 3152250.828900001943111, 2504058.459300000220537 ], [ 3152243.313500002026558, 2504115.440999999642372 ], [ 3152240.790799997746944, 2504143.359999999403954 ], [ 3152222.462700001895428, 2504215.070900000631809 ], [ 3152219.78320000320673, 2504230.877099998295307 ], [ 3152214.01070000231266, 2504264.022399999201298 ], [ 3152214.200900003314018, 2504286.235100001096725 ], [ 3152214.782200001180172, 2504343.285599999129772 ], [ 3152232.718599997460842, 2504385.243500001728535 ], [ 3152243.19200000166893, 2504401.349300000816584 ], [ 3152248.7483000010252, 2504410.638700000941753 ], [ 3152252.488499999046326, 2504414.48200000077486 ], [ 3152272.957699999213219, 2504428.520700000226498 ], [ 3152294.036700002849102, 2504435.457100000232458 ], [ 3152308.25280000269413, 2504436.706599999219179 ], [ 3152321.098700001835823, 2504431.460099998861551 ], [ 3152324.405199997127056, 2504427.240200001746416 ], [ 3152326.958200000226498, 2504418.51410000026226 ], [ 3152326.992600001394749, 2504415.7676 ], [ 3152326.741599999368191, 2504414.487500000745058 ], [ 3152326.811499997973442, 2504406.401000000536442 ], [ 3152325.727700002491474, 2504395.845100000500679 ], [ 3152322.851000003516674, 2504370.749499998986721 ], [ 3152321.174099996685982, 2504349.120299998670816 ], [ 3152329.58669999986887, 2504327.448100000619888 ], [ 3152355.31870000064373, 2504289.686000000685453 ], [ 3152355.23870000243187, 2504288.175900001078844 ], [ 3152383.87389999628067, 2504257.323300000280142 ], [ 3152410.815800003707409, 2504232.624099999666214 ], [ 3152436.174199998378754, 2504178.712499998509884 ], [ 3152453.316399998962879, 2504140.903499998152256 ], [ 3152467.498800002038479, 2504095.178399998694658 ], [ 3152474.8081, 2504043.766699999570847 ], [ 3152492.986599996685982, 2503978.621899999678135 ], [ 3152532.83500000089407, 2503884.530699998140335 ], [ 3152579.263300001621246, 2503827.958399999886751 ], [ 3152623.788699999451637, 2503792.202399998903275 ], [ 3152641.694799996912479, 2503768.496199999004602 ], [ 3152649.937899999320507, 2503734.206700000911951 ], [ 3152650.704300001263618, 2503683.147399999201298 ], [ 3152659.769900001585484, 2503608.392200000584126 ], [ 3152664.762800000607967, 2503532.856300000101328 ], [ 3152674.862400002777576, 2503486.340199999511242 ], [ 3152687.955700002610683, 2503448.253400001674891 ] ] ], [ [ [ 3189721.20160000026226, 2551509.452500000596046 ], [ 3189780.268100000917912, 2551491.740299999713898 ], [ 3189802.734999999403954, 2551497.124200001358986 ], [ 3189836.020900003612041, 2551506.971700001507998 ], [ 3189858.035499997437, 2551503.811799999326468 ], [ 3189881.119800001382828, 2551501.591400001198053 ], [ 3189904.039700001478195, 2551496.365899998694658 ], [ 3189918.012299999594688, 2551493.615699999034405 ], [ 3189965.558499999344349, 2551506.251899998635054 ], [ 3190000.037900000810623, 2551500.419399999082088 ], [ 3190042.474600002169609, 2551463.410599999129772 ], [ 3190099.288000002503395, 2551383.301699999719858 ], [ 3190134.744199998676777, 2551328.509199999272823 ], [ 3190181.915100000798702, 2551276.125300001353025 ], [ 3190254.646200001239777, 2551172.504099998623133 ], [ 3190321.589100003242493, 2551054.55180000141263 ], [ 3190375.410700000822544, 2550917.124499998986721 ], [ 3190423.201200000941753, 2550780.006299998611212 ], [ 3190439.04110000282526, 2550677.836500000208616 ], [ 3190458.808399997651577, 2550544.709399998188019 ], [ 3190466.453199997544289, 2550459.600299999117851 ], [ 3190453.109899997711182, 2550397.272799998521805 ], [ 3190415.862400002777576, 2550301.916299998760223 ], [ 3190373.660599999129772, 2550198.740200001746416 ], [ 3190364.784500002861023, 2550173.493500001728535 ], [ 3190337.600199997425079, 2550097.2643 ], [ 3190325.133900001645088, 2550041.950100000947714 ], [ 3190315.567900002002716, 2549994.043099999427795 ], [ 3190300.671499997377396, 2549930.796599999070168 ], [ 3190278.032200001180172, 2549873.991900000721216 ], [ 3190245.632700003683567, 2549832.827799998223782 ], [ 3190196.133699998259544, 2549792.558699999004602 ], [ 3190150.247599996626377, 2549763.695500001311302 ], [ 3190052.62389999628067, 2549699.721599999815226 ], [ 3189974.752099998295307, 2549647.319299999624491 ], [ 3189897.867799997329712, 2549603.941500000655651 ], [ 3189818.350000001490116, 2549577.851300001144409 ], [ 3189695.248099997639656, 2549537.89979999884963 ], [ 3189616.520099997520447, 2549536.471400000154972 ], [ 3189562.365699999034405, 2549532.745700001716614 ], [ 3189517.704099997878075, 2549527.013700000941753 ], [ 3189423.119199998676777, 2549502.212799999862909 ], [ 3189317.756300002336502, 2549454.275600001215935 ], [ 3189223.10360000282526, 2549408.812100000679493 ], [ 3189161.771899998188019, 2549373.698399998247623 ], [ 3189071.990099996328354, 2549344.109299998730421 ], [ 3189027.875500001013279, 2549339.351199999451637 ], [ 3188972.96339999884367, 2549330.632500000298023 ], [ 3188902.866899996995926, 2549311.106199998408556 ], [ 3188812.256300002336502, 2549265.926699999719858 ], [ 3188731.266199998557568, 2549230.83669999986887 ], [ 3188629.574199996888638, 2549166.575300000607967 ], [ 3188524.134999997913837, 2549088.385200001299381 ], [ 3188250.761600002646446, 2548893.953000001609325 ], [ 3188093.134099997580051, 2548782.197500001639128 ], [ 3187945.569499999284744, 2548689.076699998229742 ], [ 3187806.597900003194809, 2548586.926199998706579 ], [ 3187565.199199996888638, 2548425.60869999974966 ], [ 3187501.029899999499321, 2548384.59910000115633 ], [ 3187438.290399998426437, 2548341.993999999016523 ], [ 3187362.635799996554852, 2548283.935600001364946 ], [ 3187313.586199998855591, 2548223.476599998772144 ], [ 3187290.867700003087521, 2548174.746300000697374 ], [ 3187265.676899999380112, 2548136.737300001084805 ], [ 3187218.765900000929832, 2548088.264199998229742 ], [ 3187166.160199999809265, 2548037.063499998301268 ], [ 3187115.2051, 2547988.298000000417233 ], [ 3187068.769900001585484, 2547948.8827 ], [ 3187040.082299999892712, 2547911.554200001060963 ], [ 3187002.561700001358986, 2547869.149900000542402 ], [ 3186964.255800001323223, 2547830.811299998313189 ], [ 3186924.564999997615814, 2547795.074200000613928 ], [ 3186893.91780000180006, 2547768.444200001657009 ], [ 3186869.788099996745586, 2547750.540899999439716 ], [ 3186834.032799996435642, 2547732.251499999314547 ], [ 3186780.559500001370907, 2547693.202100001275539 ], [ 3186712.365699999034405, 2547652.394000001251698 ], [ 3186672.666599996387959, 2547635.823300000280142 ], [ 3186640.905500002205372, 2547626.394000001251698 ], [ 3186605.946199998259544, 2547623.174199998378754 ], [ 3186570.960900001227856, 2547629.0449 ], [ 3186544.9419, 2547642.514600001275539 ], [ 3186517.958599999547005, 2547666.618200000375509 ], [ 3186494.163000002503395, 2547703.164700001478195 ], [ 3186475.730800002813339, 2547736.397399999201298 ], [ 3186471.37950000166893, 2547778.481100000441074 ], [ 3186469.252899996936321, 2547814.8926 ], [ 3186475.35700000077486, 2547854.411699999123812 ], [ 3186487.31870000064373, 2547880.508099999278784 ], [ 3186528.806000001728535, 2547921.695999998599291 ], [ 3186558.659000001847744, 2547952.411800000816584 ], [ 3186596.17620000243187, 2548004.398400001227856 ], [ 3186630.460600003600121, 2548042.936500001698732 ], [ 3186679.045900002121925, 2548094.346500001847744 ], [ 3186705.954099997878075, 2548117.143100000917912 ], [ 3186759.16889999806881, 2548131.999600000679493 ], [ 3186790.770199999213219, 2548147.995900001376867 ], [ 3186834.439000003039837, 2548153.778000000864267 ], [ 3186867.039300002157688, 2548160.136799998581409 ], [ 3186890.354699999094009, 2548172.020399998873472 ], [ 3186917.417900003492832, 2548197.833099998533726 ], [ 3186950.659800000488758, 2548216.2652000002563 ], [ 3186984.978399999439716, 2548226.567600000649691 ], [ 3187019.1743, 2548234.356499999761581 ], [ 3187050.188900001347065, 2548239.285100001841784 ], [ 3187066.915200002491474, 2548250.516800001263618 ], [ 3187105.60809999704361, 2548267.142900001257658 ], [ 3187127.597599998116493, 2548273.050200000405312 ], [ 3187157.637599997222424, 2548259.370999999344349 ], [ 3187185.138300001621246, 2548254.914700001478195 ], [ 3187209.352600000798702, 2548255.150199998170137 ], [ 3187247.304200001060963, 2548257.702599998563528 ], [ 3187258.313400000333786, 2548265.704 ], [ 3187297.600500002503395, 2548303.474500000476837 ], [ 3187360.07209999859333, 2548369.791200000792742 ], [ 3187415.820900000631809, 2548432.922600001096725 ], [ 3187434.050399996340275, 2548453.649599999189377 ], [ 3187468.073600001633167, 2548496.7445 ], [ 3187516.168099999427795, 2548567.846400000154972 ], [ 3187533.498199999332428, 2548600.221700001507998 ], [ 3187595.869000002741814, 2548712.9243 ], [ 3187619.761500000953674, 2548755.041799999773502 ], [ 3187655.896099999547005, 2548819.202199999243021 ], [ 3187686.2346, 2548859.458999998867512 ], [ 3187740.761900000274181, 2548928.206799998879433 ], [ 3187825.002099998295307, 2549034.730399999767542 ], [ 3187938.469200000166893, 2549189.127500001341105 ], [ 3188030.123400002717972, 2549321.980500001460314 ], [ 3188122.22070000320673, 2549434.137200001627207 ], [ 3188191.167999997735023, 2549518.270300000905991 ], [ 3188271.775799997150898, 2549622.960799999535084 ], [ 3188322.684399999678135, 2549709.533300001174212 ], [ 3188382.368199996650219, 2549799.693 ], [ 3188407.445699997246265, 2549835.690900001674891 ], [ 3188481.467200003564358, 2549930.136100001633167 ], [ 3188640.022600002586842, 2550156.300299998372793 ], [ 3188777.4551, 2550383.559599999338388 ], [ 3188834.882500000298023, 2550469.295299999415874 ], [ 3188882.659299999475479, 2550534.353700000792742 ], [ 3188915.351999998092651, 2550571.461599998176098 ], [ 3188979.230700001120567, 2550684.092700000852346 ], [ 3189013.339100003242493, 2550767.515500001609325 ], [ 3189049.412500001490116, 2550849.822500001639128 ], [ 3189062.850500002503395, 2550865.755699999630451 ], [ 3189108.788400001823902, 2550944.024500001221895 ], [ 3189153.918200001120567, 2551006.701999999582767 ], [ 3189164.815800003707409, 2551012.693399999290705 ], [ 3189166.373400002717972, 2551023.193 ], [ 3189204.17400000244379, 2551090.288800001144409 ], [ 3189209.825499996542931, 2551111.678399998694658 ], [ 3189241.154500000178814, 2551209.360500000417233 ], [ 3189234.670800000429153, 2551220.28999999910593 ], [ 3189243.895099997520447, 2551261.650600001215935 ], [ 3189293.975000001490116, 2551380.539099998772144 ], [ 3189327.446699999272823, 2551461.479899998754263 ], [ 3189346.082400001585484, 2551528.565200001001358 ], [ 3189336.000399999320507, 2551605.729699999094009 ], [ 3189338.375600002706051, 2551631.819499999284744 ], [ 3189350.990299999713898, 2551641.743999999016523 ], [ 3189390.792599998414516, 2551641.1739999987185 ], [ 3189416.435000002384186, 2551639.836399998515844 ], [ 3189454.077299997210503, 2551626.778900001198053 ], [ 3189521.189900003373623, 2551599.064500000327826 ], [ 3189624.989900000393391, 2551549.771499998867512 ], [ 3189721.20160000026226, 2551509.452500000596046 ] ] ], [ [ [ 3303629.20160000026226, 2572636.2544 ], [ 3303742.410099998116493, 2572612.011999998241663 ], [ 3303814.5945999994874, 2572582.5777000002563 ], [ 3303889.275399997830391, 2572541.451699998229742 ], [ 3303900.722199998795986, 2572538.409099999815226 ], [ 3303979.701399996876717, 2572559.018800001591444 ], [ 3304053.458400003612041, 2572553.185499999672174 ], [ 3304148.109300002455711, 2572541.862300001084805 ], [ 3304280.657700002193451, 2572533.371899999678135 ], [ 3304382.2434, 2572519.230399999767542 ], [ 3304440.590700000524521, 2572495.4543999992311 ], [ 3304503.617499999701977, 2572463.905999999493361 ], [ 3304553.047200001776218, 2572454.630199998617172 ], [ 3304623.274999998509884, 2572482.182500001043081 ], [ 3304706.867600001394749, 2572538.335200000554323 ], [ 3304789.874600000679493, 2572536.609700001776218 ], [ 3304869.961900003254414, 2572525.960099998861551 ], [ 3304919.595200002193451, 2572521.208200000226498 ], [ 3304980.567500002682209, 2572499.824099998921156 ], [ 3305061.875399999320507, 2572460.41609999909997 ], [ 3305125.580899998545647, 2572455.023400001227856 ], [ 3305285.194300003349781, 2572454.885800000280142 ], [ 3305420.256700001657009, 2572446.288699999451637 ], [ 3305550.500900000333786, 2572431.362100001424551 ], [ 3305625.841399997472763, 2572415.882100000977516 ], [ 3305672.962099999189377, 2572411.243299998342991 ], [ 3305713.270499996840954, 2572411.945900000631809 ], [ 3305727.892200000584126, 2572423.376899998635054 ], [ 3305787.593500003218651, 2572429.748500000685453 ], [ 3305821.303400002419949, 2572440.325500000268221 ], [ 3305857.403899997472763, 2572448.267900001257658 ], [ 3305905.352300003170967, 2572450.6349 ], [ 3305941.4628000035882, 2572458.577100001275539 ], [ 3306105.117399998009205, 2572458.763700000941753 ], [ 3306178.438299998641014, 2572443.3871 ], [ 3306232.279700003564358, 2572431.387699998915195 ], [ 3306329.343900002539158, 2572417.456399999558926 ], [ 3306493.379699997603893, 2572415.112300001084805 ], [ 3306632.854299999773502, 2572403.804499998688698 ], [ 3306746.103000000119209, 2572391.656100001186132 ], [ 3306930.561300002038479, 2572361.711399998515844 ], [ 3307070.056800000369549, 2572350.908399999141693 ], [ 3307164.608800001442432, 2572337.091600000858307 ], [ 3307241.071800000965595, 2572290.846599999815226 ], [ 3307291.299199998378754, 2572243.276999998837709 ], [ 3307314.568800002336502, 2572178.279500000178814 ], [ 3307314.470200002193451, 2572167.136 ], [ 3307313.983300000429153, 2572109.323100000619888 ], [ 3307280.140699997544289, 2572050.926699999719858 ], [ 3307272.124099999666214, 2572040.707800000905991 ], [ 3307275.373000003397465, 2572023.447000000625849 ], [ 3307277.296099998056889, 2571987.610100001096725 ], [ 3307254.241800002753735, 2571956.41950000077486 ], [ 3307216.018399998545647, 2571923.89919999986887 ], [ 3307147.013800002634525, 2571867.580400001257658 ], [ 3307091.990900002419949, 2571830.775699999183416 ], [ 3307014.8596, 2571806.557500001043081 ], [ 3306978.678099997341633, 2571819.260600000619888 ], [ 3306979.2007, 2571819.732900001108646 ], [ 3306900.251599997282028, 2571799.616700001060963 ], [ 3306720.432099997997284, 2571764.904899999499321 ], [ 3306629.308799996972084, 2571742.825300000607967 ], [ 3306508.876299999654293, 2571707.451999999582767 ], [ 3306414.533600002527237, 2571680.981899999082088 ], [ 3306324.268100000917912, 2571666.914500001817942 ], [ 3306287.96339999884367, 2571654.447900000959635 ], [ 3306203.753899998962879, 2571629.541700001806021 ], [ 3306027.601800002157688, 2571575.531899999827147 ], [ 3305772.697999998927116, 2571461.110399998724461 ], [ 3305533.619599997997284, 2571374.185899998992682 ], [ 3305349.258400000631809, 2571294.369899999350309 ], [ 3305252.8926, 2571267.985199999064207 ], [ 3305006.27080000191927, 2571214.643100000917912 ], [ 3304871.605200000107288, 2571187.476599998772144 ], [ 3304676.963799998164177, 2571136.8224 ], [ 3304580.383500002324581, 2571105.423500001430511 ], [ 3304408.459299996495247, 2571089.498700000345707 ], [ 3304291.437700003385544, 2571085.204 ], [ 3304109.104599997401237, 2571095.433400001376867 ], [ 3303964.7212999984622, 2571109.491099998354912 ], [ 3303827.660499997437, 2571129.777800001204014 ], [ 3303740.757600001990795, 2571145.772999998182058 ], [ 3303637.072599999606609, 2571169.086300000548363 ], [ 3303486.601400002837181, 2571204.571600001305342 ], [ 3303321.871100001037121, 2571247.746399998664856 ], [ 3303090.725100003182888, 2571336.731100000441074 ], [ 3302959.828400000929832, 2571437.807399999350309 ], [ 3302830.28830000013113, 2571569.029500000178814 ], [ 3302800.114500001072884, 2571636.860100001096725 ], [ 3302730.993100002408028, 2571790.037000000476837 ], [ 3302687.697800002992153, 2571946.5746 ], [ 3302667.80629999935627, 2572074.87049999833107 ], [ 3302668.561599999666214, 2572203.243099998682737 ], [ 3302673.814000003039837, 2572275.010200001299381 ], [ 3302686.156499996781349, 2572336.388900000602007 ], [ 3302718.218900002539158, 2572410.973499998450279 ], [ 3302757.001000002026558, 2572478.205699998885393 ], [ 3302811.753300003707409, 2572542.2010000012815 ], [ 3302892.826099999248981, 2572597.967300001531839 ], [ 3302948.258900001645088, 2572610.065000001341105 ], [ 3303063.393299996852875, 2572628.538699999451637 ], [ 3303139.79169999808073, 2572636.673500001430511 ], [ 3303277.476999998092651, 2572630.467199999839067 ], [ 3303335.031999997794628, 2572644.9868 ], [ 3303446.89919999986887, 2572646.989500001072884 ], [ 3303629.20160000026226, 2572636.2544 ] ] ], [ [ [ 3178827.814800001680851, 2574726.394900001585484 ], [ 3178641.268700003623962, 2574683.283900000154972 ], [ 3178522.546599999070168, 2574689.582600001245737 ], [ 3178503.005500003695488, 2574722.126800000667572 ], [ 3178524.638400003314018, 2574782.589200001209974 ], [ 3178565.174099996685982, 2574852.068199999630451 ], [ 3178672.505500003695488, 2574978.1754 ], [ 3178768.343400001525879, 2575074.812100000679493 ], [ 3178869.221799999475479, 2575159.713500000536442 ], [ 3178960.609300002455711, 2575199.279399998486042 ], [ 3179046.369599997997284, 2575186.138900000602007 ], [ 3179127.336099997162819, 2575135.99549999833107 ], [ 3179170.865699999034405, 2575074.953499998897314 ], [ 3179194.086099997162819, 2575004.957899998873472 ], [ 3179169.102300003170967, 2574934.653499998152256 ], [ 3179075.635899998247623, 2574829.295499999076128 ], [ 3178827.814800001680851, 2574726.394900001585484 ] ] ], [ [ [ 3138866.874600000679493, 2580635.543699998408556 ], [ 3138854.711599998176098, 2580616.07149999961257 ], [ 3138834.859099999070168, 2580576.376299999654293 ], [ 3138823.241599999368191, 2580530.674100000411272 ], [ 3138830.686700001358986, 2580501.538199998438358 ], [ 3138838.469300001859665, 2580487.501600001007318 ], [ 3138854.145099997520447, 2580470.502900000661612 ], [ 3138873.3108000010252, 2580452.809099998325109 ], [ 3138884.606600001454353, 2580438.579599998891354 ], [ 3138890.155500002205372, 2580420.64130000025034 ], [ 3138880.39580000191927, 2580408.081700000911951 ], [ 3138868.835400000214577, 2580399.660999998450279 ], [ 3138846.380199998617172, 2580394.361699998378754 ], [ 3138840.065200001001358, 2580394.0304000005126 ], [ 3138838.279899999499321, 2580393.942099999636412 ], [ 3138827.677699998021126, 2580393.386799998581409 ], [ 3138797.911100000143051, 2580392.5320999994874 ], [ 3138768.213899999856949, 2580393.173700001090765 ], [ 3138741.594899997115135, 2580394.658900000154972 ], [ 3138703.878100000321865, 2580395.752700001001358 ], [ 3138664.507100000977516, 2580403.4945 ], [ 3138605.236400000751019, 2580406.795000001788139 ], [ 3138559.091499999165535, 2580410.382800001651049 ], [ 3138484.837099999189377, 2580406.961399998515844 ], [ 3138457.327600002288818, 2580410.510800000280142 ], [ 3138437.855999998748302, 2580422.684300001710653 ], [ 3138427.530799999833107, 2580436.355799999088049 ], [ 3138419.164599999785423, 2580457.987100001424551 ], [ 3138433.011200003325939, 2580489.457100000232458 ], [ 3138460.476899996399879, 2580512.104299999773502 ], [ 3138499.938500002026558, 2580542.145399998873472 ], [ 3138546.0945999994874, 2580574.844999998807907 ], [ 3138604.054799996316433, 2580602.338199999183416 ], [ 3138636.814599998295307, 2580620.664599999785423 ], [ 3138698.372699998319149, 2580631.33669999986887 ], [ 3138722.675399996340275, 2580633.511100001633167 ], [ 3138747.230200000107288, 2580631.135400000959635 ], [ 3138778.981100000441074, 2580631.3849 ], [ 3138805.208499997854233, 2580640.997499998658895 ], [ 3138825.61710000038147, 2580654.47239999845624 ], [ 3138849.439000003039837, 2580666.249400001019239 ], [ 3138867.273599997162819, 2580669.7804000005126 ], [ 3138875.954199999570847, 2580662.746500000357628 ], [ 3138875.558200001716614, 2580655.720600001513958 ], [ 3138866.874600000679493, 2580635.543699998408556 ] ] ], [ [ [ 3143163.170500002801418, 2587480.898899998515844 ], [ 3143188.278399996459484, 2587479.498799998313189 ], [ 3143232.80179999768734, 2587483.068300001323223 ], [ 3143297.349299997091293, 2587484.516600001603365 ], [ 3143335.935099996626377, 2587480.854800000786781 ], [ 3143366.978699997067451, 2587468.546500001102686 ], [ 3143393.026600003242493, 2587438.892200000584126 ], [ 3143400.898400001227856, 2587408.235399998724461 ], [ 3143400.833400003612041, 2587361.907499998807907 ], [ 3143384.760600000619888, 2587290.270199999213219 ], [ 3143366.878700003027916, 2587231.322700001299381 ], [ 3143328.994099996984005, 2587156.8684 ], [ 3143253.774599999189377, 2587027.080200001597404 ], [ 3143166.340499997138977, 2586876.807599999010563 ], [ 3143094.917499996721745, 2586742.768800001591444 ], [ 3143029.763700000941753, 2586612.907400000840425 ], [ 3142946.3706, 2586471.985100001096725 ], [ 3142892.360299997031689, 2586397.418699998408556 ], [ 3142821.885600000619888, 2586298.579799998551607 ], [ 3142764.745200000703335, 2586213.110399998724461 ], [ 3142673.34179999679327, 2586054.999899998307228 ], [ 3142606.77080000191927, 2585944.862300001084805 ], [ 3142518.244499996304512, 2585820.334199998527765 ], [ 3142411.883900001645088, 2585674.142000000923872 ], [ 3142283.427799999713898, 2585492.899300001561642 ], [ 3142191.737999998033047, 2585375.096999999135733 ], [ 3142116.017899997532368, 2585263.449099998921156 ], [ 3142023.941600002348423, 2585138.621199999004602 ], [ 3141973.012699998915195, 2585074.4560999982059 ], [ 3141913.916400000452995, 2584990.102000001817942 ], [ 3141828.008500002324581, 2584885.575199998915195 ], [ 3141763.836499996483326, 2584800.489500001072884 ], [ 3141682.939000003039837, 2584686.614999998360872 ], [ 3141605.124899998307228, 2584582.649700000882149 ], [ 3141541.556400001049042, 2584499.548300001770258 ], [ 3141474.251999996602535, 2584403.5489999987185 ], [ 3141416.721199996769428, 2584329.183899998664856 ], [ 3141319.161499999463558, 2584187.52309999987483 ], [ 3141213.880699999630451, 2584015.55970000103116 ], [ 3141140.515799999237061, 2583901.2654 ], [ 3141077.898100003600121, 2583798.971099998801947 ], [ 3141029.842600002884865, 2583723.060499999672174 ], [ 3140979.613399997353554, 2583635.185699999332428 ], [ 3140894.917099997401237, 2583507.418099999427795 ], [ 3140843.686899997293949, 2583437.731600001454353 ], [ 3140762.445000000298023, 2583281.558899998664856 ], [ 3140693.708400003612041, 2583159.945099998265505 ], [ 3140666.446099996566772, 2583122.677400000393391 ], [ 3140603.409299999475479, 2583030.976700000464916 ], [ 3140547.700000002980232, 2582926.278400000184774 ], [ 3140500.428999997675419, 2582846.295299999415874 ], [ 3140438.417099997401237, 2582727.840900000184774 ], [ 3140397.858199998736382, 2582632.875700000673532 ], [ 3140373.218699999153614, 2582561.193 ], [ 3140332.103799998760223, 2582456.180500000715256 ], [ 3140295.871899999678135, 2582375.585099998861551 ], [ 3140257.918999999761581, 2582318.253600001335144 ], [ 3140216.969700001180172, 2582225.31810000166297 ], [ 3140159.139600001275539, 2582109.6570999994874 ], [ 3140071.879699997603893, 2582008.218199998140335 ], [ 3139988.30179999768734, 2581909.597500000149012 ], [ 3139923.748599998652935, 2581836.118500001728535 ], [ 3139857.416799999773502, 2581757.700500000268221 ], [ 3139801.913199998438358, 2581692.778599999845028 ], [ 3139766.518500000238419, 2581654.447599999606609 ], [ 3139716.007200002670288, 2581597.817800000309944 ], [ 3139655.567199997603893, 2581525.617499999701977 ], [ 3139618.975500002503395, 2581483.829999998211861 ], [ 3139549.929700002074242, 2581402.035700000822544 ], [ 3139474.61150000244379, 2581316.053800001740456 ], [ 3139421.247599996626377, 2581262.605200000107288 ], [ 3139374.417700000107288, 2581208.793600000441074 ], [ 3139350.136200003325939, 2581179.910300001502037 ], [ 3139301.774800002574921, 2581134.753400001674891 ], [ 3139195.595200002193451, 2581046.457699999213219 ], [ 3139141.620300002396107, 2581009.168600000441074 ], [ 3139104.092299997806549, 2580995.6415 ], [ 3139059.608300000429153, 2580984.0165 ], [ 3139037.572700001299381, 2580986.244899999350309 ], [ 3139032.5878000035882, 2581023.306699998676777 ], [ 3139105.542400002479553, 2581121.000300001353025 ], [ 3139132.104299999773502, 2581154.789099998772144 ], [ 3139155.049900002777576, 2581186.763099998235703 ], [ 3139201.076800003647804, 2581253.210400000214577 ], [ 3139388.363200001418591, 2581467.963599998503923 ], [ 3139504.097000002861023, 2581619.2027000002563 ], [ 3139604.821199998259544, 2581736.00730000063777 ], [ 3139689.680100001394749, 2581830.522700000554323 ], [ 3139809.970200002193451, 2581982.0033 ], [ 3139907.169299997389317, 2582099.011100001633167 ], [ 3139987.535499997437, 2582185.211300000548363 ], [ 3140101.368199996650219, 2582338.5603 ], [ 3140182.05179999768734, 2582484.698800001293421 ], [ 3140279.149300001561642, 2582645.030200000852346 ], [ 3140318.554300002753735, 2582719.400299999862909 ], [ 3140428.709499999880791, 2582933.413800001144409 ], [ 3140500.884300000965595, 2583071.451499998569489 ], [ 3140583.910999998450279, 2583277.903799999505281 ], [ 3140668.473499998450279, 2583430.360300000756979 ], [ 3140733.805500000715256, 2583536.030799999833107 ], [ 3140827.621699996292591, 2583673.870799999684095 ], [ 3140862.142099998891354, 2583723.842999998480082 ], [ 3140937.542300000786781, 2583856.657900001853704 ], [ 3141011.496500000357628, 2583981.499800000339746 ], [ 3141077.301100000739098, 2584095.710400000214577 ], [ 3141141.533100001513958, 2584208.997299998998642 ], [ 3141211.324299998581409, 2584331.545499999076128 ], [ 3141250.282499998807907, 2584425.091600000858307 ], [ 3141285.896999999880791, 2584521.840799998492002 ], [ 3141319.785899996757507, 2584650.91780000180006 ], [ 3141374.905900001525879, 2584835.741500001400709 ], [ 3141426.948700003325939, 2584965.326400000602007 ], [ 3141492.638300001621246, 2585122.855500001460314 ], [ 3141537.322200000286102, 2585255.868500001728535 ], [ 3141576.845299996435642, 2585377.588899999856949 ], [ 3141609.581600002944469, 2585504.21059999987483 ], [ 3141623.085699997842312, 2585547.787000000476837 ], [ 3141646.171999998390675, 2585654.801399998366833 ], [ 3141647.45380000025034, 2585658.807 ], [ 3141649.501500003039837, 2585665.232200000435114 ], [ 3141678.519400000572205, 2585756.256000000983477 ], [ 3141698.107699997723103, 2585809.572200000286102 ], [ 3141753.024400003254414, 2585927.399999998509884 ], [ 3141784.777099996805191, 2586009.251499999314547 ], [ 3141805.460799999535084, 2586082.146499998867512 ], [ 3141862.892300002276897, 2586281.434599999338388 ], [ 3141878.910800002515316, 2586333.938999999314547 ], [ 3141908.106600001454353, 2586414.91160000115633 ], [ 3141977.604999996721745, 2586559.641699999570847 ], [ 3142032.103000000119209, 2586688.070900000631809 ], [ 3142061.71169999986887, 2586740.319200001657009 ], [ 3142106.987800002098083, 2586793.705200001597404 ], [ 3142181.00620000064373, 2586874.709499999880791 ], [ 3142230.971000000834465, 2586921.791900001466274 ], [ 3142266.405500002205372, 2586952.0592 ], [ 3142362.522799998521805, 2587049.961899999529123 ], [ 3142414.772399999201298, 2587111.024399999529123 ], [ 3142474.813199996948242, 2587185.249099999666214 ], [ 3142604.964500002563, 2587306.451299998909235 ], [ 3142653.445500001311302, 2587354.115499999374151 ], [ 3142767.637599997222424, 2587487.282699998468161 ], [ 3142801.4485, 2587524.687899999320507 ], [ 3142811.635799996554852, 2587535.70719999819994 ], [ 3142829.901399999856949, 2587538.214400000870228 ], [ 3142866.05799999833107, 2587536.203400000929832 ], [ 3142914.035199999809265, 2587520.436799999326468 ], [ 3142965.089800000190735, 2587505.5143 ], [ 3143016.692299999296665, 2587491.562600001692772 ], [ 3143052.566799998283386, 2587484.524300001561642 ], [ 3143084.197999998927116, 2587482.772700000554323 ], [ 3143114.323399998247623, 2587481.090599998831749 ], [ 3143163.170500002801418, 2587480.898899998515844 ] ] ], [ [ [ 3152863.787900000810623, 2594523.184599999338388 ], [ 3152899.899300001561642, 2594502.087999999523163 ], [ 3152947.358199998736382, 2594504.532900001853704 ], [ 3153008.103399999439716, 2594501.229800000786781 ], [ 3153057.545999996364117, 2594503.061000000685453 ], [ 3153082.905599996447563, 2594497.152699999511242 ], [ 3153206.904200002551079, 2594490.402100000530481 ], [ 3153248.271300002932549, 2594484.797400001436472 ], [ 3153293.375200003385544, 2594478.639699999243021 ], [ 3153345.191600002348423, 2594477.8279 ], [ 3153365.50900000333786, 2594462.624800000339746 ], [ 3153369.158500000834465, 2594446.313299998641014 ], [ 3153347.415600001811981, 2594435.418499998748302 ], [ 3153315.055100001394749, 2594442.210200000554323 ], [ 3153251.913500003516674, 2594447.66440000012517 ], [ 3153243.737999998033047, 2594449.25560000166297 ], [ 3153182.143399998545647, 2594461.03660000115633 ], [ 3153131.617899999022484, 2594457.745900001376867 ], [ 3153106.1233000010252, 2594461.145599998533726 ], [ 3153081.051700003445148, 2594463.017200000584126 ], [ 3153051.790899999439716, 2594443.464000001549721 ], [ 3153014.48480000346899, 2594405.710299998521805 ], [ 3152959.451700001955032, 2594338.219099998474121 ], [ 3152927.371500000357628, 2594266.961300000548363 ], [ 3152920.785300001502037, 2594192.293400000780821 ], [ 3152952.421899996697903, 2594079.794100001454353 ], [ 3152972.277999997138977, 2593972.973900001496077 ], [ 3152991.148500002920628, 2593884.837699998170137 ], [ 3153009.405199997127056, 2593794.717599999159575 ], [ 3153038.460100002586842, 2593718.10530000180006 ], [ 3153102.927599996328354, 2593653.673300001770258 ], [ 3153169.521799996495247, 2593582.072200000286102 ], [ 3153206.614500001072884, 2593532.714200001209974 ], [ 3153231.799199998378754, 2593477.463199999183416 ], [ 3153232.151000000536442, 2593437.672899998724461 ], [ 3153207.269000001251698, 2593415.353399999439716 ], [ 3153162.339900001883507, 2593413.275299999862909 ], [ 3153126.300700001418591, 2593398.618599999696016 ], [ 3153080.344700001180172, 2593368.3915 ], [ 3152996.842200003564358, 2593342.226799998432398 ], [ 3152934.446699999272823, 2593324.471400000154972 ], [ 3152873.0371999964118, 2593315.734499998390675 ], [ 3152812.177699998021126, 2593317.031700000166893 ], [ 3152744.152099996805191, 2593325.276200000196695 ], [ 3152654.293099999427795, 2593348.79450000077486 ], [ 3152580.268100000917912, 2593376.496899999678135 ], [ 3152499.091700002551079, 2593393.009199999272823 ], [ 3152452.649400003254414, 2593400.064800001680851 ], [ 3152409.113799996674061, 2593423.585099998861551 ], [ 3152377.876500003039837, 2593450.968299999833107 ], [ 3152361.240199998021126, 2593496.69480000063777 ], [ 3152354.074500001966953, 2593541.866700001060963 ], [ 3152352.613399997353554, 2593551.037200000137091 ], [ 3152374.636500000953674, 2593613.280699998140335 ], [ 3152411.489100001752377, 2593679.753899998962879 ], [ 3152436.762000001966953, 2593755.418099999427795 ], [ 3152465.850100003182888, 2593864.102299999445677 ], [ 3152505.338299997150898, 2593942.012200001627207 ], [ 3152530.475599996745586, 2594015.167300000786781 ], [ 3152563.815800003707409, 2594109.523200001567602 ], [ 3152581.9419, 2594183.562300000339746 ], [ 3152603.279500000178814, 2594316.329 ], [ 3152636.7544, 2594413.2027000002563 ], [ 3152672.872100003063679, 2594512.439599998295307 ], [ 3152706.944300003349781, 2594574.02930000051856 ], [ 3152738.593699999153614, 2594600.493700001388788 ], [ 3152764.200000002980232, 2594599.100299999117851 ], [ 3152816.749300003051758, 2594565.522700000554323 ], [ 3152863.787900000810623, 2594523.184599999338388 ] ] ], [ [ [ 3156910.38629999756813, 2594724.980200000107288 ], [ 3156837.295400001108646, 2594677.085200000554323 ], [ 3156755.2466000020504, 2594603.50620000064373 ], [ 3156671.223099999129772, 2594530.530299998819828 ], [ 3156531.413099996745586, 2594422.319200001657009 ], [ 3156433.084200002253056, 2594345.590799998492002 ], [ 3156337.733400002121925, 2594277.256799999624491 ], [ 3156269.361000001430511, 2594242.204 ], [ 3156140.765000000596046, 2594173.668200001120567 ], [ 3156015.472599998116493, 2594119.557599999010563 ], [ 3155920.40429999679327, 2594065.817499998956919 ], [ 3155854.972300000488758, 2594029.092199999839067 ], [ 3155791.571599997580051, 2594030.016199998557568 ], [ 3155758.819899998605251, 2594038.845100000500679 ], [ 3155753.354500003159046, 2594067.843699999153614 ], [ 3155757.500399999320507, 2594097.831700000911951 ], [ 3155757.414800003170967, 2594142.648899998515844 ], [ 3155751.579899996519089, 2594201.881700001657009 ], [ 3155756.782399997115135, 2594260.509700000286102 ], [ 3155771.906999997794628, 2594316.582100000232458 ], [ 3155773.823600001633167, 2594351.7212999984622 ], [ 3155776.874600000679493, 2594407.952599998563528 ], [ 3155784.595499999821186, 2594466.445099998265505 ], [ 3155817.18469999730587, 2594547.239100001752377 ], [ 3155863.0591000020504, 2594613.223099999129772 ], [ 3155910.285300001502037, 2594657.488499999046326 ], [ 3155976.608599998056889, 2594701.213799998164177 ], [ 3156005.876299999654293, 2594711.706599999219179 ], [ 3156050.803900003433228, 2594713.789500001817942 ], [ 3156113.268700003623962, 2594714.42790000140667 ], [ 3156169.735399998724461, 2594715.883499998599291 ], [ 3156169.322800002992153, 2594717.42119999974966 ], [ 3156239.735500000417233, 2594716.107799999415874 ], [ 3156343.402699999511242, 2594715.0066 ], [ 3156433.959600001573563, 2594713.609000001102686 ], [ 3156497.939499996602535, 2594717.6897 ], [ 3156579.358199998736382, 2594720.8136 ], [ 3156695.461499996483326, 2594735.652800001204014 ], [ 3156856.906300000846386, 2594760.10190000012517 ], [ 3156939.269799999892712, 2594802.45380000025034 ], [ 3157011.21679999679327, 2594829.25730000063777 ], [ 3157056.195699997246265, 2594850.984400000423193 ], [ 3157081.802500002086163, 2594849.594900000840425 ], [ 3157090.326700001955032, 2594830.506499998271465 ], [ 3157085.632299996912479, 2594826.606600001454353 ], [ 3157060.798699997365475, 2594805.921799998730421 ], [ 3157002.5515, 2594771.834100000560284 ], [ 3156910.38629999756813, 2594724.980200000107288 ] ] ], [ [ [ 3157760.948700003325939, 2594857.5165 ], [ 3157714.869000002741814, 2594843.402699999511242 ], [ 3157679.098200000822544, 2594815.138799998909235 ], [ 3157636.125399999320507, 2594784.23589999973774 ], [ 3157609.427100002765656, 2594746.917700000107288 ], [ 3157589.521099999547005, 2594723.331900000572205 ], [ 3157563.477099999785423, 2594716.683800000697374 ], [ 3157537.513099998235703, 2594720.614 ], [ 3157507.962200000882149, 2594732.795200001448393 ], [ 3157488.836000002920628, 2594751.4518 ], [ 3157484.8783999979496, 2594752.678399998694658 ], [ 3157485.380300000309944, 2594752.655499998480082 ], [ 3157463.829000003635883, 2594791.580699998885393 ], [ 3157446.078299999237061, 2594826.278799999505281 ], [ 3157448.034400001168251, 2594843.802799999713898 ], [ 3157464.869800001382828, 2594847.923599999397993 ], [ 3157514.178199999034405, 2594847.253899998962879 ], [ 3157539.919699996709824, 2594848.373399998992682 ], [ 3157563.844899997115135, 2594853.116399999707937 ], [ 3157589.878300003707409, 2594859.754999998956919 ], [ 3157614.676899999380112, 2594880.562600001692772 ], [ 3157665.912799999117851, 2594915.544599998742342 ], [ 3157725.163000002503395, 2594949.587900001555681 ], [ 3157757.450099997222424, 2594959.914700001478195 ], [ 3157797.839100003242493, 2594952.691500000655651 ], [ 3157810.210500001907349, 2594939.4331 ], [ 3157810.363399997353554, 2594923.814800001680851 ], [ 3157789.965000003576279, 2594891.188400000333786 ], [ 3157778.200199998915195, 2594870.540800001472235 ], [ 3157775.499300003051758, 2594865.795400001108646 ], [ 3157760.948700003325939, 2594857.5165 ] ] ], [ [ [ 3157963.651000000536442, 2595206.0077 ], [ 3157956.720100000500679, 2595171.138000000268221 ], [ 3157942.073600001633167, 2595133.169799998402596 ], [ 3157934.761500000953674, 2595091.266100000590086 ], [ 3157924.574400000274181, 2595052.04839999973774 ], [ 3157906.015500001609325, 2595016.3004 ], [ 3157881.538400001823902, 2594991.9474 ], [ 3157861.636399999260902, 2594977.927400000393391 ], [ 3157859.810400001704693, 2594978.030799999833107 ], [ 3157844.066799998283386, 2594978.8794 ], [ 3157834.292599998414516, 2594993.508000001311302 ], [ 3157838.055100001394749, 2595016.461800001561642 ], [ 3157852.711499996483326, 2595045.3766999989748 ], [ 3157852.5493, 2595070.058400001376867 ], [ 3157839.555200003087521, 2595090.39640000090003 ], [ 3157825.009700000286102, 2595100.756299998611212 ], [ 3157813.706699997186661, 2595105.898699998855591 ], [ 3157810.194799996912479, 2595106.089000001549721 ], [ 3157780.899499997496605, 2595113.721599999815226 ], [ 3157755.061099998652935, 2595129.223499998450279 ], [ 3157740.259900003671646, 2595144.121599998325109 ], [ 3157748.872900001704693, 2595172.859099999070168 ], [ 3157758.498499996960163, 2595192.47749999910593 ], [ 3157773.127099998295307, 2595202.251499999314547 ], [ 3157792.136799998581409, 2595209.280900001525879 ], [ 3157818.811899997293949, 2595199.776200000196695 ], [ 3157851.051299996674061, 2595190.973400000482798 ], [ 3157882.487800002098083, 2595185.7379 ], [ 3157900.113200001418591, 2595185.789299998432398 ], [ 3157917.632799997925758, 2595200.06870000064373 ], [ 3157928.557599999010563, 2595208.915199998766184 ], [ 3157928.664399996399879, 2595209.051199998706579 ], [ 3157928.770999997854233, 2595209.187399998307228 ], [ 3157937.221900001168251, 2595220.027499999850988 ], [ 3157955.873499996960163, 2595220.524999998509884 ], [ 3157963.651000000536442, 2595206.0077 ] ] ], [ [ [ 3158018.698299996554852, 2595338.959699999541044 ], [ 3157984.112700000405312, 2595323.215199999511242 ], [ 3157940.379299998283386, 2595324.585299998521805 ], [ 3157916.928300000727177, 2595346.999200001358986 ], [ 3157911.0515, 2595387.099700000137091 ], [ 3157916.801899999380112, 2595428.068300001323223 ], [ 3157924.508000001311302, 2595486.560400001704693 ], [ 3157925.0320999994874, 2595533.359700001776218 ], [ 3157917.403599999845028, 2595569.0135000012815 ], [ 3157908.925200000405312, 2595589.114999998360872 ], [ 3157898.797399997711182, 2595615.839899998158216 ], [ 3157897.794100001454353, 2595615.895700000226498 ], [ 3157897.867799997329712, 2595645.092500001192093 ], [ 3157911.0608000010252, 2595665.523699998855591 ], [ 3157927.315600000321865, 2595668.172400001436472 ], [ 3157943.444700002670288, 2595659.23930000141263 ], [ 3157960.549999997019768, 2595631.120099999010563 ], [ 3157986.616400003433228, 2595591.94029999896884 ], [ 3158020.04169999808073, 2595558.40989999845624 ], [ 3158040.529600001871586, 2595499.899999998509884 ], [ 3158051.5581, 2595462.039200000464916 ], [ 3158047.197499997913837, 2595409.409600000828505 ], [ 3158040.197400003671646, 2595363.971500001847744 ], [ 3158037.818099997937679, 2595361.203099999576807 ], [ 3158018.698299996554852, 2595338.959699999541044 ] ] ], [ [ [ 3201178.060199998319149, 2610593.906100001186132 ], [ 3201159.143200002610683, 2610578.289099998772144 ], [ 3201124.032300002872944, 2610590.18129999935627 ], [ 3201092.96339999884367, 2610621.482500001788139 ], [ 3201055.098499998450279, 2610686.836899999529123 ], [ 3201016.186899997293949, 2610751.251899998635054 ], [ 3200954.278499998152256, 2610818.368599999696016 ], [ 3200893.941600002348423, 2610886.914200000464916 ], [ 3200882.214199997484684, 2610941.866999998688698 ], [ 3200839.30629999935627, 2611064.845199998468161 ], [ 3200808.672499999403954, 2611230.457100000232458 ], [ 3200809.779399998486042, 2611280.71169999986887 ], [ 3200817.089800000190735, 2611334.161800000816584 ], [ 3200819.626599997282028, 2611469.8673 ], [ 3200831.983000002801418, 2611552.745700001716614 ], [ 3200871.077299997210503, 2611704.6570999994874 ], [ 3200931.316200003027916, 2611827.806200001388788 ], [ 3201031.157999999821186, 2612015.801699999719858 ], [ 3201067.339199997484684, 2612082.850099999457598 ], [ 3201167.969300001859665, 2612228.038899999111891 ], [ 3201274.445799998939037, 2612350.287599999457598 ], [ 3201352.438500002026558, 2612418.179999999701977 ], [ 3201472.612700000405312, 2612503.992800001055002 ], [ 3201603.3733000010252, 2612590.265099998563528 ], [ 3201719.41669999808073, 2612654.663899999111891 ], [ 3201802.994099996984005, 2612694.591899998486042 ], [ 3201885.034400001168251, 2612734.095100000500679 ], [ 3201998.328000001609325, 2612803.662900000810623 ], [ 3202126.249700002372265, 2612903.172400001436472 ], [ 3202197.872900001704693, 2612964.851100001484156 ], [ 3202290.996299996972084, 2613023.895399998873472 ], [ 3202381.441100001335144, 2613060.446199998259544 ], [ 3202438.713200002908707, 2613068.545000001788139 ], [ 3202492.999700002372265, 2613067.736600000411272 ], [ 3202584.138400003314018, 2613059.476700000464916 ], [ 3202689.062200002372265, 2613035.912099998444319 ], [ 3202722.765100002288818, 2613026.115800000727177 ], [ 3202777.119800001382828, 2613007.1875 ], [ 3202814.708999998867512, 2612975.553899999707937 ], [ 3202850.037399999797344, 2612900.264199998229742 ], [ 3202866.38120000064373, 2612837.039299998432398 ], [ 3202855.303199999034405, 2612778.749699998646975 ], [ 3202819.912000000476837, 2612659.343600001186132 ], [ 3202751.776799999177456, 2612480.769499998539686 ], [ 3202694.817199997603893, 2612362.481499999761581 ], [ 3202646.16330000013113, 2612258.859200000762939 ], [ 3202581.056999996304512, 2612080.622600000351667 ], [ 3202447.4441, 2611832.995400000363588 ], [ 3202346.739699997007847, 2611695.846700001507998 ], [ 3202192.105200000107288, 2611489.058899998664856 ], [ 3201992.579999998211861, 2611270.510899998247623 ], [ 3201926.968999996781349, 2611218.07660000026226 ], [ 3201687.966099999845028, 2611024.230799999088049 ], [ 3201382.12219999730587, 2610802.660799998790026 ], [ 3201259.192800000309944, 2610712.450599998235703 ], [ 3201202.455600000917912, 2610656.539700001478195 ], [ 3201178.060199998319149, 2610593.906100001186132 ] ] ], [ [ [ 3206157.329899996519089, 2618004.614199999719858 ], [ 3206130.359899997711182, 2617998.437699999660254 ], [ 3206116.307800002396107, 2617999.153999999165535 ], [ 3206118.3766999989748, 2618010.120999999344349 ], [ 3206128.084100000560284, 2618032.755899999290705 ], [ 3206168.508199997246265, 2618075.959100000560284 ], [ 3206196.418600000441074, 2618110.251299999654293 ], [ 3206215.564999997615814, 2618140.454100001603365 ], [ 3206231.429399996995926, 2618175.364599999040365 ], [ 3206250.1300999969244, 2618246.329199999570847 ], [ 3206260.418399997055531, 2618300.120900001376867 ], [ 3206266.875699996948242, 2618327.964499998837709 ], [ 3206317.548699997365475, 2618532.600600000470877 ], [ 3206323.720200002193451, 2618614.266100000590086 ], [ 3206324.238600000739098, 2618673.59180000051856 ], [ 3206321.729299999773502, 2618723.00789999961853 ], [ 3206320.829199999570847, 2618833.7018 ], [ 3206337.460699997842312, 2618932.941799998283386 ], [ 3206351.598200000822544, 2619022.751200001686811 ], [ 3206378.004100002348423, 2619136.077599998563528 ], [ 3206401.924500003457069, 2619210.802099999040365 ], [ 3206440.549599997699261, 2619327.030299998819828 ], [ 3206489.031199999153614, 2619478.963199999183416 ], [ 3206519.7804000005126, 2619568.928100001066923 ], [ 3206557.58049999922514, 2619669.098200000822544 ], [ 3206605.217399999499321, 2619755.186700001358986 ], [ 3206645.301899999380112, 2619831.101700000464916 ], [ 3206696.233400002121925, 2619942.165199998766184 ], [ 3206744.692800000309944, 2620044.30009999871254 ], [ 3206793.187899999320507, 2620137.386599998921156 ], [ 3206844.679499998688698, 2620229.818999998271465 ], [ 3206873.299999997019768, 2620288.202500000596046 ], [ 3206899.691699996590614, 2620361.801100000739098 ], [ 3206920.700199998915195, 2620428.619300000369549 ], [ 3206940.088500000536442, 2620483.456399999558926 ], [ 3206967.482600003480911, 2620557.000799998641014 ], [ 3207001.810599997639656, 2620628.67339999973774 ], [ 3207025.895499996840954, 2620686.792399998754263 ], [ 3207059.162799999117851, 2620767.075100000947714 ], [ 3207097.79169999808073, 2620854.11879999935627 ], [ 3207134.039399996399879, 2620953.358399998396635 ], [ 3207173.513300001621246, 2621056.959499999880791 ], [ 3207235.542400002479553, 2621188.581399999558926 ], [ 3207271.537100002169609, 2621292.856899999082088 ], [ 3207297.764399997889996, 2621363.4353 ], [ 3207351.191600002348423, 2621493.985300000756979 ], [ 3207414.009700000286102, 2621641.150600001215935 ], [ 3207451.513599999248981, 2621725.738800000399351 ], [ 3207463.675899997353554, 2621766.85869999974966 ], [ 3207473.440700002014637, 2621810.616399999707937 ], [ 3207480.991700001060963, 2621889.690200001001358 ], [ 3207497.524899996817112, 2621967.305300001055002 ], [ 3207533.242200002074242, 2622046.452799998223782 ], [ 3207573.713899999856949, 2622120.326400000602007 ], [ 3207611.6963, 2622204.390000000596046 ], [ 3207638.938400000333786, 2622265.35359999909997 ], [ 3207656.494000002741814, 2622313.745099999010563 ], [ 3207676.811200000345707, 2622416.300999999046326 ], [ 3207705.461300000548363, 2622504.8629 ], [ 3207764.887000001966953, 2622644.654599998146296 ], [ 3207820.626000002026558, 2622791.170299999415874 ], [ 3207857.994499996304512, 2622912.477400001138449 ], [ 3207905.395099997520447, 2623023.716699998825788 ], [ 3207924.021600000560284, 2623093.166799999773502 ], [ 3207948.842000000178814, 2623185.432399999350309 ], [ 3207990.052100002765656, 2623323.133699998259544 ], [ 3208045.319200001657009, 2623470.1798 ], [ 3208084.72070000320673, 2623601.938700001686811 ], [ 3208130.434399999678135, 2623729.350600000470877 ], [ 3208171.703699998557568, 2623878.102600000798702 ], [ 3208210.388700000941753, 2623966.151799999177456 ], [ 3208229.359999999403954, 2624012.951299998909235 ], [ 3208247.278099998831749, 2624078.420299999415874 ], [ 3208272.348600000143051, 2624165.647100001573563 ], [ 3208293.350299999117851, 2624232.458399999886751 ], [ 3208322.468199998140335, 2624310.432399999350309 ], [ 3208354.547799997031689, 2624397.301899999380112 ], [ 3208375.877099998295307, 2624460.580800000578165 ], [ 3208401.953699998557568, 2624538.19480000063777 ], [ 3208457.53999999910593, 2624632.418099999427795 ], [ 3208489.094800002872944, 2624689.13910000026226 ], [ 3208547.984899997711182, 2624808.83559999987483 ], [ 3208601.095299996435642, 2624903.6891999989748 ], [ 3208696.902099996805191, 2625076.816100001335144 ], [ 3208734.465300001204014, 2625152.841499999165535 ], [ 3208787.018899999558926, 2625246.713700000196695 ], [ 3208843.294600002467632, 2625384.140599999576807 ], [ 3208895.749300003051758, 2625475.9967 ], [ 3208923.577299997210503, 2625528.889699999243021 ], [ 3208960.320000000298023, 2625608.477600000798702 ], [ 3209012.88629999756813, 2625722.458200000226498 ], [ 3209072.540299996733665, 2625827.536200001835823 ], [ 3209129.072499997913837, 2625969.974800001829863 ], [ 3209187.169299997389317, 2626093.72239999845624 ], [ 3209250.970100000500679, 2626181.493700001388788 ], [ 3209315.513599999248981, 2626264.1875 ], [ 3209366.816699996590614, 2626313.873399998992682 ], [ 3209391.789599999785423, 2626330.198800001293421 ], [ 3209413.790899999439716, 2626337.61939999833703 ], [ 3209462.015600003302097, 2626346.738699998706579 ], [ 3209516.798600003123283, 2626385.680500000715256 ], [ 3209587.632200002670288, 2626433.860599998384714 ], [ 3209623.765000000596046, 2626452.140900000929832 ], [ 3209650.596699997782707, 2626455.803100001066923 ], [ 3209680.634800001978874, 2626453.2654 ], [ 3209702.438799999654293, 2626437.068 ], [ 3209717.816100001335144, 2626413.161800000816584 ], [ 3209719.046899996697903, 2626387.953699998557568 ], [ 3209694.859700001776218, 2626288.120999999344349 ], [ 3209693.20380000025034, 2626206.2379 ], [ 3209685.357199996709824, 2626150.8246 ], [ 3209669.344400003552437, 2626102.872900001704693 ], [ 3209661.389700002968311, 2626045.4441 ], [ 3209656.688100002706051, 2626002.44539999961853 ], [ 3209641.775399997830391, 2625956.44539999961853 ], [ 3209630.318199999630451, 2625909.259300000965595 ], [ 3209596.482299998402596, 2625866.72859999909997 ], [ 3209574.243900001049042, 2625825.118599999696016 ], [ 3209543.681199997663498, 2625748.235199999064207 ], [ 3209497.893899999558926, 2625638.932199999690056 ], [ 3209452.531400002539158, 2625557.770300000905991 ], [ 3209388.143200002610683, 2625438.857500001788139 ], [ 3209342.63629999756813, 2625335.079 ], [ 3209275.588699996471405, 2625213.286800000816584 ], [ 3209216.085400000214577, 2625111.214699998497963 ], [ 3209159.468500003218651, 2624986.885899998247623 ], [ 3209128.340899996459484, 2624898.960299998521805 ], [ 3209076.000500001013279, 2624789.489100001752377 ], [ 3209040.247500002384186, 2624709.343100000172853 ], [ 3209002.9949000030756, 2624649.39299999922514 ], [ 3208954.764899998903275, 2624561.329599998891354 ], [ 3208922.990900002419949, 2624480.486600000411272 ], [ 3208909.20830000191927, 2624436.937899999320507 ], [ 3208873.527500003576279, 2624309.018699999898672 ], [ 3208857.944399997591972, 2624269.578600000590086 ], [ 3208839.967000000178814, 2624222.725499998778105 ], [ 3208818.569600000977516, 2624167.991500001400709 ], [ 3208770.324100002646446, 2624089.495700001716614 ], [ 3208720.130500003695488, 2623972.873100001364946 ], [ 3208685.155000001192093, 2623878.600600000470877 ], [ 3208659.9441, 2623818.032600000500679 ], [ 3208634.06530000269413, 2623734.367499999701977 ], [ 3208599.219200000166893, 2623642.611400000751019 ], [ 3208577.850000001490116, 2623568.769200000911951 ], [ 3208551.865699999034405, 2623502.706700000911951 ], [ 3208510.750100001692772, 2623416.299699999392033 ], [ 3208476.047799997031689, 2623347.160599999129772 ], [ 3208450.417199999094009, 2623268.508900001645088 ], [ 3208426.730800002813339, 2623178.695999998599291 ], [ 3208419.496399998664856, 2623105.6418999992311 ], [ 3208397.58839999884367, 2623040.87779999896884 ], [ 3208350.803000003099442, 2622922.0625 ], [ 3208317.989200003445148, 2622811.088799998164177 ], [ 3208280.25450000166893, 2622711.9386 ], [ 3208253.929700002074242, 2622619.736999999731779 ], [ 3208228.837700001895428, 2622521.94310000166297 ], [ 3208196.365800000727177, 2622427.5472999997437 ], [ 3208170.689599998295307, 2622347.890299998223782 ], [ 3208161.749700002372265, 2622291.020599998533726 ], [ 3208141.748000003397465, 2622224.14130000025034 ], [ 3208138.167999997735023, 2622173.53999999910593 ], [ 3208128.887599997222424, 2622119.690200001001358 ], [ 3208093.23929999768734, 2622002.3246 ], [ 3208038.074400000274181, 2621867.338199999183416 ], [ 3207998.193599998950958, 2621755.715300001204014 ], [ 3207945.484899997711182, 2621639.215399999171495 ], [ 3207895.589699998497963, 2621548.212799999862909 ], [ 3207825.329599998891354, 2621432.61089999973774 ], [ 3207751.967399999499321, 2621335.256999999284744 ], [ 3207624.812700003385544, 2621159.182199999690056 ], [ 3207529.042099997401237, 2621046.38459999859333 ], [ 3207461.295999996364117, 2620970.375 ], [ 3207388.115500003099442, 2620876.540800001472235 ], [ 3207303.612300001084805, 2620767.682500001043081 ], [ 3207239.922799997031689, 2620682.418800000101328 ], [ 3207177.225599996745586, 2620597.101399999111891 ], [ 3207113.245300002396107, 2620496.260200001299381 ], [ 3207077.220499999821186, 2620411.081700000911951 ], [ 3207032.977899998426437, 2620283.080699998885393 ], [ 3206972.442100003361702, 2620141.328200001269579 ], [ 3206934.324699997901917, 2620054.752900000661612 ], [ 3206860.850000001490116, 2619866.372900001704693 ], [ 3206820.172700002789497, 2619768.872099999338388 ], [ 3206786.827399998903275, 2619687.082699999213219 ], [ 3206775.363799996674061, 2619629.826499998569489 ], [ 3206760.881099998950958, 2619572.722500000149012 ], [ 3206724.285099998116493, 2619496.13120000064373 ], [ 3206691.86089999973774, 2619432.404500000178814 ], [ 3206667.855499997735023, 2619356.176199998706579 ], [ 3206626.812899999320507, 2619271.255100000649691 ], [ 3206600.042999997735023, 2619219.81529999896884 ], [ 3206539.005699999630451, 2619058.459199998527765 ], [ 3206483.511100001633167, 2618916.94370000064373 ], [ 3206436.387299999594688, 2618782.037300001829863 ], [ 3206396.746899999678135, 2618665.368900001049042 ], [ 3206349.612199999392033, 2618441.438900001347065 ], [ 3206332.406000003218651, 2618370.38910000026226 ], [ 3206317.75280000269413, 2618290.160000000149012 ], [ 3206274.21509999781847, 2618146.519299998879433 ], [ 3206252.566100001335144, 2618096.823800001293421 ], [ 3206221.540500000119209, 2618050.625199999660254 ], [ 3206191.087399996817112, 2618025.521800000220537 ], [ 3206157.329899996519089, 2618004.614199999719858 ] ] ], [ [ [ 3234732.364900000393391, 2648470.179000001400709 ], [ 3234699.391400001943111, 2648463.764800000935793 ], [ 3234669.4221, 2648467.254900000989437 ], [ 3234637.39299999922514, 2648479.881799999624491 ], [ 3234604.169100001454353, 2648499.097600001841784 ], [ 3234596.192299999296665, 2648510.545800000429153 ], [ 3234589.0878000035882, 2648529.478799998760223 ], [ 3234590.966899998486042, 2648567.571100000292063 ], [ 3234590.465599998831749, 2648567.592599999159575 ], [ 3234599.3816, 2648605.846000000834465 ], [ 3234608.736199997365475, 2648632.511500000953674 ], [ 3234622.82599999755621, 2648653.420899998396635 ], [ 3234646.306599996984005, 2648681.400800000876188 ], [ 3234681.312299996614456, 2648708.817800000309944 ], [ 3234713.695100001990795, 2648733.8462999984622 ], [ 3234725.610299997031689, 2648751.343699999153614 ], [ 3234726.650700002908707, 2648772.399000000208616 ], [ 3234724.096400000154972, 2648802.164200000464916 ], [ 3234711.13400000333786, 2648844.997900001704693 ], [ 3234676.808600001037121, 2648933.605099998414516 ], [ 3234653.058799996972084, 2649022.693999998271465 ], [ 3234633.548799999058247, 2649075.397799998521805 ], [ 3234584.785599999129772, 2649176.762800000607967 ], [ 3234546.131300002336502, 2649269.09910000115633 ], [ 3234506.670199997723103, 2649396.126299999654293 ], [ 3234486.445299997925758, 2649505.6402000002563 ], [ 3234479.279899999499321, 2649564.263000000268221 ], [ 3234466.155199997127056, 2649726.1754 ], [ 3234461.915299996733665, 2649762.5493 ], [ 3234434.527099996805191, 2649869.395500000566244 ], [ 3234409.018799997866154, 2649963.598200000822544 ], [ 3234390.150799997150898, 2650059.967000000178814 ], [ 3234379.017700001597404, 2650180.588300000876188 ], [ 3234369.627099998295307, 2650275.486900001764297 ], [ 3234363.5471, 2650396.855399999767542 ], [ 3234346.868900001049042, 2650476.549699999392033 ], [ 3234328.229000002145767, 2650608.084600001573563 ], [ 3234306.85419999808073, 2650714.63060000166297 ], [ 3234285.095399998128414, 2650823.703299999237061 ], [ 3234249.51349999755621, 2650968.121500000357628 ], [ 3234238.801299996674061, 2651015.877000000327826 ], [ 3234225.602600000798702, 2651074.292700000107288 ], [ 3234213.284599997103214, 2651099.512299999594688 ], [ 3234194.326200000941753, 2651122.555399999022484 ], [ 3234165.389799997210503, 2651147.089499998837709 ], [ 3234131.454999998211861, 2651161.815400000661612 ], [ 3234085.464400000870228, 2651176.644999999552965 ], [ 3234021.928000003099442, 2651181.781100001186132 ], [ 3233987.034299999475479, 2651197.562300000339746 ], [ 3233949.32379999756813, 2651227.552799999713898 ], [ 3233917.045699998736382, 2651275.858300000429153 ], [ 3233902.73309999704361, 2651311.727099999785423 ], [ 3233892.031700000166893, 2651359.481600001454353 ], [ 3233865.360699996352196, 2651409.515500001609325 ], [ 3233816.713899999856949, 2651492.793200001120567 ], [ 3233778.968000002205372, 2651542.376600001007318 ], [ 3233765.221699997782707, 2651569.173300001770258 ], [ 3233762.968000002205372, 2651594.906199999153614 ], [ 3233771.62950000166893, 2651617.581700000911951 ], [ 3233799.874300003051758, 2651640.30350000038743 ], [ 3233860.161399997770786, 2651670.994300000369549 ], [ 3233922.219400003552437, 2651697.070599999278784 ], [ 3233955.242200002074242, 2651704.485599998384714 ], [ 3234049.251999996602535, 2651705.8794 ], [ 3234121.688699997961521, 2651697.792500000447035 ], [ 3234201.729900002479553, 2651670.743200000375509 ], [ 3234289.481600001454353, 2651626.735399998724461 ], [ 3234338.514600001275539, 2651592.175000000745058 ], [ 3234403.329800002276897, 2651531.212999999523163 ], [ 3234485.471100002527237, 2651454.829599998891354 ], [ 3234538.060699999332428, 2651390.453699998557568 ], [ 3234603.575199998915195, 2651302.830800000578165 ], [ 3234647.947200000286102, 2651234.839299999177456 ], [ 3234711.785800002515316, 2651113.145300000905991 ], [ 3234774.472699999809265, 2650947.797400001436472 ], [ 3234844.228100001811981, 2650783.1107 ], [ 3234928.972699999809265, 2650616.678300000727177 ], [ 3234948.043200001120567, 2650575.55460000038147 ], [ 3234999.084499999880791, 2650438.910000000149012 ], [ 3234989.652400001883507, 2650288.168000001460314 ], [ 3234980.229699999094009, 2650137.414900001138449 ], [ 3234970.79730000346899, 2649986.671399999409914 ], [ 3234969.232799999415874, 2649832.518100000917912 ], [ 3234969.630199998617172, 2649677.276000000536442 ], [ 3234982.958999998867512, 2649519.371599998325109 ], [ 3234999.294699996709824, 2649361.328000001609325 ], [ 3235005.820000000298023, 2649310.26410000026226 ], [ 3235015.328000001609325, 2649268.603100001811981 ], [ 3235036.731100000441074, 2649193.203099999576807 ], [ 3235085.757600001990795, 2649015.453299999237061 ], [ 3235127.5154, 2648833.041999999433756 ], [ 3235118.430699996650219, 2648791.290899999439716 ], [ 3235099.036200001835823, 2648754.569699998944998 ], [ 3235065.82490000128746, 2648712.493500001728535 ], [ 3235013.713500000536442, 2648664.31529999896884 ], [ 3234844.101099997758865, 2648535.513000000268221 ], [ 3234783.384300000965595, 2648496.309399999678135 ], [ 3234732.364900000393391, 2648470.179000001400709 ] ] ], [ [ [ 3146072.189599998295307, 2667501.114799998700619 ], [ 3146074.244499996304512, 2667474.8838 ], [ 3146056.686800003051758, 2667466.322999998927116 ], [ 3146003.936599999666214, 2667466.239799998700619 ], [ 3145965.552400000393391, 2667471.391399998217821 ], [ 3145902.229699999094009, 2667479.947799999266863 ], [ 3145854.549400001764297, 2667480.586899999529123 ], [ 3145797.118900001049042, 2667477.7577 ], [ 3145713.078500002622604, 2667474.907999999821186 ], [ 3145667.257100000977516, 2667481.984400000423193 ], [ 3145643.085199996829033, 2667498.899700000882149 ], [ 3145640.941200003027916, 2667514.589499998837709 ], [ 3145640.888400003314018, 2667540.709100000560284 ], [ 3145638.891800001263618, 2667586.031199999153614 ], [ 3145635.336300000548363, 2667612.350600000470877 ], [ 3145627.390699997544289, 2667659.007399998605251 ], [ 3145599.187100000679493, 2667711.815499998629093 ], [ 3145557.630000002682209, 2667768.383099999278784 ], [ 3145532.737400002777576, 2667799.407900001853704 ], [ 3145526.257200002670288, 2667818.355599999427795 ], [ 3145534.55290000140667, 2667831.95380000025034 ], [ 3145549.154200002551079, 2667841.692400000989437 ], [ 3145562.208400003612041, 2667850.508400000631809 ], [ 3145583.991400003433228, 2667853.819200001657009 ], [ 3145615.203299999237061, 2667855.094700001180172 ], [ 3145642.912100002169609, 2667856.560100000351667 ], [ 3145673.622500002384186, 2667848.818399999290705 ], [ 3145739.421099998056889, 2667812.506799999624491 ], [ 3145746.565499998629093, 2667808.779699999839067 ], [ 3145759.64919999986887, 2667801.96229999884963 ], [ 3145795.558700002729893, 2667783.25789999961853 ], [ 3145861.514600001275539, 2667749.949299998581409 ], [ 3145918.207500003278255, 2667712.628400001674891 ], [ 3145953.809199996292591, 2667684.526799999177456 ], [ 3145980.036799997091293, 2667650.421100001782179 ], [ 3146035.758000001311302, 2667568.455299999564886 ], [ 3146054.057300001382828, 2667536.286299999803305 ], [ 3146072.189599998295307, 2667501.114799998700619 ] ] ], [ [ [ 3203584.48870000243187, 2674131.958200000226498 ], [ 3203510.94370000064373, 2674030.851799998432398 ], [ 3203404.443300001323223, 2673904.354699999094009 ], [ 3203398.5, 2673886.584100000560284 ], [ 3203402.142300002276897, 2673882.221000000834465 ], [ 3203399.134800001978874, 2673879.522900000214577 ], [ 3203388.176600001752377, 2673881.094999998807907 ], [ 3203381.034500002861023, 2673869.416900001466274 ], [ 3203379.391400001943111, 2673847.414900001138449 ], [ 3203364.836599998176098, 2673818.552000001072884 ], [ 3203348.984999999403954, 2673793.769200000911951 ], [ 3203334.835400000214577, 2673782.45719999819994 ], [ 3203319.215899996459484, 2673771.721200000494719 ], [ 3203311.158299997448921, 2673761.598099999129772 ], [ 3203305.947899997234344, 2673757.852299999445677 ], [ 3203288.873099997639656, 2673773.297200001776218 ], [ 3203265.357199996709824, 2673741.88569999858737 ], [ 3203201.248199999332428, 2673704.561500001698732 ], [ 3203181.092000000178814, 2673693.562199998646975 ], [ 3203161.19990000128746, 2673697.109900001436472 ], [ 3203136.275100000202656, 2673690.874099999666214 ], [ 3203063.537699997425079, 2673692.154899999499321 ], [ 3202986.871399998664856, 2673695.1426 ], [ 3202902.933899998664856, 2673703.023400001227856 ], [ 3202851.251800000667572, 2673722.789700001478195 ], [ 3202834.71000000089407, 2673752.268500000238419 ], [ 3202832.152300000190735, 2673799.597899999469519 ], [ 3202851.261600002646446, 2673838.766699999570847 ], [ 3202866.223300002515316, 2673904.263799998909235 ], [ 3202906.176899999380112, 2673948.371399998664856 ], [ 3202924.73650000244379, 2673977.028900001198053 ], [ 3202935.855899997055531, 2673978.459499999880791 ], [ 3202998.305500000715256, 2673976.423900000751019 ], [ 3203003.318400003015995, 2673972.432399999350309 ], [ 3203020.292900003492832, 2673970.5471 ], [ 3203038.500299997627735, 2673982.644799999892712 ], [ 3203068.979699999094009, 2673999.13289999961853 ], [ 3203103.124099999666214, 2674018.4408 ], [ 3203130.0996999964118, 2674035.112100001424551 ], [ 3203130.443099997937679, 2674040.906500000506639 ], [ 3203130.785999998450279, 2674046.6908 ], [ 3203135.878600001335144, 2674044.521899998188019 ], [ 3203202.739500001072884, 2674099.614999998360872 ], [ 3203268.845499999821186, 2674260.342599999159575 ], [ 3203363.960600003600121, 2674611.8597999997437 ], [ 3203422.537399999797344, 2674811.1404 ], [ 3203497.637599997222424, 2674951.817299999296665 ], [ 3203634.320200003683567, 2675176.150100000202656 ], [ 3203719.433499999344349, 2675325.839999999850988 ], [ 3203803.540299996733665, 2675466.052099999040365 ], [ 3203819.545299999415874, 2675590.233800001442432 ], [ 3203864.11540000140667, 2675703.877900000661612 ], [ 3203987.274700000882149, 2675851.594700001180172 ], [ 3204109.4419, 2675980.282299999147654 ], [ 3204150.98480000346899, 2676035.857299998402596 ], [ 3204181.04730000346899, 2675870.629099998623133 ], [ 3204202.58110000193119, 2675724.924899999052286 ], [ 3204211.111100003123283, 2675338.915199998766184 ], [ 3204194.094800002872944, 2675011.956900000572205 ], [ 3204129.018399998545647, 2674870.760499998927116 ], [ 3204030.989200003445148, 2674689.72520000115037 ], [ 3203849.151299998164177, 2674480.662099998444319 ], [ 3203714.951399996876717, 2674313.936999998986721 ], [ 3203664.95549999922514, 2674256.260600000619888 ], [ 3203673.597000002861023, 2674251.498700000345707 ], [ 3203672.44370000064373, 2674249.211300000548363 ], [ 3203671.300300002098083, 2674246.92339999973774 ], [ 3203647.629100002348423, 2674216.532299999147654 ], [ 3203584.48870000243187, 2674131.958200000226498 ] ] ] ] } }
]
}
